{
"type": "FeatureCollection",
"name": "official_2008",
"crs": { "type": "name", "properties": { "name": "urn:ogc:def:crs:OGC:1.3:CRS84" } },
"features": [
{ "type": "Feature", "properties": { "GRID_CODE": 2, "CODI_FINAL": "2008250043", "MUNICIPI": "Bausen", "DATA_INCEN": "27/01/08" }, "geometry": { "type": "MultiPolygon", "coordinates": [ [ [ [ 0.695555418017493, 42.837849345841185 ], [ 0.695249751555681, 42.83784319207173 ], [ 0.695241389213295, 42.838068143667293 ], [ 0.694324387139647, 42.83804967745904 ], [ 0.694332752802927, 42.837824726007945 ], [ 0.694027086723851, 42.837818569022417 ], [ 0.694018719953609, 42.838043520425337 ], [ 0.69310171903351, 42.838025044433785 ], [ 0.693118459119579, 42.837575141906818 ], [ 0.692507130040737, 42.837562820694721 ], [ 0.692498757831902, 42.837787771866907 ], [ 0.691887426925627, 42.837775447252362 ], [ 0.691895801407805, 42.837550496222818 ], [ 0.691284473100311, 42.837538168443679 ], [ 0.691292849640658, 42.837313217454152 ], [ 0.690375861280674, 42.837294719884426 ], [ 0.690367481358435, 42.837519670728 ], [ 0.690061817698162, 42.837513503193506 ], [ 0.690036674155134, 42.838188355520735 ], [ 0.689731007209191, 42.838182187024984 ], [ 0.68972262474899, 42.838407137732503 ], [ 0.689416956792394, 42.8384009683732 ], [ 0.689408573128896, 42.838625919022249 ], [ 0.688797235353569, 42.838613577717538 ], [ 0.688788849318623, 42.838838528258599 ], [ 0.68664916229434, 42.838795307828221 ], [ 0.686640768414049, 42.83902025802098 ], [ 0.685723757823542, 42.839001722605282 ], [ 0.685715360586918, 42.83922667264406 ], [ 0.686021031814671, 42.839232851979993 ], [ 0.686012635527452, 42.839457802055669 ], [ 0.685401291017228, 42.839445442428065 ], [ 0.6853844938475, 42.839895342357899 ], [ 0.685690168238712, 42.839901522652951 ], [ 0.685681770616147, 42.840126472650944 ], [ 0.685376095056745, 42.840120292306302 ], [ 0.685367696230624, 42.840345242245732 ], [ 0.685062019660663, 42.840339061037419 ], [ 0.68505361963096, 42.840564010918278 ], [ 0.684747942050441, 42.840557828846293 ], [ 0.684739540817131, 42.840782778668597 ], [ 0.684433862226067, 42.840776595732898 ], [ 0.684425459789126, 42.841001545496631 ], [ 0.6841197801875, 42.84099536169721 ], [ 0.684086165045727, 42.841895160456616 ], [ 0.683474797276826, 42.841882789979692 ], [ 0.683457984697891, 42.842332689104623 ], [ 0.683763670749224, 42.842338874825067 ], [ 0.6837132372763, 42.843688572244112 ], [ 0.68340754458167, 42.843682386233318 ], [ 0.683390730457184, 42.844132285195002 ], [ 0.683085035644625, 42.844126098271985 ], [ 0.683059810350342, 42.84480094649156 ], [ 0.682754112373654, 42.844794758609119 ], [ 0.682737292792656, 42.845244657273916 ], [ 0.683042993045143, 42.845250845254384 ], [ 0.683034584247599, 42.845475794620512 ], [ 0.683645987257124, 42.845488168231888 ], [ 0.68363758057769, 42.845713117684603 ], [ 0.684554689077375, 42.84573167212956 ], [ 0.684563092434715, 42.845506722531709 ], [ 0.684868794374103, 42.845512905667768 ], [ 0.684877196527528, 42.845287956011354 ], [ 0.685488598481208, 42.84530031974036 ], [ 0.685496998323399, 42.845075369976982 ], [ 0.685802698337688, 42.845081550569937 ], [ 0.685794299602843, 42.84530650038166 ], [ 0.686711403483909, 42.845325037456526 ], [ 0.686703007976318, 42.845549987358083 ], [ 0.687314413300997, 42.84556234144312 ], [ 0.687280839098898, 42.846462141467619 ], [ 0.686975131957897, 42.846455964662042 ], [ 0.686966737073682, 42.846680914605905 ], [ 0.686355320927377, 42.846668558452834 ], [ 0.686346923670672, 42.846893508288595 ], [ 0.686041214665384, 42.846887328941079 ], [ 0.686032816204749, 42.847112278718299 ], [ 0.686949947015853, 42.847130814463036 ], [ 0.686941551842237, 42.84735576437631 ], [ 0.686635840367915, 42.847349586561911 ], [ 0.686627443990352, 42.847574536416644 ], [ 0.68846172086679, 42.847611591358692 ], [ 0.688470110599466, 42.847386641214065 ], [ 0.688775822652414, 42.847392814135297 ], [ 0.688784211179533, 42.847167863977162 ], [ 0.691535613963742, 42.847223383133546 ], [ 0.691543992428945, 42.846998432485911 ], [ 0.691849703230294, 42.847004597155333 ], [ 0.691866457656963, 42.846554695733033 ], [ 0.692172166337989, 42.846560859535472 ], [ 0.692180542299495, 42.846335908760814 ], [ 0.692791957677609, 42.846348233731511 ], [ 0.692800331389148, 42.846123282851494 ], [ 0.693106038084544, 42.846129444064751 ], [ 0.69311441059246, 42.845904493126319 ], [ 0.693420116276647, 42.845910653475904 ], [ 0.693436858727922, 42.845460751470839 ], [ 0.695576786010332, 42.84550385046073 ], [ 0.695585149370568, 42.845278899106361 ], [ 0.696502259174627, 42.845297357705839 ], [ 0.696510619055487, 42.845072406195641 ], [ 0.696816321428654, 42.845078557383459 ], [ 0.696824680106085, 42.844853605814954 ], [ 0.698047486066805, 42.844878202262713 ], [ 0.698055840279902, 42.844653250492826 ], [ 0.698667241591828, 42.844665543704572 ], [ 0.698675593433087, 42.844440591827116 ], [ 0.698981293156238, 42.844446737162315 ], [ 0.69898964379419, 42.844221785226594 ], [ 0.699295342505957, 42.844227929698263 ], [ 0.699303691940628, 42.844002977704278 ], [ 0.700832181338862, 42.844033687634216 ], [ 0.700840525141002, 42.843808735389793 ], [ 0.701146222213562, 42.843814874872642 ], [ 0.701154564812517, 42.843589922570011 ], [ 0.701460260873642, 42.843596061189373 ], [ 0.701468602269437, 42.843371108828514 ], [ 0.701774297319112, 42.843377246584417 ], [ 0.701765957030616, 42.843602198993288 ], [ 0.70237734963205, 42.843614472154783 ], [ 0.702385687705943, 42.843389519649911 ], [ 0.702691383043085, 42.843395654959494 ], [ 0.702666371794776, 42.844070512586327 ], [ 0.702972070549666, 42.844076647224441 ], [ 0.702963734403008, 42.844301599794747 ], [ 0.703575134414831, 42.844313866720547 ], [ 0.703583468346788, 42.844088914054296 ], [ 0.704194866464165, 42.844101177666019 ], [ 0.704203198085691, 42.84387622489362 ], [ 0.707260183592579, 42.843937493369964 ], [ 0.707268504045076, 42.843712540108058 ], [ 0.707879900030912, 42.843724783911995 ], [ 0.707888218173152, 42.843499830544125 ], [ 0.709111006984695, 42.843524308177429 ], [ 0.709127634123959, 42.843074401028197 ], [ 0.70943332935108, 42.843080518302166 ], [ 0.709491513638131, 42.841505842670564 ], [ 0.709185826161797, 42.841499725731573 ], [ 0.709202451581639, 42.841049818399206 ], [ 0.708896766415229, 42.841043700740556 ], [ 0.708913393667349, 42.840593793463206 ], [ 0.708607710871937, 42.840587675086127 ], [ 0.708591081344337, 42.841037582266509 ], [ 0.708285396430125, 42.841031462978322 ], [ 0.708293712318302, 42.840806509440469 ], [ 0.707682344868633, 42.840794268511225 ], [ 0.707690662875577, 42.840569315058957 ], [ 0.707079298085333, 42.840557070920234 ], [ 0.707087618209325, 42.840332117598578 ], [ 0.70739329948091, 42.840338240005849 ], [ 0.707409937231171, 42.839888333146249 ], [ 0.70771561638409, 42.839894454642376 ], [ 0.707707298663874, 42.840119408125148 ], [ 0.708318659409514, 42.84013164876589 ], [ 0.708343605701924, 42.83945678800093 ], [ 0.708037928572079, 42.839450668231287 ], [ 0.708054561129366, 42.839000761098724 ], [ 0.707748886309235, 42.838994640609485 ], [ 0.707757203551597, 42.838769687075811 ], [ 0.707451529995228, 42.838763565820365 ], [ 0.707459848249068, 42.83853861232442 ], [ 0.706542831291214, 42.838520243806194 ], [ 0.706517866279463, 42.839195103832388 ], [ 0.705906515478303, 42.839182853744525 ], [ 0.705898191402328, 42.839407806970378 ], [ 0.706203867861335, 42.839413932492398 ], [ 0.706195544798465, 42.83963888571104 ], [ 0.706501222460196, 42.839645010465645 ], [ 0.706509544417641, 42.839420057154101 ], [ 0.70681522100843, 42.839426180999233 ], [ 0.706806900158077, 42.839651134358675 ], [ 0.706501222460196, 42.839645010465645 ], [ 0.706492900347656, 42.839869963720773 ], [ 0.706187221638295, 42.83986383896449 ], [ 0.706178898321351, 42.840088792206522 ], [ 0.705873218600514, 42.840082666586945 ], [ 0.705889867230705, 42.839632760186085 ], [ 0.705584189758604, 42.839626633845803 ], [ 0.705575864384232, 42.839851587003402 ], [ 0.705270185900681, 42.839845459799825 ], [ 0.705261859323537, 42.840070412899308 ], [ 0.705567538914199, 42.840076540150797 ], [ 0.705559213348502, 42.840301493288038 ], [ 0.704947852048607, 42.840289237873812 ], [ 0.704939524172972, 42.84051419090499 ], [ 0.704633842559418, 42.84050806192689 ], [ 0.704617184306767, 42.840957967862828 ], [ 0.704311500574625, 42.840951837973456 ], [ 0.704303170199235, 42.841176790833195 ], [ 0.703997485455632, 42.841170660080486 ], [ 0.703989153875672, 42.841395612927073 ], [ 0.703377782461327, 42.841383348879553 ], [ 0.703369448571247, 42.84160830162002 ], [ 0.70306376190051, 42.84160216832521 ], [ 0.703072096958924, 42.841377215633933 ], [ 0.703377782461327, 42.841383348879553 ], [ 0.703386116316776, 42.84115839613014 ], [ 0.703691800807761, 42.84116452851238 ], [ 0.703700133399156, 42.840939575703558 ], [ 0.704311500574625, 42.840951837973456 ], [ 0.704336491192622, 42.840276979199373 ], [ 0.704642171542199, 42.840283108943659 ], [ 0.704658829281756, 42.839833202947879 ], [ 0.704964507512805, 42.839839331780915 ], [ 0.704981162655394, 42.839389425648534 ], [ 0.704675486577386, 42.839383296910157 ], [ 0.704692143490235, 42.838933390831741 ], [ 0.704997817354103, 42.838939519474202 ], [ 0.705006144559934, 42.83871456637177 ], [ 0.705311817412448, 42.838720694150986 ], [ 0.705336795133128, 42.838045834683811 ], [ 0.706559474215436, 42.838070337072409 ], [ 0.706567795503556, 42.837845383689626 ], [ 0.705956457985131, 42.837833134221761 ], [ 0.705981427917674, 42.837158274299867 ], [ 0.705370097484761, 42.837146021859624 ], [ 0.705378422818233, 42.836921068627852 ], [ 0.705072758821637, 42.836914941232138 ], [ 0.705089411415474, 42.836465034833886 ], [ 0.704783749789532, 42.836458906720047 ], [ 0.704792077049848, 42.836233953553595 ], [ 0.703263775647257, 42.836203300945535 ], [ 0.703255442852431, 42.836428253872171 ], [ 0.701421477673393, 42.836391443605372 ], [ 0.701413138141378, 42.83661639623385 ], [ 0.701107476498074, 42.836610258242821 ], [ 0.701115817135326, 42.836385305707338 ], [ 0.70050449634838, 42.836373027420599 ], [ 0.700496153495648, 42.836597979904994 ], [ 0.70019049213823, 42.836591839513211 ], [ 0.700198836158985, 42.836366887078078 ], [ 0.699893176004325, 42.836360745919109 ], [ 0.699901520974959, 42.836135793520597 ], [ 0.699290203167081, 42.836123508853042 ], [ 0.699281855982681, 42.836348461155431 ], [ 0.698976196115711, 42.836342317550745 ], [ 0.698967847728507, 42.836567269794884 ], [ 0.698662186850566, 42.836561125326888 ], [ 0.698670536344662, 42.83633617313081 ], [ 0.698976196115711, 42.836342317550745 ], [ 0.698984544406993, 42.836117365296403 ], [ 0.698373227235724, 42.836105075738693 ], [ 0.698364876730684, 42.836330027896878 ], [ 0.698059217151529, 42.836323881846496 ], [ 0.698042513639801, 42.836773786036133 ], [ 0.697736851944487, 42.836767639029325 ], [ 0.697728498937772, 42.836992591060778 ], [ 0.697422836229837, 42.836986443235638 ], [ 0.69741448202022, 42.837211395208797 ], [ 0.697108818301351, 42.837205246520298 ], [ 0.697125528838433, 42.83675534265997 ], [ 0.696208544960535, 42.83673689199285 ], [ 0.696200186419269, 42.836961843783776 ], [ 0.696505848682033, 42.836967994868687 ], [ 0.69648913352523, 42.837417898516186 ], [ 0.696183468987477, 42.837411747333789 ], [ 0.696175110158086, 42.837636699094119 ], [ 0.695563779156842, 42.837624394187294 ], [ 0.695555418017493, 42.837849345841185 ], [ 0.69616675123265, 42.837861650844282 ], [ 0.69615839221117, 42.838086602584248 ], [ 0.695852724448586, 42.838080450442199 ], [ 0.695819282914725, 42.838980257061436 ], [ 0.695513610881338, 42.838974103912804 ], [ 0.695505249104409, 42.839199055504317 ], [ 0.694588230137398, 42.839180591019662 ], [ 0.694604960115054, 42.838730688112861 ], [ 0.694910630814282, 42.838736843660506 ], [ 0.69491899455193, 42.838511892143657 ], [ 0.695224664240267, 42.838518046827836 ], [ 0.695233026774824, 42.838293095252666 ], [ 0.695538695452256, 42.838299249073401 ], [ 0.695555418017493, 42.837849345841185 ] ], [ [ 0.703469449052945, 42.838908868109918 ], [ 0.704080796110713, 42.838921131102076 ], [ 0.704064134708486, 42.839371036987444 ], [ 0.703452783283606, 42.839358773804634 ], [ 0.703469449052945, 42.838908868109918 ] ], [ [ 0.702519083979585, 42.839790278234709 ], [ 0.703130439319401, 42.839802546502682 ], [ 0.703113770508718, 42.840252452018788 ], [ 0.702502410801613, 42.840240183560091 ], [ 0.702519083979585, 42.839790278234709 ] ], [ [ 0.695496887292538, 42.83942400708689 ], [ 0.696413910504848, 42.83944246442438 ], [ 0.69642226899558, 42.839217512697417 ], [ 0.696727942485285, 42.839223663449481 ], [ 0.696719585101601, 42.839448615224569 ], [ 0.696413910504848, 42.83944246442438 ], [ 0.696388834396929, 42.840117319497914 ], [ 0.695471801280443, 42.84009886177347 ], [ 0.695496887292538, 42.83942400708689 ] ], [ [ 0.691405853140163, 42.842493252920903 ], [ 0.692017230290189, 42.842505581189968 ], [ 0.691992103705025, 42.843180433813586 ], [ 0.691686411728793, 42.843174269963981 ], [ 0.691678034900111, 42.843399220784896 ], [ 0.690760956227203, 42.843380724198866 ], [ 0.69076933643878, 42.843155773523868 ], [ 0.691075028065081, 42.843161939818486 ], [ 0.691083407011994, 42.842936989083853 ], [ 0.691389097688475, 42.842943154516043 ], [ 0.691405853140163, 42.842493252920903 ] ], [ [ 0.697603192135698, 42.840366870306518 ], [ 0.6975948375932, 42.840591822174979 ], [ 0.698511879429923, 42.840610263067056 ], [ 0.698503528112821, 42.840835215069617 ], [ 0.697892164578088, 42.840822921860735 ], [ 0.697883810950736, 42.841047873756935 ], [ 0.697578128220211, 42.841041725881347 ], [ 0.697586482954706, 42.840816774033257 ], [ 0.697280801428981, 42.840810625345433 ], [ 0.697272445587347, 42.841035577145405 ], [ 0.696355398321015, 42.841017126181633 ], [ 0.696372116551069, 42.840567222860145 ], [ 0.697289157234073, 42.840585673581472 ], [ 0.697297512883687, 42.840360721761094 ], [ 0.697603192135698, 42.840366870306518 ] ], [ [ 0.688273470912008, 42.844456115344634 ], [ 0.689190563882348, 42.844474632225015 ], [ 0.689173791195125, 42.844924532961095 ], [ 0.688562391417005, 42.844912188997718 ], [ 0.688554002683591, 42.845137139253275 ], [ 0.688248301862339, 42.845130966000724 ], [ 0.688231521952723, 42.845580866385887 ], [ 0.687925818952008, 42.845574692220026 ], [ 0.68793421009296, 42.84534974208146 ], [ 0.687322806595551, 42.845337391399937 ], [ 0.687339592895302, 42.844887491282982 ], [ 0.688256691641966, 42.844906015792226 ], [ 0.688273470912008, 42.844456115344634 ] ], [ [ 0.700999039348456, 42.839534640859689 ], [ 0.701304715384311, 42.83954077943001 ], [ 0.701313056162112, 42.839315826933898 ], [ 0.701618731186747, 42.839321964640874 ], [ 0.701627070761652, 42.839097012086576 ], [ 0.701932744775055, 42.839103148930199 ], [ 0.701924406307207, 42.839328101532516 ], [ 0.702230081462341, 42.839334237607616 ], [ 0.702213406453367, 42.839784142877704 ], [ 0.701907729022937, 42.839778006705373 ], [ 0.70189939026765, 42.840002959277157 ], [ 0.70159371182594, 42.839996822241467 ], [ 0.701577031813686, 42.840446727258445 ], [ 0.701271351253578, 42.84044058931137 ], [ 0.701279692414749, 42.840215636856009 ], [ 0.700974013118742, 42.840209498142833 ], [ 0.700982355291166, 42.839984545725308 ], [ 0.70067667713698, 42.839978406243588 ], [ 0.700685020320643, 42.839753453863906 ], [ 0.700379343369413, 42.839747313614879 ], [ 0.700404375727551, 42.839072456560061 ], [ 0.701015723022341, 42.839084735953342 ], [ 0.700999039348456, 42.839534640859689 ] ], [ [ 0.693646106323506, 42.839836973046225 ], [ 0.694868810623358, 42.839861601090625 ], [ 0.694852081898699, 42.840311503991835 ], [ 0.694546403450097, 42.840305348107094 ], [ 0.694538037836487, 42.840530299494255 ], [ 0.693926679013445, 42.840517985182444 ], [ 0.693901574954806, 42.841192838948771 ], [ 0.693595892366121, 42.841186680425324 ], [ 0.693587523046559, 42.841411631627196 ], [ 0.692976155943415, 42.841399312037794 ], [ 0.692951040764672, 42.842074165293148 ], [ 0.692645354035859, 42.842068004130788 ], [ 0.692636981010021, 42.842292955147329 ], [ 0.692025605626656, 42.842280630280044 ], [ 0.692067480926607, 42.841155875578771 ], [ 0.692373163034323, 42.841162038179036 ], [ 0.692389910241978, 42.840712136130271 ], [ 0.692695590231668, 42.840718297818775 ], [ 0.692712334840262, 42.840268395632833 ], [ 0.69332369067982, 42.840280716371019 ], [ 0.693332060623974, 42.840055765211346 ], [ 0.693637737580923, 42.840061924309261 ], [ 0.693646106323506, 42.839836973046225 ] ] ], [ [ [ 0.689458873726118, 42.837276214976264 ], [ 0.690070198666196, 42.837288552396949 ], [ 0.690086960313374, 42.836838650773274 ], [ 0.688558659815742, 42.8368078015911 ], [ 0.688550273505849, 42.837032752166685 ], [ 0.688244612576228, 42.837026579836028 ], [ 0.688227837455231, 42.837476480815056 ], [ 0.68945049054425, 42.837501165676279 ], [ 0.689458873726118, 42.837276214976264 ] ] ], [ [ [ 0.701304715384311, 42.83954077943001 ], [ 0.701296374510674, 42.839765731915925 ], [ 0.701602051688323, 42.839771869717708 ], [ 0.701610391516017, 42.839546917185004 ], [ 0.701304715384311, 42.83954077943001 ] ] ] ] } },
{ "type": "Feature", "properties": { "GRID_CODE": 2, "CODI_FINAL": "2008250042", "MUNICIPI": "Bossòst", "DATA_INCEN": "14/02/08" }, "geometry": { "type": "Polygon", "coordinates": [ [ [ 0.684150398387426, 42.791019222416715 ], [ 0.683539531558214, 42.791006864071271 ], [ 0.683522749320532, 42.791456767226634 ], [ 0.682911878459654, 42.791444405432046 ], [ 0.682962237326852, 42.790094696470113 ], [ 0.681740523264263, 42.790069964274842 ], [ 0.681732125953699, 42.790294915608186 ], [ 0.681121267292561, 42.790282544530392 ], [ 0.681112867677074, 42.790507495756749 ], [ 0.680502007254419, 42.790495121327758 ], [ 0.680493605335645, 42.790720072402102 ], [ 0.680188174134263, 42.790713883917711 ], [ 0.680171367795331, 42.791163786028918 ], [ 0.68078223465057, 42.791176162376203 ], [ 0.680765432344438, 42.791626064595278 ], [ 0.681070868155914, 42.791632251645474 ], [ 0.681062467961587, 42.791857202810611 ], [ 0.679840720877401, 42.791832449532549 ], [ 0.679857530065093, 42.791382547580653 ], [ 0.679552095743945, 42.791376357323159 ], [ 0.679560501266744, 42.791151406379726 ], [ 0.678644202195399, 42.791132830869003 ], [ 0.678635793359761, 42.791357781667102 ], [ 0.678024925586492, 42.791345393826759 ], [ 0.678016514445699, 42.79157034451773 ], [ 0.678321949388327, 42.791576538893317 ], [ 0.678305129027226, 42.792026440296581 ], [ 0.678610566275062, 42.792032633955159 ], [ 0.678593747736257, 42.792482535414507 ], [ 0.678288308279753, 42.792476341659004 ], [ 0.678279897760282, 42.792701292347402 ], [ 0.677974457296023, 42.792695097729478 ], [ 0.67796604557559, 42.792920048359207 ], [ 0.677660604103577, 42.792913852878854 ], [ 0.677652191183841, 42.793138803404894 ], [ 0.677041306320963, 42.793126409905305 ], [ 0.677058136482965, 42.792676508991939 ], [ 0.677363576657357, 42.792682706051735 ], [ 0.677380404224085, 42.792232805000566 ], [ 0.676769528450403, 42.792220410262182 ], [ 0.676752696466313, 42.792670311119402 ], [ 0.676447256485229, 42.792664112431673 ], [ 0.676422004409103, 42.793338963516696 ], [ 0.677338334581657, 42.793357557574446 ], [ 0.677304677127198, 42.794257359476831 ], [ 0.676999229222028, 42.794251162077607 ], [ 0.676973981803468, 42.794926013240499 ], [ 0.676668530681563, 42.794919814881773 ], [ 0.676651696377464, 42.795369715494033 ], [ 0.676346243143252, 42.79536351622427 ], [ 0.676337824740838, 42.795588466489072 ], [ 0.675726916353488, 42.795576065410444 ], [ 0.675735336964918, 42.795351115242674 ], [ 0.67542988402081, 42.795344913530826 ], [ 0.675404618584502, 42.79601976381295 ], [ 0.675099162423569, 42.796013561141464 ], [ 0.675090739314588, 42.796238511136572 ], [ 0.674785282145869, 42.796232307602509 ], [ 0.674776857833893, 42.796457257583853 ], [ 0.67416594163872, 42.796444847977725 ], [ 0.674157515020867, 42.796669797851763 ], [ 0.673546596942601, 42.79665738489102 ], [ 0.673538168020501, 42.796882334612725 ], [ 0.671094490805457, 42.796832649819692 ], [ 0.671111366227519, 42.796382751098527 ], [ 0.669889538751385, 42.796357889552816 ], [ 0.669881096671465, 42.796582838701489 ], [ 0.668964723829882, 42.796564183849966 ], [ 0.668956278337644, 42.796789132887433 ], [ 0.668345361345061, 42.796776692151305 ], [ 0.668353809046404, 42.796551743211147 ], [ 0.66774289465104, 42.796539299316137 ], [ 0.667734444740598, 42.796764248158929 ], [ 0.667428986583932, 42.796758024941667 ], [ 0.667420535473568, 42.796982973680564 ], [ 0.667115076309421, 42.796976749600539 ], [ 0.667131980643881, 42.796526852164931 ], [ 0.666215610422324, 42.796508175333976 ], [ 0.666207154989156, 42.796733123933258 ], [ 0.66559623974387, 42.79672066854409 ], [ 0.665579324169641, 42.797170565472079 ], [ 0.664968404894692, 42.797158106631763 ], [ 0.66497686494035, 42.796933158247846 ], [ 0.664365948324282, 42.796920696250012 ], [ 0.664374410481867, 42.796695747953386 ], [ 0.663763496463662, 42.796683282796828 ], [ 0.663755032098678, 42.796908230950962 ], [ 0.662838658456366, 42.796889526963817 ], [ 0.662830190678808, 42.797114475006339 ], [ 0.662219273216476, 42.797102001469135 ], [ 0.662193862674484, 42.797776845197653 ], [ 0.662499324641043, 42.797783082496544 ], [ 0.662507793813272, 42.797558134578473 ], [ 0.663424177104958, 42.797576841446855 ], [ 0.663415711244796, 42.797801789556289 ], [ 0.663721173661469, 42.797808023600126 ], [ 0.663712708808689, 42.7980329717481 ], [ 0.66493456374373, 42.798057899975191 ], [ 0.664926103212213, 42.798282848307998 ], [ 0.665231568324118, 42.798289078378914 ], [ 0.665223108800064, 42.79851402675024 ], [ 0.665528575113771, 42.798520256055788 ], [ 0.665520116598898, 42.798745204420641 ], [ 0.665825584053314, 42.798751432959584 ], [ 0.665817126544251, 42.79897638140794 ], [ 0.66612259526157, 42.798982609182751 ], [ 0.666114138760057, 42.799207557669604 ], [ 0.666725078695425, 42.799220010874265 ], [ 0.666716624307863, 42.799444959403374 ], [ 0.667022095525913, 42.799451184833202 ], [ 0.667013642144263, 42.799676133445786 ], [ 0.667624587081042, 42.799688581960488 ], [ 0.667616135811747, 42.799913530660241 ], [ 0.668532557198006, 42.799932197471044 ], [ 0.66852410914755, 42.800157146261625 ], [ 0.667913159209443, 42.800144702437045 ], [ 0.667896258395009, 42.800594599882828 ], [ 0.668201735525058, 42.800600822299558 ], [ 0.668193286078716, 42.800825771010828 ], [ 0.668804242839497, 42.800838213499134 ], [ 0.668795795504001, 42.801063162342516 ], [ 0.669406754862474, 42.801075601671457 ], [ 0.669398309639567, 42.801300550601937 ], [ 0.670314752658108, 42.80131920363366 ], [ 0.670306310654359, 42.801544152654898 ], [ 0.672444688904362, 42.801587648285775 ], [ 0.672469991426919, 42.800912800080567 ], [ 0.67491383159124, 42.800962459303939 ], [ 0.674905406351888, 42.801187409119422 ], [ 0.675210887920498, 42.801193612907191 ], [ 0.675227736091115, 42.800743713213926 ], [ 0.675533215546856, 42.800749916090425 ], [ 0.675541638383071, 42.800524966157475 ], [ 0.676458074016302, 42.800543569756321 ], [ 0.676449654494484, 42.80076851983484 ], [ 0.676755134337119, 42.800774719454601 ], [ 0.676763552754145, 42.800549769327567 ], [ 0.677069031588671, 42.800555968084645 ], [ 0.67706061421536, 42.800780918258916 ], [ 0.677366094251383, 42.800787116250319 ], [ 0.677391342581917, 42.800112265592617 ], [ 0.677696819400228, 42.800118462624354 ], [ 0.677705234212867, 42.799893512321219 ], [ 0.678316185929885, 42.799905903845222 ], [ 0.678324598434674, 42.799680953479921 ], [ 0.678630073333375, 42.799687147972215 ], [ 0.678646895846963, 42.799237247024095 ], [ 0.678952368632794, 42.799243440605288 ], [ 0.678969188548828, 42.798793539564421 ], [ 0.679580129991383, 42.798805924090601 ], [ 0.679596945102268, 42.798356022815099 ], [ 0.679902413759022, 42.7983622137601 ], [ 0.679919226274301, 42.797912312346938 ], [ 0.680224692818266, 42.797918502380938 ], [ 0.680233097827268, 42.797693551588097 ], [ 0.681149494663274, 42.797712116658985 ], [ 0.681157896261812, 42.797487165710699 ], [ 0.681463360980873, 42.79749335243644 ], [ 0.681471761378282, 42.797268401429541 ], [ 0.681166297762171, 42.797262214797207 ], [ 0.681174699167714, 42.797037263828521 ], [ 0.681785624287181, 42.797049636182287 ], [ 0.681794023385334, 42.796824685151577 ], [ 0.68240494668145, 42.796837054152213 ], [ 0.682430136772956, 42.796162200618596 ], [ 0.683346512499139, 42.79618074757856 ], [ 0.6833549056903, 42.795955796220177 ], [ 0.684576736862082, 42.795980513908503 ], [ 0.684585125536947, 42.79575556239152 ], [ 0.685806953893181, 42.795780266862735 ], [ 0.685815338055188, 42.795555315097268 ], [ 0.686426250540953, 42.795567662350649 ], [ 0.686434632458681, 42.795342710479609 ], [ 0.6867400877092, 42.795348882881306 ], [ 0.686731706958783, 42.795573834756873 ], [ 0.68734262008323, 42.795586177127184 ], [ 0.687350998624564, 42.795361225155006 ], [ 0.687656454226599, 42.795367395070798 ], [ 0.687664831568846, 42.795142442995193 ], [ 0.688275740852484, 42.795154780288044 ], [ 0.688284115889472, 42.794929828105708 ], [ 0.688895023287752, 42.794942162044627 ], [ 0.688903396078934, 42.794717209801831 ], [ 0.689208848787271, 42.794723375501356 ], [ 0.689200477161682, 42.794948327793662 ], [ 0.689505931130103, 42.794954492773599 ], [ 0.689514301652851, 42.794729540388104 ], [ 0.690125207672408, 42.794741867719452 ], [ 0.690116839358691, 42.794966820201402 ], [ 0.690727747971751, 42.794979144373023 ], [ 0.690719381772653, 42.795204096896221 ], [ 0.691635748665384, 42.795222577191659 ], [ 0.691610659429227, 42.795897435223893 ], [ 0.691916118584631, 42.795903593884219 ], [ 0.691924480655388, 42.795678641153799 ], [ 0.692229938803945, 42.795684798906869 ], [ 0.692246660446545, 42.795234893364125 ], [ 0.692552116482016, 42.795241050206776 ], [ 0.69256047605557, 42.795016097349453 ], [ 0.692865931082516, 42.795022253329869 ], [ 0.692874289455528, 42.794797300414189 ], [ 0.693179743412851, 42.794803455531174 ], [ 0.693188100583675, 42.794578502602121 ], [ 0.693799006699411, 42.794590810300114 ], [ 0.693815716338446, 42.794140904128895 ], [ 0.693510265441587, 42.794134750783201 ], [ 0.69352697696516, 42.793684844713738 ], [ 0.693832425591977, 42.793690997961896 ], [ 0.693840780136736, 42.793466044841871 ], [ 0.694146227755052, 42.793472197227864 ], [ 0.694154581036649, 42.793247244093266 ], [ 0.694460027707553, 42.793253395618358 ], [ 0.694476731777415, 42.792803489132339 ], [ 0.69478217633539, 42.792809639747176 ], [ 0.694798877811076, 42.79235973316915 ], [ 0.694187993269751, 42.792347431319222 ], [ 0.694171287376457, 42.792797337704748 ], [ 0.693560398740195, 42.792785032405099 ], [ 0.693577109051087, 42.792335126212151 ], [ 0.694187993269751, 42.792347431319222 ], [ 0.694204698779305, 42.791897524892953 ], [ 0.693899258832413, 42.791891372797707 ], [ 0.693907612546811, 42.79166641963991 ], [ 0.693296735146256, 42.791654113193744 ], [ 0.693305090975064, 42.791429160077072 ], [ 0.694221403906799, 42.791447618380957 ], [ 0.69422975632665, 42.791222665109672 ], [ 0.694535193058111, 42.791228816201581 ], [ 0.694543544276043, 42.79100386291698 ], [ 0.694848979999099, 42.791010013146817 ], [ 0.694857330018479, 42.790785059758946 ], [ 0.695468199543653, 42.790797357680582 ], [ 0.695484894875879, 42.790347450726742 ], [ 0.695179462273926, 42.790341302269113 ], [ 0.695196159432874, 42.789891395325753 ], [ 0.69122557317057, 42.789811392563941 ], [ 0.691217210283782, 42.790036345414748 ], [ 0.690911780129642, 42.790030185610426 ], [ 0.69088668758184, 42.790705043912077 ], [ 0.690275820936157, 42.790692721572455 ], [ 0.690284187423932, 42.790467768896853 ], [ 0.68997875534949, 42.790461606554373 ], [ 0.689987122845438, 42.790236653916793 ], [ 0.68968169203245, 42.79023049080984 ], [ 0.689673323371161, 42.79045544339796 ], [ 0.688757028073971, 42.79043694904648 ], [ 0.68876539998696, 42.790211996601819 ], [ 0.688459969497422, 42.790205830238008 ], [ 0.688451596480178, 42.790430782634417 ], [ 0.688146164982538, 42.790424615408419 ], [ 0.688137790766534, 42.790649567701401 ], [ 0.687832358260806, 42.790643399613238 ], [ 0.687840733581076, 42.790418447368538 ], [ 0.687229871127837, 42.790406108848224 ], [ 0.687221493599038, 42.79063106099639 ], [ 0.687526925851281, 42.790637230711162 ], [ 0.687510172710245, 42.791087135163437 ], [ 0.686899303823757, 42.791074794725631 ], [ 0.686916061381923, 42.790624890466475 ], [ 0.686610629261038, 42.790618719122619 ], [ 0.686619009000037, 42.790393767026032 ], [ 0.685397285896103, 42.790369073704717 ], [ 0.685405670015245, 42.790144121837358 ], [ 0.684489382011031, 42.790125593445296 ], [ 0.684480994640245, 42.790350545168927 ], [ 0.683870134243919, 42.790338188741352 ], [ 0.683853354792972, 42.790788092054612 ], [ 0.684158787151482, 42.790794270772039 ], [ 0.684150398387426, 42.791019222416715 ], [ 0.684455831946546, 42.791025400368568 ], [ 0.684447444188754, 42.791250352096384 ], [ 0.68475287888742, 42.791256529281377 ], [ 0.684744492137596, 42.791481481047335 ], [ 0.684133620566905, 42.791469125765488 ], [ 0.684150398387426, 42.791019222416715 ] ], [ [ 0.683811404482679, 42.791912850069302 ], [ 0.684422280277953, 42.791925207172405 ], [ 0.684405503897012, 42.792375110491243 ], [ 0.683794623684358, 42.792362753194773 ], [ 0.683811404482679, 42.791912850069302 ] ], [ [ 0.682250632457484, 42.792781748352198 ], [ 0.683472400297817, 42.792806476357946 ], [ 0.683464008457821, 42.793031427814142 ], [ 0.683158565248744, 42.793025246985309 ], [ 0.683150172206287, 42.793250198427927 ], [ 0.682233839844304, 42.793231650912411 ], [ 0.682250632457484, 42.792781748352198 ] ], [ [ 0.680715023108561, 42.792975771052625 ], [ 0.681936793376534, 42.79300051553016 ], [ 0.681919998360003, 42.793450418018217 ], [ 0.680698219258535, 42.793425673108459 ], [ 0.680715023108561, 42.792975771052625 ] ] ] } },
{ "type": "Feature", "properties": { "GRID_CODE": 2, "CODI_FINAL": "2008250087", "MUNICIPI": "Almenar", "DATA_INCEN": "08/05/08" }, "geometry": { "type": "MultiPolygon", "coordinates": [ [ [ [ 0.598397596205264, 41.793315988131539 ], [ 0.598414397446336, 41.792866034027064 ], [ 0.598715027494654, 41.792872320183676 ], [ 0.598723426920623, 41.79264734311176 ], [ 0.599024056015186, 41.792653628433079 ], [ 0.599032454297805, 41.792428651256607 ], [ 0.599333082378503, 41.792434935741412 ], [ 0.599349876558109, 41.79198498125907 ], [ 0.599650502695824, 41.791991264860535 ], [ 0.599667294392582, 41.791541310283641 ], [ 0.599967918527219, 41.791547593000516 ], [ 0.599976313183702, 41.7913226156249 ], [ 0.600276936364605, 41.791328897506574 ], [ 0.60028532987618, 41.791103920071428 ], [ 0.60058595204322, 41.791110201116616 ], [ 0.600594344409909, 41.790885223621935 ], [ 0.600894965683327, 41.790891503833151 ], [ 0.600920139060488, 41.790216571184878 ], [ 0.601821994010482, 41.790235406659569 ], [ 0.601830381797872, 41.790010428926813 ], [ 0.602130999196196, 41.79001670579607 ], [ 0.60213938583882, 41.789791728003841 ], [ 0.60244000234351, 41.789798004039206 ], [ 0.60245677324211, 41.789348048370506 ], [ 0.603058002341017, 41.789360597886613 ], [ 0.603066385549489, 41.789135619915896 ], [ 0.603667612871666, 41.789148166188831 ], [ 0.603675993886267, 41.788923188109401 ], [ 0.603976606671364, 41.788929460018487 ], [ 0.603993366315852, 41.788479503730464 ], [ 0.603091534602141, 41.788460685942461 ], [ 0.603099917428774, 41.788235707930902 ], [ 0.603400526875443, 41.788241981263887 ], [ 0.603408908555782, 41.788017003237854 ], [ 0.604911951854463, 41.788048357866749 ], [ 0.604920328195272, 41.787823379539297 ], [ 0.605521544132288, 41.787835915792726 ], [ 0.605529918279425, 41.787610937356632 ], [ 0.605830525341835, 41.787617204255397 ], [ 0.605838898344479, 41.787392225759888 ], [ 0.606139504453096, 41.787398491823673 ], [ 0.606147876309596, 41.787173513313725 ], [ 0.606448481404296, 41.787179778541258 ], [ 0.606456852118026, 41.786954799926924 ], [ 0.606757456319042, 41.786961064320721 ], [ 0.606765825888351, 41.786736085646993 ], [ 0.60706642913558, 41.786742349205795 ], [ 0.607074797560491, 41.786517370472687 ], [ 0.607676002242612, 41.78652989513462 ], [ 0.607684368474066, 41.786304916292949 ], [ 0.607984969848832, 41.786311177394815 ], [ 0.608001699926149, 41.785861219627542 ], [ 0.608302299358145, 41.785867479846566 ], [ 0.608310663205706, 41.785642500875987 ], [ 0.608611261683901, 41.785648760260095 ], [ 0.608619624387185, 41.785423781230129 ], [ 0.608920221911565, 41.785430039779364 ], [ 0.608928583470594, 41.785205060690039 ], [ 0.609229180041146, 41.785211318404393 ], [ 0.609237540454273, 41.784986339300723 ], [ 0.609538136010895, 41.784992596178938 ], [ 0.609546495281488, 41.784767616970946 ], [ 0.609847089944411, 41.784773873015524 ], [ 0.609855448070821, 41.784548893748195 ], [ 0.610456635584179, 41.784561403381957 ], [ 0.610473347355559, 41.784111444620244 ], [ 0.610773939156991, 41.784117698160301 ], [ 0.610782293849324, 41.783892718760036 ], [ 0.611082884636814, 41.783898971464041 ], [ 0.611091238246853, 41.783673991960733 ], [ 0.610790648448197, 41.783667739304562 ], [ 0.610807357360559, 41.783217780362982 ], [ 0.611107945061331, 41.783224032920955 ], [ 0.611116298325893, 41.782999053385772 ], [ 0.61081571167404, 41.782992800876883 ], [ 0.610824065892392, 41.782767821380595 ], [ 0.611425237133292, 41.782780325513215 ], [ 0.611441941147511, 41.782330366339878 ], [ 0.611742524782785, 41.782336617128877 ], [ 0.611767576856606, 41.7816616780757 ], [ 0.612068157500501, 41.781667927933057 ], [ 0.612076506952763, 41.78144294817919 ], [ 0.612377086642891, 41.78144919720183 ], [ 0.612393783162889, 41.78099923761031 ], [ 0.612694360850419, 41.781005485749176 ], [ 0.612702707919861, 41.780780505866559 ], [ 0.612402131281137, 41.780774257776756 ], [ 0.612418827215765, 41.780324298529003 ], [ 0.612118252831445, 41.780318049707951 ], [ 0.612134950498415, 41.779868090112544 ], [ 0.61153380608646, 41.779855590397389 ], [ 0.611542156875671, 41.779630610660021 ], [ 0.611241585861053, 41.779624359673122 ], [ 0.611224882090051, 41.780074319039471 ], [ 0.610924309074709, 41.780068067123807 ], [ 0.610915955997795, 41.780293046742578 ], [ 0.610615382087251, 41.780286794038439 ], [ 0.610598673565566, 41.780736752742207 ], [ 0.611199825737004, 41.780749257562505 ], [ 0.611183121016656, 41.781199216781822 ], [ 0.61088254275571, 41.781192964665671 ], [ 0.610874189203218, 41.781417944233432 ], [ 0.610573609988568, 41.781411691282543 ], [ 0.610565255292123, 41.781636670790988 ], [ 0.609663515132643, 41.78161790707842 ], [ 0.609655157194536, 41.781842886429317 ], [ 0.609053995426282, 41.781830373260235 ], [ 0.60904563529529, 41.782055352502695 ], [ 0.608745053565222, 41.782049094691786 ], [ 0.608736692291848, 41.782274073829889 ], [ 0.608436109548005, 41.782267815182941 ], [ 0.608427747128888, 41.782492794306698 ], [ 0.608127163431384, 41.782486534824926 ], [ 0.608102072456017, 41.783161471987469 ], [ 0.607801485707063, 41.783155211572556 ], [ 0.607768025545856, 41.784055127404734 ], [ 0.607467434696411, 41.784048866007481 ], [ 0.607459068368596, 41.784273844902074 ], [ 0.607759660267004, 41.784280106348504 ], [ 0.607717832445576, 41.785405000869197 ], [ 0.607417235302168, 41.785398739176941 ], [ 0.607408868402735, 41.785623718010278 ], [ 0.607108270305565, 41.785617455483106 ], [ 0.607099902261811, 41.785842434257077 ], [ 0.606498704315387, 41.785829906748369 ], [ 0.606490334019783, 41.78605488536752 ], [ 0.606189734170534, 41.786048620385955 ], [ 0.606181362789, 41.786273598991933 ], [ 0.605880761925886, 41.786267333174173 ], [ 0.60587238939995, 41.786492311720721 ], [ 0.605571787583098, 41.786486045067974 ], [ 0.605563413912734, 41.786711023555135 ], [ 0.604962208527058, 41.786698487795128 ], [ 0.604928704440699, 41.787598401201649 ], [ 0.60462809772452, 41.78759213194671 ], [ 0.604636474923698, 41.787367153648042 ], [ 0.604335869291918, 41.787360883655275 ], [ 0.604327491043609, 41.787585861904702 ], [ 0.603125065334269, 41.787560773879868 ], [ 0.603116682793999, 41.787785751922094 ], [ 0.602816075541095, 41.7877794779018 ], [ 0.602807691856223, 41.788004455884554 ], [ 0.602507083649649, 41.787998181029188 ], [ 0.602498698821829, 41.788223158907456 ], [ 0.602198089661566, 41.788216883216997 ], [ 0.602164545192017, 41.789116794610763 ], [ 0.601863931990626, 41.789110517938632 ], [ 0.601847157086111, 41.789560473430654 ], [ 0.600945311579358, 41.789541638399641 ], [ 0.600936920835284, 41.789766616004925 ], [ 0.599734457360521, 41.789741491432274 ], [ 0.59972606232392, 41.789966468830087 ], [ 0.600026679113512, 41.789972751201688 ], [ 0.600018285030568, 41.790197728638617 ], [ 0.59971766719172, 41.79019144621769 ], [ 0.599700876642196, 41.79064140091721 ], [ 0.599099637114341, 41.790628833521694 ], [ 0.599082841983565, 41.791078788027988 ], [ 0.598180977023057, 41.791059930742598 ], [ 0.5981725761663, 41.791284907832356 ], [ 0.597871953654798, 41.791278620449418 ], [ 0.597863551653057, 41.791503597479597 ], [ 0.597562928249723, 41.791497309217654 ], [ 0.59754612186054, 41.791947263148572 ], [ 0.596944871020011, 41.791934684156928 ], [ 0.596936465583167, 41.792159661008299 ], [ 0.596034586952352, 41.792140786479543 ], [ 0.596009360624882, 41.79281571648275 ], [ 0.595708731437946, 41.79280942325267 ], [ 0.595700321420657, 41.793034399865547 ], [ 0.595399691280108, 41.793028105800133 ], [ 0.595391280117645, 41.79325308235336 ], [ 0.594188756375879, 41.79322789803583 ], [ 0.594180340919983, 41.793452874381096 ], [ 0.593579077555279, 41.793440277408401 ], [ 0.593562242159964, 41.793890229825465 ], [ 0.593261608492475, 41.793883930060638 ], [ 0.593219513076788, 41.795008810744484 ], [ 0.592918874257842, 41.79500250994635 ], [ 0.592893612708369, 41.795677438112534 ], [ 0.592592970896909, 41.795671136381223 ], [ 0.592584549139099, 41.795896112366691 ], [ 0.592885192000096, 41.795902414147427 ], [ 0.592876771197613, 41.796127390127147 ], [ 0.591974839633462, 41.796108482275862 ], [ 0.591966415584725, 41.796333458141881 ], [ 0.59226706041312, 41.796339761594915 ], [ 0.592241790840056, 41.797014689280068 ], [ 0.591339847256569, 41.796995776118727 ], [ 0.591331420726577, 41.79722075179982 ], [ 0.591030771987669, 41.797214445790701 ], [ 0.591022344310418, 41.797439421457049 ], [ 0.590721694617871, 41.797433114612367 ], [ 0.590713265795022, 41.797658090218981 ], [ 0.591013916537193, 41.797664397113188 ], [ 0.591005488667991, 41.797889372759094 ], [ 0.591306140555774, 41.79789567891676 ], [ 0.591272432319534, 41.798795581551126 ], [ 0.591573088501952, 41.798801887120746 ], [ 0.591556235906586, 41.799251838498073 ], [ 0.592458211267631, 41.799270750786071 ], [ 0.592466634464156, 41.79904577495406 ], [ 0.593067949791826, 41.79905837911744 ], [ 0.5930932124459, 41.79838345130684 ], [ 0.59339386710451, 41.79838975206097 ], [ 0.593410706336299, 41.797939800008017 ], [ 0.594012011742488, 41.797952398960177 ], [ 0.594020429115265, 41.797727422819442 ], [ 0.594321080852373, 41.797733721065718 ], [ 0.594337913209413, 41.797283768699678 ], [ 0.594638563003236, 41.797290066062246 ], [ 0.594655392879376, 41.796840113511415 ], [ 0.594956040669807, 41.796846409989051 ], [ 0.594964454414543, 41.796621433648852 ], [ 0.595265101251184, 41.796627729291039 ], [ 0.595273513850525, 41.79640275289119 ], [ 0.595574159673264, 41.796409047696628 ], [ 0.595582571125563, 41.796184071282141 ], [ 0.59588321605464, 41.796190365253402 ], [ 0.595916856714487, 41.795290459115499 ], [ 0.596217497541176, 41.795296752103106 ], [ 0.596225906417194, 41.795071775493675 ], [ 0.596526546290128, 41.795078067645854 ], [ 0.596534954019203, 41.794853091021785 ], [ 0.596835592878246, 41.794859382337322 ], [ 0.596860812347619, 41.794184452120589 ], [ 0.597462084176244, 41.794197032099916 ], [ 0.59747048837566, 41.793972055241781 ], [ 0.597771123384081, 41.793978344003115 ], [ 0.597787929395236, 41.793528390202425 ], [ 0.598088562340331, 41.793534678077776 ], [ 0.598096964153789, 41.793309701090237 ], [ 0.598397596205264, 41.793315988131539 ] ], [ [ 0.596276357659079, 41.793721915712283 ], [ 0.596877624846873, 41.793734498636645 ], [ 0.59686921864595, 41.793959475361234 ], [ 0.596267949359268, 41.79394689233807 ], [ 0.596276357659079, 41.793721915712283 ] ], [ [ 0.594121430048694, 41.795027708421649 ], [ 0.594722708549272, 41.795040302943995 ], [ 0.594705880206305, 41.795490255658457 ], [ 0.59440523880908, 41.795483958691399 ], [ 0.594396823444337, 41.795708934983843 ], [ 0.594096181093401, 41.795702637181357 ], [ 0.594087764583283, 41.795927613414129 ], [ 0.593787121338784, 41.795921314777431 ], [ 0.593778703684951, 41.796146290905511 ], [ 0.593478059426625, 41.796139991432092 ], [ 0.593494896739208, 41.795690039219586 ], [ 0.593795538898443, 41.795696338594098 ], [ 0.593803956362245, 41.795471362400541 ], [ 0.594104597507675, 41.795477660938346 ], [ 0.594121430048694, 41.795027708421649 ] ] ], [ [ [ 0.607984969848832, 41.786311177394815 ], [ 0.607976604666461, 41.786536156285642 ], [ 0.608277207245689, 41.786542416652161 ], [ 0.60826047869339, 41.786992374501466 ], [ 0.607659269493899, 41.786979852787304 ], [ 0.607642536305668, 41.787429810352918 ], [ 0.607341929780634, 41.787423548219429 ], [ 0.607333562023675, 41.787648526960872 ], [ 0.606732347040951, 41.787636000235622 ], [ 0.606723977090413, 41.787860978868501 ], [ 0.606423368692853, 41.787854714277948 ], [ 0.60641499759784, 41.788079692851433 ], [ 0.606114388306565, 41.788073427427136 ], [ 0.606106016067056, 41.788298405941219 ], [ 0.605805405761829, 41.788292139680657 ], [ 0.605797032379474, 41.788517118090311 ], [ 0.605496421120402, 41.788510850994719 ], [ 0.605488046591827, 41.788735829389957 ], [ 0.605187434378924, 41.788729561459292 ], [ 0.605179058705778, 41.788954539795114 ], [ 0.604577832527839, 41.788942001479107 ], [ 0.604569454660875, 41.789166979706273 ], [ 0.604268840635728, 41.789160709319624 ], [ 0.604260461624148, 41.789385687487339 ], [ 0.603659231761637, 41.78937314425805 ], [ 0.603650850557847, 41.789598122272061 ], [ 0.603049619038761, 41.7895855758021 ], [ 0.603024468554173, 41.7902605096223 ], [ 0.602423231061276, 41.790247959712055 ], [ 0.602414845276923, 41.790472937533146 ], [ 0.602114225624429, 41.790466661349932 ], [ 0.602105838696972, 41.790691639066544 ], [ 0.601805218150823, 41.790685362049402 ], [ 0.601796830076884, 41.790910339751505 ], [ 0.601496208516838, 41.790904061897933 ], [ 0.601487819298071, 41.791129039540536 ], [ 0.600886574365944, 41.791116481377145 ], [ 0.600878182953004, 41.791341458910921 ], [ 0.600577559580963, 41.791335178601067 ], [ 0.600569167023135, 41.791560156075299 ], [ 0.60026854275745, 41.791553874931502 ], [ 0.600260149056392, 41.791778852301206 ], [ 0.599959523776822, 41.791772570320909 ], [ 0.59994273398588, 41.79222252502101 ], [ 0.600243361364154, 41.792228807099953 ], [ 0.600234967374662, 41.792453784483996 ], [ 0.600836224456602, 41.792466346381495 ], [ 0.600844616347341, 41.792241368898814 ], [ 0.601746499628989, 41.79226020570453 ], [ 0.601738110886393, 41.792485183335089 ], [ 0.602038739827268, 41.792491460746511 ], [ 0.602047127520483, 41.792266483066648 ], [ 0.602347755567619, 41.792272759644099 ], [ 0.602356142115947, 41.792047781904735 ], [ 0.602055515118183, 41.792041505376559 ], [ 0.602063902618692, 41.791816527721267 ], [ 0.601763276825929, 41.791810250457708 ], [ 0.60177166528195, 41.791585272796475 ], [ 0.602072290025367, 41.791591550010757 ], [ 0.602080677336531, 41.791366572290023 ], [ 0.602381301186251, 41.791372848670356 ], [ 0.602389687352582, 41.791147870890129 ], [ 0.602690310248474, 41.791154146435261 ], [ 0.602698695269995, 41.790929168595547 ], [ 0.60390118355088, 41.790954262718863 ], [ 0.603909564278022, 41.790729284716889 ], [ 0.605112049888636, 41.790754366068903 ], [ 0.605128802665634, 41.79030440955048 ], [ 0.605429422223227, 41.790310677825644 ], [ 0.605437797419373, 41.790085699501894 ], [ 0.606039034661968, 41.790098233594883 ], [ 0.606047407664209, 41.789873255162505 ], [ 0.605746790074557, 41.789866988558785 ], [ 0.605755164029033, 41.789642010210393 ], [ 0.606055780569428, 41.789648276764915 ], [ 0.606064153380978, 41.789423298312123 ], [ 0.606364769027599, 41.789429564032851 ], [ 0.606373140694573, 41.789204585520643 ], [ 0.606673755387291, 41.789210850406285 ], [ 0.606682125909712, 41.78898587183469 ], [ 0.606982739648524, 41.788992135885316 ], [ 0.606991109026416, 41.78876715725432 ], [ 0.607291721811308, 41.788773420469923 ], [ 0.607308458181117, 41.788323463123923 ], [ 0.607609068902794, 41.788329725454098 ], [ 0.607625802794775, 41.787879767923926 ], [ 0.607926411573506, 41.787886029371194 ], [ 0.607934777327428, 41.787661050541615 ], [ 0.608235385152265, 41.787667311153896 ], [ 0.608243749760105, 41.787442332309965 ], [ 0.608544356631045, 41.787448592087273 ], [ 0.608561083466072, 41.786998634180492 ], [ 0.608861688333976, 41.787004893073714 ], [ 0.608870050559525, 41.786779914055849 ], [ 0.609170654413426, 41.786786172112897 ], [ 0.609179015494653, 41.786561193035695 ], [ 0.60978022151011, 41.786573706696622 ], [ 0.609805297886399, 41.785898769154031 ], [ 0.610406497988087, 41.785911279377132 ], [ 0.610423210901283, 41.785461320737888 ], [ 0.609521417185819, 41.7854425545193 ], [ 0.609513057629661, 41.785667533696675 ], [ 0.608911860257321, 41.785655018858471 ], [ 0.608895136663191, 41.786104976986046 ], [ 0.608594535991652, 41.786098718289409 ], [ 0.608586173004359, 41.786323697243731 ], [ 0.607984969848832, 41.786311177394815 ] ] ], [ [ [ 0.598397596205264, 41.793315988131539 ], [ 0.598380794581539, 41.793765942195115 ], [ 0.598080160431196, 41.793759655055105 ], [ 0.598071758428064, 41.793984631977196 ], [ 0.59927429973937, 41.794009776062644 ], [ 0.599316287818086, 41.792884890137849 ], [ 0.59901565763861, 41.792878605554364 ], [ 0.599007259164716, 41.793103582710437 ], [ 0.598706627971354, 41.79309729729038 ], [ 0.598698228352404, 41.793322274386867 ], [ 0.598397596205264, 41.793315988131539 ] ] ], [ [ [ 0.600209784834337, 41.793128716529836 ], [ 0.600201390462488, 41.793353693873009 ], [ 0.600802655939683, 41.793366256165015 ], [ 0.600819440388435, 41.792916301316176 ], [ 0.600518809670822, 41.792910020661161 ], [ 0.600510416445656, 41.793134998018857 ], [ 0.600209784834337, 41.793128716529836 ] ] ] ] } },
{ "type": "Feature", "properties": { "GRID_CODE": 2, "CODI_FINAL": "2008250093", "MUNICIPI": "Torres de Segre", "DATA_INCEN": "06/05/08" }, "geometry": { "type": "MultiPolygon", "coordinates": [ [ [ [ 0.533832817929089, 41.551049421082929 ], [ 0.533849924656957, 41.550599469553688 ], [ 0.533550434186497, 41.550593043993075 ], [ 0.533567542596625, 41.55014309256871 ], [ 0.533268054297932, 41.550136666284885 ], [ 0.533276609392698, 41.54991169063031 ], [ 0.532378148245677, 41.549892407346583 ], [ 0.532386706352344, 41.549667431833257 ], [ 0.532087220515417, 41.549661002533767 ], [ 0.532104338511377, 41.549211051532389 ], [ 0.531505371271354, 41.549198190888028 ], [ 0.53151393225684, 41.548973215451788 ], [ 0.530914967478683, 41.548960351791891 ], [ 0.53092353037963, 41.54873537644518 ], [ 0.530624049172842, 41.548728943497096 ], [ 0.53063261301278, 41.548503968190644 ], [ 0.530033653023739, 41.548491100059437 ], [ 0.530042218838937, 41.548266124843849 ], [ 0.529742739996779, 41.548259689659474 ], [ 0.529734173147001, 41.54848466477948 ], [ 0.529434693365915, 41.548478228765397 ], [ 0.529443261251999, 41.548253253695954 ], [ 0.528245347308329, 41.548227502006974 ], [ 0.52825391924385, 41.548002527084648 ], [ 0.527056011002325, 41.547976763177154 ], [ 0.527064586985469, 41.547751788447044 ], [ 0.525567209044714, 41.547719566240502 ], [ 0.525575790109892, 41.54749459179834 ], [ 0.524677367649024, 41.547475249259691 ], [ 0.524685951727074, 41.547250274914276 ], [ 0.524087005938975, 41.547237376123533 ], [ 0.524095591991889, 41.547012401869203 ], [ 0.523197177210171, 41.546993047993304 ], [ 0.523205766274094, 41.546768073880806 ], [ 0.522606825606804, 41.546755167502035 ], [ 0.522615416645476, 41.546530193480692 ], [ 0.522315947494458, 41.546523739173431 ], [ 0.52232453947166, 41.54629876519251 ], [ 0.521725603594822, 41.546285854343544 ], [ 0.521734197546688, 41.546060880453801 ], [ 0.521434730760968, 41.546054423910832 ], [ 0.521443325651305, 41.545829450061547 ], [ 0.521143859999407, 41.545822992790264 ], [ 0.5211524558282, 41.545598018981444 ], [ 0.520852991310122, 41.545591560981883 ], [ 0.520861588077329, 41.545366587213529 ], [ 0.520562124693067, 41.54536012848569 ], [ 0.520570722458569, 41.545135154759109 ], [ 0.520271260208121, 41.545128695302978 ], [ 0.520279858852105, 41.544903721615569 ], [ 0.519980397735479, 41.544897261431217 ], [ 0.519988997316097, 41.544672287829279 ], [ 0.519090617722471, 41.54465290271073 ], [ 0.519064809297604, 41.545327823162275 ], [ 0.519364272193172, 41.545334285785273 ], [ 0.51935567024541, 41.54555925929975 ], [ 0.519655134274858, 41.545565721194528 ], [ 0.519594925159649, 41.547140535773259 ], [ 0.520193868016265, 41.547153457981551 ], [ 0.520202467539809, 41.546928484386775 ], [ 0.520801408656798, 41.546941403330926 ], [ 0.52078421365677, 41.547391350713262 ], [ 0.52108368646419, 41.547397809118898 ], [ 0.521075089853834, 41.547622782845394 ], [ 0.521674037834202, 41.54763569742088 ], [ 0.521665443198611, 41.547860671238595 ], [ 0.522264393582281, 41.547873582797862 ], [ 0.522255800921508, 41.548098556706755 ], [ 0.523154230428, 41.548117918356503 ], [ 0.52314564071846, 41.548342892405998 ], [ 0.524343552238857, 41.548368697234224 ], [ 0.52433496663671, 41.548593671477519 ], [ 0.525832363352404, 41.548625910279661 ], [ 0.525823782834165, 41.548850884766047 ], [ 0.52881859388296, 41.548915304395436 ], [ 0.528810023630386, 41.549140279377831 ], [ 0.529109506325646, 41.549146717101976 ], [ 0.52910093701372, 41.549371692079667 ], [ 0.529400420840987, 41.54937812912025 ], [ 0.529391852468017, 41.549603104138264 ], [ 0.529990822489127, 41.549615975938117 ], [ 0.529982256091489, 41.549840951047017 ], [ 0.530281742223699, 41.549847385849972 ], [ 0.530273176765087, 41.550072360999181 ], [ 0.530572664092641, 41.550078795029819 ], [ 0.530564099571356, 41.550303770264286 ], [ 0.53086358803264, 41.550310203566319 ], [ 0.530846460770867, 41.550760154105554 ], [ 0.530546970236764, 41.550753720702424 ], [ 0.530521275506515, 41.551428646237497 ], [ 0.531120262890678, 41.551441512567969 ], [ 0.531137388661836, 41.55099156203427 ], [ 0.53173637222961, 41.551004425044376 ], [ 0.531753493467502, 41.550554474222402 ], [ 0.532352473336935, 41.550567333959819 ], [ 0.532301120896517, 41.551917186818855 ], [ 0.531702128587965, 41.55190432652001 ], [ 0.531685006182477, 41.552354277218654 ], [ 0.531984504361095, 41.552360707858774 ], [ 0.531993064575989, 41.552135732464038 ], [ 0.532592059092206, 41.55214859130421 ], [ 0.532609175142359, 41.551698640328084 ], [ 0.53320816590168, 41.551711495849226 ], [ 0.533225277358716, 41.551261544583653 ], [ 0.533524770839555, 41.551267971120005 ], [ 0.533533325385762, 41.551042995421284 ], [ 0.533832817929089, 41.551049421082929 ] ] ], [ [ [ 0.528416250489927, 41.551608564311955 ], [ 0.528424822850475, 41.551383589493255 ], [ 0.527226851977925, 41.55135782566385 ], [ 0.527218275471576, 41.551582800280066 ], [ 0.528416250489927, 41.551608564311955 ] ] ], [ [ [ 0.529306163368286, 41.551852854113015 ], [ 0.529314732716865, 41.551627879152797 ], [ 0.528715744428224, 41.551615003370586 ], [ 0.52870717300671, 41.551839978229616 ], [ 0.529306163368286, 41.551852854113015 ] ] ], [ [ [ 0.526474213450199, 41.547513927280114 ], [ 0.526482791310878, 41.547288952630716 ], [ 0.525883844412261, 41.547276063190374 ], [ 0.525875264479122, 41.547501037738471 ], [ 0.526474213450199, 41.547513927280114 ] ] ] ] } },
{ "type": "Feature", "properties": { "GRID_CODE": 2, "CODI_FINAL": "2008250086", "MUNICIPI": "Seròs", "DATA_INCEN": "01/05/08" }, "geometry": { "type": "Polygon", "coordinates": [ [ [ 0.401645566543575, 41.446145251222845 ], [ 0.401663523560908, 41.445695337464521 ], [ 0.401364546550117, 41.445688581526603 ], [ 0.401382505218871, 41.445238667877803 ], [ 0.401083530372876, 41.445231911225058 ], [ 0.401092510643694, 41.445006954462002 ], [ 0.40079353692837, 41.445000197131272 ], [ 0.400811499109062, 41.444550283587439 ], [ 0.40051252755666, 41.444543525586916 ], [ 0.400530491390334, 41.444093612107636 ], [ 0.399334614563954, 41.444066572772734 ], [ 0.399325628576343, 41.444291529304991 ], [ 0.398727688654658, 41.444278004873546 ], [ 0.398718700505908, 41.444502961244041 ], [ 0.397223847455318, 41.444469136321274 ], [ 0.397232840758093, 41.444244180171708 ], [ 0.395737995352918, 41.444210336112228 ], [ 0.395746993705708, 41.443985380218315 ], [ 0.395448026009418, 41.4439786091326 ], [ 0.395457025290444, 41.44375365328149 ], [ 0.395158058666954, 41.443746881471625 ], [ 0.395167058876192, 41.443521925663347 ], [ 0.394270162769958, 41.443501605738618 ], [ 0.394252156066876, 41.443951517025255 ], [ 0.393953188821848, 41.443944742057973 ], [ 0.393917170068924, 41.444844564247987 ], [ 0.394216141375891, 41.444851339426982 ], [ 0.394207137462046, 41.445076295012925 ], [ 0.394805082563204, 41.445089843151926 ], [ 0.394796080608071, 41.445314798833962 ], [ 0.396589924427724, 41.445355424941972 ], [ 0.396580928553334, 41.445580380932974 ], [ 0.396879903931301, 41.445587149288365 ], [ 0.396870908925472, 41.44581210532079 ], [ 0.397468862048822, 41.445825639809733 ], [ 0.397459869061699, 41.446050595939496 ], [ 0.398356802544362, 41.446070892010397 ], [ 0.398347812546735, 41.446295848289296 ], [ 0.398646791569152, 41.446302612146347 ], [ 0.398637802499994, 41.446527568468007 ], [ 0.398936782714836, 41.446534331603445 ], [ 0.398927794574171, 41.446759287967858 ], [ 0.400422702272129, 41.446793092267789 ], [ 0.400413719122509, 41.447018048886171 ], [ 0.401011685000901, 41.447031565280071 ], [ 0.401038627780901, 41.446356695070747 ], [ 0.401337607779557, 41.446363451989122 ], [ 0.40134658747171, 41.446138495178694 ], [ 0.401645566543575, 41.446145251222845 ] ] ] } },
{ "type": "Feature", "properties": { "GRID_CODE": 2, "CODI_FINAL": "2008430020", "MUNICIPI": "Montblanc", "DATA_INCEN": "01/05/08" }, "geometry": { "type": "Polygon", "coordinates": [ [ [ 1.173751343107588, 41.409201411826011 ], [ 1.17388946642767, 41.409622834358132 ], [ 1.173746122519596, 41.410152659382277 ], [ 1.173736192833938, 41.410507235119049 ], [ 1.173876123819034, 41.41086418931831 ], [ 1.173978202992678, 41.411043175990486 ], [ 1.174007481591367, 41.411527367847683 ], [ 1.173999809395885, 41.411801358165846 ], [ 1.174181660064899, 41.412191225660173 ], [ 1.174439472102578, 41.412163067875312 ], [ 1.17458347077581, 41.412374967547287 ], [ 1.17485727931886, 41.412540553468382 ], [ 1.175028102312191, 41.412559387212632 ], [ 1.175050864758824, 41.412511375523977 ], [ 1.174760609049968, 41.412168162532375 ], [ 1.174536388115422, 41.411761499502312 ], [ 1.174625633326832, 41.411633921418236 ], [ 1.174672962628622, 41.411473429842808 ], [ 1.174592289736983, 41.411294783388932 ], [ 1.174533477222284, 41.411100359449563 ], [ 1.174347115173813, 41.410871663291196 ], [ 1.174379803833305, 41.410469075879632 ], [ 1.174364712013246, 41.410243097021933 ], [ 1.174526752594497, 41.409810313304305 ], [ 1.174536677738712, 41.409455737367971 ], [ 1.17446006791123, 41.4091320370201 ], [ 1.1743383868493, 41.408888242730441 ], [ 1.174340642739221, 41.408807657287973 ], [ 1.174409829564931, 41.4086313882949 ], [ 1.174436200180996, 41.408454439956301 ], [ 1.174888021541066, 41.408380986246499 ], [ 1.175082496519797, 41.408319573784169 ], [ 1.175362151649104, 41.408275636019674 ], [ 1.17536575896687, 41.408146699223636 ], [ 1.175369817171313, 41.408001645324383 ], [ 1.174705725341722, 41.408007236847375 ], [ 1.174382804277617, 41.408066610817606 ], [ 1.174285691275059, 41.407710336488151 ], [ 1.174337980938406, 41.407372556890664 ], [ 1.174370215979129, 41.406986086306816 ], [ 1.174442558452406, 41.406696997534176 ], [ 1.174578219796008, 41.406441161729944 ], [ 1.174627349245695, 41.406216201567076 ], [ 1.174697473030922, 41.406159267578914 ], [ 1.174818615975461, 41.406116041315023 ], [ 1.174999698738801, 41.406073765616412 ], [ 1.175076764426328, 41.406074987894584 ], [ 1.17528371583141, 41.406026672315328 ], [ 1.175568994857554, 41.405934450402427 ], [ 1.17565336098311, 41.405980935962425 ], [ 1.175856705637438, 41.406061556211313 ], [ 1.175950356178189, 41.406082389930923 ], [ 1.176009575042056, 41.406109127479134 ], [ 1.176086821095817, 41.406103902237021 ], [ 1.176113771633669, 41.406059181512099 ], [ 1.176020842217563, 41.406012560546635 ], [ 1.175927191751724, 41.405991726885759 ], [ 1.175833000432139, 41.405990233681798 ], [ 1.175757918252536, 41.405918096630863 ], [ 1.175750437294051, 41.405879279813007 ], [ 1.175897267534075, 41.405836459648313 ], [ 1.176139730824182, 41.40574355755443 ], [ 1.176408783083621, 41.405618827821385 ], [ 1.176529022770481, 41.405607833941787 ], [ 1.176689733578049, 41.405681327382375 ], [ 1.176911285487187, 41.40572353605944 ], [ 1.177141580695993, 41.405759433117872 ], [ 1.177475710973177, 41.405758276184883 ], [ 1.177655350172201, 41.405767571050696 ], [ 1.177650750076499, 41.405625604718907 ], [ 1.177580086049668, 41.40570188200158 ], [ 1.177228650255071, 41.405709214805007 ], [ 1.176980869166831, 41.405685940295335 ], [ 1.176776983576276, 41.405624662568187 ], [ 1.176626457613719, 41.405493283312993 ], [ 1.176637543390542, 41.405403163319569 ], [ 1.176777791523705, 41.405289290978466 ], [ 1.176892170735189, 41.405181458300625 ], [ 1.176956254305334, 41.405034130436292 ], [ 1.176967339651866, 41.404944010210549 ], [ 1.177003212159811, 41.404886531209371 ], [ 1.176936692582718, 41.404814530573042 ], [ 1.17693939541001, 41.404717827833046 ], [ 1.176967606057077, 41.40462797892733 ], [ 1.177037368690789, 41.404583936247889 ], [ 1.177097487539958, 41.404578438973857 ], [ 1.177165808717727, 41.404585971015493 ], [ 1.177133900224434, 41.404501619371054 ], [ 1.177068281744883, 41.404397384559843 ], [ 1.176993740480837, 41.404305907755685 ], [ 1.17697057513789, 41.404215244877179 ], [ 1.177000226925355, 41.404073821148629 ], [ 1.176994547177901, 41.403970535884923 ], [ 1.176937131635549, 41.403879330362898 ], [ 1.176794811410835, 41.403760980726986 ], [ 1.176645731260447, 41.403578026744739 ], [ 1.17655514776036, 41.403447597212271 ], [ 1.176490612560205, 41.403304680996989 ], [ 1.176459426418643, 41.403194541780394 ], [ 1.176427689082506, 41.403103748133702 ], [ 1.176235979432672, 41.402913668310639 ], [ 1.176206235873507, 41.402751954238866 ], [ 1.176205964838179, 41.40245526346537 ], [ 1.176221556747912, 41.402203972046642 ], [ 1.176183071454896, 41.40204856879096 ], [ 1.176182620168467, 41.401758324834894 ], [ 1.176214254988099, 41.401545985910133 ], [ 1.176172885611419, 41.401493732554599 ], [ 1.176152786432965, 41.40129347305583 ], [ 1.176142511268017, 41.401048221308528 ], [ 1.17614755806551, 41.400867709486413 ], [ 1.176134939786342, 41.400706266787147 ], [ 1.176139445822331, 41.400545095508832 ], [ 1.176189285669094, 41.400294346850785 ], [ 1.176309423852462, 41.399980215234251 ], [ 1.176413519179456, 41.399627130043918 ], [ 1.176504905675847, 41.399422187585976 ], [ 1.176632161075083, 41.399159766038721 ], [ 1.176776178922823, 41.398910509350713 ], [ 1.176849898936255, 41.398724635796647 ], [ 1.176889010708605, 41.398551113295014 ], [ 1.176945786404254, 41.398358521494892 ], [ 1.177061053447036, 41.398218453985919 ], [ 1.177168298543344, 41.39805891014624 ], [ 1.177460563443735, 41.397715255168023 ], [ 1.17769821367508, 41.397486829338035 ], [ 1.177959206839669, 41.397342618878817 ], [ 1.178096374425193, 41.39733834102492 ], [ 1.178370169560005, 41.397349125413733 ], [ 1.178617199772046, 41.397398183780275 ], [ 1.178635943002824, 41.397340433043603 ], [ 1.178552665520483, 41.39725526860834 ], [ 1.178355926130973, 41.397245704531834 ], [ 1.17813404175266, 41.397216392871925 ], [ 1.178033101606362, 41.397150297551015 ], [ 1.177898094959395, 41.397077213000685 ], [ 1.177892596240099, 41.396967479452691 ], [ 1.177912600267705, 41.396864600808598 ], [ 1.177898717730428, 41.396748286155088 ], [ 1.177937645311598, 41.396581210020614 ], [ 1.178011539197647, 41.396388888665996 ], [ 1.178050106194251, 41.396234706199024 ], [ 1.178158245530554, 41.396042926950649 ], [ 1.178325594929111, 41.395877883812197 ], [ 1.178501684961586, 41.395706529066885 ], [ 1.178695796820308, 41.395503210716306 ], [ 1.178873144415769, 41.395286727284336 ], [ 1.178957214740789, 41.395036518881604 ], [ 1.179130316569707, 41.394665174667857 ], [ 1.179288199085302, 41.394532228840099 ], [ 1.179293595805129, 41.394338822757156 ], [ 1.179311332314235, 41.394010167398399 ], [ 1.179308707255738, 41.393797285226711 ], [ 1.179239211322286, 41.393525297532257 ], [ 1.179270831258989, 41.393312957191206 ], [ 1.179303890012036, 41.393049041861758 ], [ 1.179359573999039, 41.392895129678372 ], [ 1.179363351343206, 41.39275974537702 ], [ 1.179368028019298, 41.392592126713247 ], [ 1.179413351681163, 41.392502547750581 ], [ 1.179508063286886, 41.392484697012222 ], [ 1.179494178548124, 41.39236838242752 ], [ 1.179357920814752, 41.392340427807397 ], [ 1.179274288763766, 41.392268157678835 ], [ 1.179144327522488, 41.392014562301519 ], [ 1.179049510728245, 41.391729274323154 ], [ 1.178959837485018, 41.391566612307599 ], [ 1.178990917446769, 41.391373612588865 ], [ 1.179053722366827, 41.391271410948029 ], [ 1.179412382206417, 41.391309334515363 ], [ 1.179765358744276, 41.391243971560037 ], [ 1.180049128044961, 41.391203311860529 ], [ 1.180239086426503, 41.391148268536149 ], [ 1.180318651463793, 41.391059230672262 ], [ 1.180289621169066, 41.390871729733334 ], [ 1.180277892510136, 41.390678052664484 ], [ 1.180284004636606, 41.39045885883499 ], [ 1.180226236105584, 41.390380548653845 ], [ 1.180228213601142, 41.390309633002452 ], [ 1.180230370860953, 41.390232270472609 ], [ 1.18017062504103, 41.390224875918207 ], [ 1.180117102859952, 41.390301426124076 ], [ 1.180046099333897, 41.390390599267668 ], [ 1.179975635004842, 41.390460431733089 ], [ 1.179922651805675, 41.390517641208284 ], [ 1.179870567557385, 41.390542616277287 ], [ 1.179699890270051, 41.390520567367986 ], [ 1.179630684261581, 41.390545271484235 ], [ 1.179537054572284, 41.390524441139306 ], [ 1.179468208198663, 41.390536251407241 ], [ 1.17928663198909, 41.390597875812524 ], [ 1.179199404679349, 41.390654543127411 ], [ 1.179137320143772, 41.390730957382814 ], [ 1.179023150666333, 41.390832346273406 ], [ 1.178884737444599, 41.390881753622089 ], [ 1.178634492725093, 41.390948739956535 ], [ 1.178359104710785, 41.390995978563538 ], [ 1.178118319874528, 41.391030864927714 ], [ 1.177793005925366, 41.391025713968389 ], [ 1.177465711515832, 41.391091477623654 ], [ 1.177309994748917, 41.391147058727938 ], [ 1.177102912248791, 41.391201825934168 ], [ 1.176963776459358, 41.391277018381643 ], [ 1.176876186045886, 41.391346577596977 ], [ 1.176907548057555, 41.391450269951804 ], [ 1.176923589310653, 41.39148922239761 ], [ 1.177060744593839, 41.391484945524546 ], [ 1.177350556448473, 41.391534684275136 ], [ 1.177631087658568, 41.391610074193949 ], [ 1.177877915660174, 41.391665580606883 ], [ 1.178192692035756, 41.391741511409997 ], [ 1.178439880968303, 41.391784122897519 ], [ 1.178584698114474, 41.39181221408333 ], [ 1.178668508752732, 41.391878037821236 ], [ 1.178877856171347, 41.392049043781363 ], [ 1.178942746222452, 41.3921790650625 ], [ 1.178957349587357, 41.392269592213836 ], [ 1.178988715319536, 41.392373284061918 ], [ 1.17906180718321, 41.392516334499597 ], [ 1.179058209148048, 41.392645271913473 ], [ 1.178980439513061, 41.392669840104482 ], [ 1.178873283212017, 41.392519800804749 ], [ 1.178766847112589, 41.392343973931787 ], [ 1.178640770310852, 41.392258132136035 ], [ 1.178471348739835, 41.392190953241617 ], [ 1.178242180234063, 41.39211637851912 ], [ 1.178164050974371, 41.392153839903074 ], [ 1.17803149532874, 41.392300084696238 ], [ 1.177985449912039, 41.392415450549628 ], [ 1.177842712028279, 41.392619581344903 ], [ 1.17797896962643, 41.392647537757583 ], [ 1.178210119508427, 41.39265119748719 ], [ 1.178518319417459, 41.392656076404755 ], [ 1.178860224083657, 41.392680837066308 ], [ 1.178960798677176, 41.39275982494086 ], [ 1.178895473216617, 41.392952282649688 ], [ 1.178821766105007, 41.393138157945764 ], [ 1.178792124078354, 41.393279582583446 ], [ 1.178703093262532, 41.393400718101191 ], [ 1.178616041576194, 41.393450937991958 ], [ 1.178665609400174, 41.393516219716403 ], [ 1.178782947437626, 41.39360837288941 ], [ 1.178780968142223, 41.393679288442911 ], [ 1.178726721603553, 41.393781625339521 ], [ 1.178714921359651, 41.393897533462479 ], [ 1.178729884592699, 41.393975166882413 ], [ 1.178676897354776, 41.394032375669603 ], [ 1.178683659163493, 41.394096979851966 ], [ 1.178799918616459, 41.394227814227108 ], [ 1.178804881181668, 41.394356887081123 ], [ 1.178675201518367, 41.39439998262209 ], [ 1.178511276311424, 41.39444253594089 ], [ 1.178417641461766, 41.394421704591132 ], [ 1.178348070834284, 41.394459301557355 ], [ 1.178321126891309, 41.394504023021248 ], [ 1.178344471143198, 41.394588238876189 ], [ 1.178325548547442, 41.394652436468391 ], [ 1.178144139727643, 41.394707611906149 ], [ 1.177990034950461, 41.394705171951166 ], [ 1.17787873706762, 41.394703409633209 ], [ 1.17793650637976, 41.394781720957781 ], [ 1.178056365786314, 41.39478361877697 ], [ 1.178261839081405, 41.394786871890965 ], [ 1.178426485223918, 41.394718531487172 ], [ 1.178531741328227, 41.394629901627475 ], [ 1.178594550278708, 41.394527700371491 ], [ 1.178733151491742, 41.394471846697215 ], [ 1.178853730118349, 41.394447956203734 ], [ 1.178937724252987, 41.394507332923304 ], [ 1.178961249230935, 41.394585101801191 ], [ 1.178950528761627, 41.394662328730732 ], [ 1.178894302360296, 41.394835581222914 ], [ 1.178797607803321, 41.394924346914387 ], [ 1.178742640389948, 41.395052471244156 ], [ 1.17856213060859, 41.395075412990288 ], [ 1.178475256511058, 41.395119185846781 ], [ 1.178438671049731, 41.395202452998902 ], [ 1.178357298349237, 41.395355957995896 ], [ 1.178101635351471, 41.395616348689579 ], [ 1.178029364024452, 41.395750648088779 ], [ 1.177966192891217, 41.395865742699229 ], [ 1.177774238290469, 41.395991697391381 ], [ 1.177702684962719, 41.396100209397595 ], [ 1.177700164143418, 41.39619046546288 ], [ 1.177754153349991, 41.396404160977774 ], [ 1.17763691037576, 41.396615144791582 ], [ 1.177546251969489, 41.396794300955818 ], [ 1.177318426218303, 41.39697773413787 ], [ 1.177360153988557, 41.39701709336164 ], [ 1.176958836087983, 41.396972037754786 ], [ 1.176497767350197, 41.396919584187344 ], [ 1.176164583536645, 41.396888504928931 ], [ 1.176128174296144, 41.396965324385626 ], [ 1.176315990309761, 41.396987650272337 ], [ 1.176554635959896, 41.397030130466604 ], [ 1.176947212065468, 41.3970814987008 ], [ 1.177168194784019, 41.397143046924846 ], [ 1.177320504223117, 41.39720995668997 ], [ 1.177326004181351, 41.397319688911232 ], [ 1.177150627100549, 41.39746525422494 ], [ 1.177018778538391, 41.397585710022874 ], [ 1.176886569188647, 41.397719059371553 ], [ 1.176746157838065, 41.397839379181839 ], [ 1.176674060169586, 41.397967231006874 ], [ 1.176541308770698, 41.398119920486856 ], [ 1.17646010795798, 41.398266977046212 ], [ 1.176422077238652, 41.398401818251529 ], [ 1.176393688645219, 41.398498114010557 ], [ 1.176316363387618, 41.398812924335857 ], [ 1.176225337672032, 41.39900497296356 ], [ 1.176135573029751, 41.399151893532881 ], [ 1.176018680106367, 41.399349981687706 ], [ 1.175933691148576, 41.399632421676358 ], [ 1.175873666509124, 41.399941056170832 ], [ 1.175773174357782, 41.400165202867278 ], [ 1.175613287590959, 41.400369058664964 ], [ 1.175636089282719, 41.40047261550734 ], [ 1.175582192417124, 41.400562056890017 ], [ 1.175622839579443, 41.400640097841496 ], [ 1.175652220330348, 41.400814705770024 ], [ 1.175648073631837, 41.400962983299166 ], [ 1.175706655350384, 41.401318645972772 ], [ 1.175759379637919, 41.401577470135628 ], [ 1.175778938184977, 41.401797069718043 ], [ 1.175738919766138, 41.402002825889177 ], [ 1.17565059206284, 41.40209817111711 ], [ 1.17550286861171, 41.402173225398023 ], [ 1.175560461013821, 41.40225798474308 ], [ 1.175644461868017, 41.402317363935246 ], [ 1.175745587619698, 41.402377014562369 ], [ 1.175776051051094, 41.402512941345663 ], [ 1.175753517521511, 41.402706075281678 ], [ 1.175611470290319, 41.402884414967076 ], [ 1.175420932746057, 41.40295879029896 ], [ 1.175153693382953, 41.403019049513262 ], [ 1.175109438249581, 41.403069945303244 ], [ 1.174797401544242, 41.40320043997032 ], [ 1.174762069279524, 41.403238577749001 ], [ 1.174829126027028, 41.403291239049778 ], [ 1.174870675781722, 41.403337046030892 ], [ 1.174723129008861, 41.403405652375803 ], [ 1.174376659431667, 41.403542049380711 ], [ 1.174167730362738, 41.403661278742703 ], [ 1.173925813703599, 41.403734836292912 ], [ 1.173633062740761, 41.403788237374265 ], [ 1.173433596764167, 41.403875367070484 ], [ 1.173259095779523, 41.403988691565701 ], [ 1.173103886119964, 41.404024925641579 ], [ 1.172888196483826, 41.404079548283711 ], [ 1.172817348139064, 41.404162269414861 ], [ 1.172866556648522, 41.404240447240831 ], [ 1.173117038913989, 41.404167027934982 ], [ 1.173385729016028, 41.404055198901105 ], [ 1.173706154625193, 41.403931290965687 ], [ 1.174059205043688, 41.403865947177067 ], [ 1.174231178048026, 41.403842877200312 ], [ 1.17437160725932, 41.403722560940288 ], [ 1.174676167212966, 41.403553250624377 ], [ 1.174935568183624, 41.403467069395376 ], [ 1.174995145020108, 41.40348091373302 ], [ 1.17504417532203, 41.403565537522795 ], [ 1.175099603924962, 41.403727659218383 ], [ 1.175171436495579, 41.403915839851386 ], [ 1.175218303090721, 41.40407782569909 ], [ 1.175148900544204, 41.404108973577301 ], [ 1.174968544890029, 41.404125462266379 ], [ 1.174659389352545, 41.404152806950606 ], [ 1.174462088707333, 41.404162576333881 ], [ 1.17440016571378, 41.404232540642624 ], [ 1.174388896545858, 41.404329107402106 ], [ 1.174451623703874, 41.404536493106143 ], [ 1.174578980930771, 41.404577211804714 ], [ 1.174716163831955, 41.404572938303623 ], [ 1.175076697271456, 41.404546408331029 ], [ 1.175334298292789, 41.404524694721729 ], [ 1.175361428991079, 41.40447352731465 ], [ 1.175355210803709, 41.404389582561514 ], [ 1.175307441938607, 41.404259830986916 ], [ 1.175351878103156, 41.404202488299802 ], [ 1.175565041765797, 41.404238116834961 ], [ 1.175802451157508, 41.404325726989399 ], [ 1.175990288154706, 41.404348053812043 ], [ 1.17604914493796, 41.404387685008743 ], [ 1.176099078611412, 41.404440074144865 ], [ 1.176208770669449, 41.404499860144561 ], [ 1.17631080151471, 41.4045272760968 ], [ 1.176438700669016, 41.404548652216583 ], [ 1.17646240726654, 41.404619974581045 ], [ 1.176388859127855, 41.404799400698266 ], [ 1.17633315699945, 41.404953310787356 ], [ 1.176223734800211, 41.405190215547783 ], [ 1.176099529810026, 41.405343039730319 ], [ 1.175882215407696, 41.405455689544489 ], [ 1.175675626871293, 41.40549111256361 ], [ 1.175398552049076, 41.405596364257129 ], [ 1.175018542302578, 41.405706432440546 ], [ 1.174863149011087, 41.405749115657947 ], [ 1.174708838014173, 41.405753117619696 ], [ 1.174555609586857, 41.405718438335924 ], [ 1.174478544343004, 41.405717215717267 ], [ 1.174434106341742, 41.405774558015537 ], [ 1.174432121472115, 41.405845473246352 ], [ 1.174379936766582, 41.405873667059772 ], [ 1.174177798607948, 41.406209069108229 ], [ 1.174034916759107, 41.406722777902267 ], [ 1.173934847525574, 41.407237165906196 ], [ 1.173809758561001, 41.4078801506814 ], [ 1.173796219588652, 41.408363663253454 ], [ 1.173845550478756, 41.408896546336308 ], [ 1.173751343107588, 41.409201411826011 ] ] ] } },
{ "type": "Feature", "properties": { "GRID_CODE": 2, "CODI_FINAL": "2008250089", "MUNICIPI": "Tremps", "DATA_INCEN": "17/03/08" }, "geometry": { "type": "Polygon", "coordinates": [ [ [ 0.906677490516558, 42.12790367157897 ], [ 0.906685218019512, 42.127847068218841 ], [ 0.906607628134907, 42.127710339041002 ], [ 0.906578183546846, 42.127714166728104 ], [ 0.906571892422616, 42.127727146786825 ], [ 0.906525010902152, 42.127726291340728 ], [ 0.906525872791606, 42.127700117365208 ], [ 0.906490711667051, 42.127699475768644 ], [ 0.906449977663183, 42.127690002567668 ], [ 0.906421538663339, 42.127663293911375 ], [ 0.906389560799373, 42.127601601065955 ], [ 0.906375680679415, 42.127524524647157 ], [ 0.906395697400111, 42.127486478355287 ], [ 0.906318252216115, 42.127345386668161 ], [ 0.906242966971185, 42.127281157476801 ], [ 0.906239348006748, 42.127212998201799 ], [ 0.906221342620031, 42.127189971864915 ], [ 0.906200533454297, 42.127180862198479 ], [ 0.906182413155338, 42.127161325718973 ], [ 0.906173381743906, 42.127150685012353 ], [ 0.906155089056822, 42.127136383323226 ], [ 0.906127132820327, 42.127130635167113 ], [ 0.90610403710451, 42.127119737772034 ], [ 0.906265008313715, 42.126932363659975 ], [ 0.906265410567703, 42.126920149138343 ], [ 0.906263641170597, 42.126902657044397 ], [ 0.906249864225509, 42.126893675720574 ], [ 0.906236317146558, 42.126877714668737 ], [ 0.906227573093144, 42.126858349308463 ], [ 0.906211854382608, 42.126837110680832 ], [ 0.906190080490183, 42.126786079877405 ], [ 0.906175051413205, 42.126743902065783 ], [ 0.906121667891944, 42.12665562877482 ], [ 0.906085025356813, 42.126628770313275 ], [ 0.90602734401933, 42.12659978187277 ], [ 0.905952462237726, 42.126523337988935 ], [ 0.9058780979051, 42.126431189676914 ], [ 0.905850371904996, 42.126418461734744 ], [ 0.905820646745937, 42.12639522141216 ], [ 0.905786578419923, 42.126361425921111 ], [ 0.905743019080894, 42.126330949133013 ], [ 0.905704090349088, 42.126302302837097 ], [ 0.905560887846299, 42.126235087415559 ], [ 0.905375795158703, 42.126157940631863 ], [ 0.905361731060181, 42.12615768386113 ], [ 0.905098422900331, 42.126034149609012 ], [ 0.905022392959298, 42.125992603762477 ], [ 0.905010960397256, 42.1259836650989 ], [ 0.904987520302883, 42.12598323707364 ], [ 0.904950131151017, 42.125979062362319 ], [ 0.904929092568009, 42.125976932198199 ], [ 0.904922060540758, 42.125976803786109 ], [ 0.904898735451116, 42.125972885881815 ], [ 0.90486843583967, 42.125967094627221 ], [ 0.904819384167157, 42.125960960916785 ], [ 0.904744720930678, 42.12594912151291 ], [ 0.904665657243194, 42.12592847179171 ], [ 0.904602944142952, 42.125909866622166 ], [ 0.904570473113461, 42.125898797689139 ], [ 0.904551778578029, 42.125896710267831 ], [ 0.904519250054001, 42.12588738625071 ], [ 0.904491294526557, 42.125881637710286 ], [ 0.904475001515974, 42.125877848159412 ], [ 0.904446988484504, 42.125873844538198 ], [ 0.904423720978853, 42.125868181608887 ], [ 0.904391250003649, 42.125857112626271 ], [ 0.90435151696903, 42.125852894907347 ], [ 0.904326250572183, 42.125836719563871 ], [ 0.904303155641223, 42.125825821821167 ], [ 0.904277601681815, 42.125818371116331 ], [ 0.904252162764303, 42.125807430546523 ], [ 0.904227011448243, 42.125787765322578 ], [ 0.904201572551935, 42.125776824741934 ], [ 0.904188256302074, 42.12575388374318 ], [ 0.904168023104906, 42.125727324425881 ], [ 0.90406057318166, 42.12557171524135 ], [ 0.903980158650953, 42.125449773503298 ], [ 0.903967187695206, 42.12541636290355 ], [ 0.903855280914827, 42.125253688177189 ], [ 0.903797443989412, 42.125158348514333 ], [ 0.903773156011328, 42.125112509256091 ], [ 0.903761278293799, 42.125045944976037 ], [ 0.90376549899161, 42.125024633830819 ], [ 0.903790376937219, 42.124981438860843 ], [ 0.903795410050855, 42.124971054936623 ], [ 0.903835947877799, 42.124950843822106 ], [ 0.903880540828014, 42.12494991256731 ], [ 0.903903865473549, 42.124953830669476 ], [ 0.903943597912407, 42.124958048530885 ], [ 0.903964636119107, 42.12496017886793 ], [ 0.904044331107744, 42.124961634816252 ], [ 0.90412877156284, 42.12496143141847 ], [ 0.904208869182698, 42.124950672743161 ], [ 0.904288909262522, 42.124941658941232 ], [ 0.904395020550283, 42.124924391389214 ], [ 0.90446093924978, 42.124916865511196 ], [ 0.904470142596864, 42.124922271552208 ], [ 0.904548471228669, 42.124894020521502 ], [ 0.904622183131118, 42.124792353928406 ], [ 0.904625332173749, 42.124767967710909 ], [ 0.904630307628754, 42.124759328676618 ], [ 0.904623793287239, 42.124743495874895 ], [ 0.904565596759269, 42.124730211117367 ], [ 0.904526439493572, 42.124708544169678 ], [ 0.904489856251951, 42.124679940299615 ], [ 0.904473391018198, 42.124681385545713 ], [ 0.904462131293445, 42.124667212041508 ], [ 0.904430351043873, 42.124635203917414 ], [ 0.904431041170642, 42.12461426475366 ], [ 0.904429444849865, 42.124591537846506 ], [ 0.904417725063545, 42.12459132378077 ], [ 0.904413324703899, 42.124582513502673 ], [ 0.90442796355095, 42.124565321078627 ], [ 0.904419277854707, 42.124544210662236 ], [ 0.904412533542659, 42.124535357570913 ], [ 0.904408190698275, 42.124524802362338 ], [ 0.904413453716125, 42.124507438685747 ], [ 0.904407227007106, 42.12448288122112 ], [ 0.904392213983831, 42.124440266965955 ], [ 0.904388848840878, 42.124400047941066 ], [ 0.904382507127498, 42.124378980335798 ], [ 0.904364273139635, 42.124362933450911 ], [ 0.904334434445614, 42.12434318262946 ], [ 0.904306709663964, 42.124330454337077 ], [ 0.904255315365225, 42.124324277597836 ], [ 0.904224729021298, 42.124327210841379 ], [ 0.904201289549294, 42.124326782669073 ], [ 0.904180251541753, 42.124324652379777 ], [ 0.904116964972848, 42.124323496279061 ], [ 0.904109703057015, 42.124330347541431 ], [ 0.904088492493969, 42.124333452025397 ], [ 0.904062766594578, 42.124331236074958 ], [ 0.904013831312951, 42.124321612188353 ], [ 0.903948891085165, 42.124299474014876 ], [ 0.90390967677359, 42.124279551795524 ], [ 0.903900876237625, 42.124261931203272 ], [ 0.903796779400538, 42.124218125781653 ], [ 0.903750360777512, 42.124203309821723 ], [ 0.903724692474562, 42.124199348867116 ], [ 0.903715259178208, 42.124200922487987 ], [ 0.903698851585684, 42.124200622695739 ], [ 0.903675642289907, 42.124193214698664 ], [ 0.903659234699787, 42.124192914900796 ], [ 0.903635565159702, 42.124199466332264 ], [ 0.903607840586408, 42.124186737875014 ], [ 0.90359166312946, 42.124179458349488 ], [ 0.903572911602975, 42.124179115709531 ], [ 0.903556561551221, 42.12417707096759 ], [ 0.903537810025861, 42.124176728321935 ], [ 0.903516311816925, 42.124188557347807 ], [ 0.903490413394658, 42.124191576058927 ], [ 0.903462286101527, 42.124191062072931 ], [ 0.903436675361003, 42.124185356124933 ], [ 0.903417981372105, 42.124183268530288 ], [ 0.903340883465062, 42.124138646587518 ], [ 0.90324118739675, 42.124103650989241 ], [ 0.903124580367293, 42.124083623562036 ], [ 0.903080160665911, 42.124079319749413 ], [ 0.903026250130685, 42.124078334412864 ], [ 0.90299806534721, 42.124079565243058 ], [ 0.902960389718287, 42.124084114553881 ], [ 0.902909110875488, 42.124074447360783 ], [ 0.902864345883851, 42.124080613037499 ], [ 0.902824556524489, 42.124078139744071 ], [ 0.902768129398004, 42.124082346226785 ], [ 0.902737428006469, 42.124088768932047 ], [ 0.902697753762789, 42.124082805737494 ], [ 0.902657964410869, 42.124080332386278 ], [ 0.902615658449173, 42.124083050957204 ], [ 0.902584841923264, 42.124092963478013 ], [ 0.902572834440281, 42.124101473867867 ], [ 0.902566320676949, 42.124085640960537 ], [ 0.902526358645023, 42.124088402348882 ], [ 0.902488625420546, 42.124094696432131 ], [ 0.9024509497529, 42.124099245574534 ], [ 0.90242910598992, 42.124121543962296 ], [ 0.902416868221861, 42.124137034048147 ], [ 0.902416177443411, 42.124157973186655 ], [ 0.902433662532017, 42.124196704436372 ], [ 0.902420273451479, 42.124247093085934 ], [ 0.90246861660008, 42.124345751838142 ], [ 0.902492270158954, 42.124410785561217 ], [ 0.902495749226166, 42.124447514758415 ], [ 0.902484991903063, 42.124489221624913 ], [ 0.902484128447277, 42.124515395547533 ], [ 0.90246491632069, 42.12452901214963 ], [ 0.902455022431306, 42.124544545089947 ], [ 0.902456387785798, 42.124574251721477 ], [ 0.902448607581564, 42.124596807226766 ], [ 0.902457119929445, 42.124623152562037 ], [ 0.902463288327498, 42.12464945504351 ], [ 0.902450071855593, 42.124694608906971 ], [ 0.902444980983002, 42.124706737696236 ], [ 0.902416277820678, 42.124723672729274 ], [ 0.902394491388965, 42.124744226175061 ], [ 0.902398546076329, 42.124763506092435 ], [ 0.902406482758333, 42.124807300710764 ], [ 0.902412478451012, 42.124838837978068 ], [ 0.902400240533763, 42.124854328057133 ], [ 0.902372845040397, 42.124902714634828 ], [ 0.902374670898115, 42.124918461841396 ], [ 0.902383701359143, 42.124929102829761 ], [ 0.902387698485463, 42.124950127675064 ], [ 0.902373634680969, 42.124949870544008 ], [ 0.902373001436346, 42.12496906475107 ], [ 0.902381513796285, 42.124995410090776 ], [ 0.902390429134262, 42.125009540934435 ], [ 0.902417520571346, 42.125041463894256 ], [ 0.902426090524824, 42.125066064303027 ], [ 0.902445862254264, 42.125106583333043 ], [ 0.902461176321044, 42.125140036940934 ], [ 0.902457681031279, 42.1251748926461 ], [ 0.902456616062878, 42.12520717381296 ], [ 0.902451640278626, 42.125215812744756 ], [ 0.90244174627232, 42.125231345679808 ], [ 0.902441170608432, 42.12524879495885 ], [ 0.902444995070631, 42.125275054585607 ], [ 0.902451451347188, 42.125292632426685 ], [ 0.902455909043098, 42.125299697846287 ], [ 0.902453318562882, 42.125378219601131 ], [ 0.902471149375629, 42.125406481278127 ], [ 0.902475146554653, 42.125427506120047 ], [ 0.902481660419101, 42.125443339031762 ], [ 0.902485657603455, 42.125464363873313 ], [ 0.902485312209596, 42.125474833440585 ], [ 0.902477589458282, 42.125495644014386 ], [ 0.902467465146992, 42.125518156661492 ], [ 0.902473576055144, 42.125546204068435 ], [ 0.902475459516036, 42.125560206344943 ], [ 0.902481743128975, 42.125583018967951 ], [ 0.902488199443628, 42.125600596806997 ], [ 0.902496884622632, 42.125621707354853 ], [ 0.902500996951998, 42.125639242339972 ], [ 0.902505166848934, 42.125655032397113 ], [ 0.902509567009317, 42.125663842742654 ], [ 0.902516368730351, 42.125670951013291 ], [ 0.902530087306621, 42.125681677697536 ], [ 0.902552836482175, 42.125703045356978 ], [ 0.902580100974744, 42.125729733499455 ], [ 0.902595990881769, 42.125745737811769 ], [ 0.902611823233961, 42.125763487049845 ], [ 0.902623140285517, 42.125775915800482 ], [ 0.902618551344068, 42.125843925138682 ], [ 0.902603278512921, 42.125880311517257 ], [ 0.902579147725812, 42.1259008221353 ], [ 0.902557907789832, 42.125904798785854 ], [ 0.902538637681346, 42.125920160315928 ], [ 0.902526457140868, 42.125933905473964 ], [ 0.902516793296675, 42.125942458700415 ], [ 0.902499752038998, 42.125961352932059 ], [ 0.902492259492755, 42.125975183792974 ], [ 0.902467495394199, 42.126014888590397 ], [ 0.902457198286502, 42.126042636015782 ], [ 0.90246319409625, 42.126074173277303 ], [ 0.902479141622874, 42.126088432678408 ], [ 0.902499719610258, 42.126104522712687 ], [ 0.902515667152627, 42.126118782108996 ], [ 0.902538243777118, 42.126145384556459 ], [ 0.902549503313706, 42.126159558242414 ], [ 0.9025793422643, 42.126179309529149 ], [ 0.902600092998161, 42.126190164763003 ], [ 0.902644111190046, 42.126206683287322 ], [ 0.902666803023482, 42.12622979585521 ], [ 0.902675661025916, 42.126245671607066 ], [ 0.902674855157577, 42.12627010059699 ], [ 0.902660330558835, 42.12628380291725 ], [ 0.902647804594081, 42.126308017653209 ], [ 0.90263533618273, 42.12633048745974 ], [ 0.902623270707758, 42.126340742770303 ], [ 0.902636356246429, 42.12637066364978 ], [ 0.90266584994609, 42.12640088448282 ], [ 0.902679280889791, 42.126420335791082 ], [ 0.902678877953975, 42.126432550285756 ], [ 0.90269337217812, 42.126490869086226 ], [ 0.902710973145087, 42.126526110441411 ], [ 0.902736066700618, 42.126547520919402 ], [ 0.902733262185589, 42.126561437492718 ], [ 0.902718679968522, 42.126576884746385 ], [ 0.902701983963702, 42.126585309436891 ], [ 0.902692435164377, 42.126590372820097 ], [ 0.902680542335023, 42.126595393352019 ], [ 0.902675681589915, 42.12660054243436 ], [ 0.902677737805365, 42.126609309923545 ], [ 0.902684482080044, 42.126618163113534 ], [ 0.9026936855108, 42.126623569297728 ], [ 0.90270054491334, 42.126628932631242 ], [ 0.902700372227084, 42.126634167414529 ], [ 0.902697682824066, 42.126644594131072 ], [ 0.902690017546519, 42.12666365978582 ], [ 0.902696128643127, 42.126691707180321 ], [ 0.902690577141569, 42.126717795395869 ], [ 0.902699262526143, 42.1267389059295 ], [ 0.902693941271064, 42.126758014434103 ], [ 0.902699822127145, 42.126793041539003 ], [ 0.902715597196026, 42.126812535694015 ], [ 0.902717135364517, 42.126837007531982 ], [ 0.902723246486736, 42.126865054924856 ], [ 0.902738561087458, 42.12689850849884 ], [ 0.902726150145458, 42.126919233383461 ], [ 0.902746958703422, 42.126928343667686 ], [ 0.902755413887968, 42.126956433908234 ], [ 0.90277216754628, 42.126946264284726 ], [ 0.902790632077916, 42.126955331712502 ], [ 0.902808751256147, 42.126974868704096 ], [ 0.902806292093697, 42.12697831571154 ], [ 0.902859744612612, 42.126993260628794 ], [ 0.902892618779016, 42.126992115555062 ], [ 0.90293246751861, 42.126992843936726 ], [ 0.90298974484622, 42.127034048404383 ], [ 0.90296521083761, 42.127066773588396 ], [ 0.90294611312983, 42.127076900394535 ], [ 0.902925074266841, 42.127074769856442 ], [ 0.902906494566504, 42.127069192305036 ], [ 0.90289752128412, 42.127056806424967 ], [ 0.902888317774095, 42.127051400255716 ], [ 0.90287584929026, 42.127073870084288 ], [ 0.902861727453089, 42.127075357930465 ], [ 0.902840285680044, 42.127085441871486 ], [ 0.90282839276752, 42.127090462416533 ], [ 0.902823647113912, 42.127092121648616 ], [ 0.902818383421963, 42.127109485230328 ], [ 0.902796538707556, 42.127131783656793 ], [ 0.902770236124055, 42.127147016669944 ], [ 0.902755711337282, 42.127160718996358 ], [ 0.90274141679242, 42.12716744161014 ], [ 0.902710713895221, 42.127173864271469 ], [ 0.902691558552265, 42.127185735961085 ], [ 0.902668060485454, 42.127187052379703 ], [ 0.902662969435149, 42.127199181170269 ], [ 0.902662393792311, 42.127216630445631 ], [ 0.902659358968065, 42.127237526724798 ], [ 0.902667583892162, 42.127272596680641 ], [ 0.902680842318023, 42.127297282772673 ], [ 0.902698903991551, 42.127318564709505 ], [ 0.902714851873447, 42.127332824083112 ], [ 0.902735890812925, 42.127334954661436 ], [ 0.902737428993763, 42.127359426497485 ], [ 0.902758410380959, 42.127363301999566 ], [ 0.902790881812169, 42.127374371452717 ], [ 0.902813804342091, 42.127390504287099 ], [ 0.902808770862158, 42.127400888156231 ], [ 0.90279413090106, 42.127418080341101 ], [ 0.902772458753068, 42.127435143976498 ], [ 0.902757991460556, 42.12744710137342 ], [ 0.902748097158589, 42.127462634323116 ], [ 0.902731228231195, 42.127476293794189 ], [ 0.902716415541155, 42.127498720750616 ], [ 0.902713150463285, 42.127526596740324 ], [ 0.902698395318505, 42.12754727876635 ], [ 0.902681756615383, 42.127553958519428 ], [ 0.902662888974727, 42.127557105563561 ], [ 0.9026466244408, 42.127552443283008 ], [ 0.902637593579805, 42.127541802310745 ], [ 0.902623759463915, 42.127534565487906 ], [ 0.902600549100186, 42.127527157252821 ], [ 0.902577396309264, 42.127518004085772 ], [ 0.902556069476745, 42.127524598113794 ], [ 0.902504500101059, 42.127523655320879 ], [ 0.902501810622551, 42.127534082029676 ], [ 0.902480253497419, 42.12754765575238 ], [ 0.902461040426921, 42.127561272326481 ], [ 0.902444459267512, 42.127566207117177 ], [ 0.902425303755364, 42.127578078757672 ], [ 0.902415582067053, 42.12758837689465 ], [ 0.902412604711159, 42.127607528236645 ], [ 0.902397907022664, 42.127626465293901 ], [ 0.902380347102154, 42.12766106383566 ], [ 0.9023785623384, 42.127715156575178 ], [ 0.902389534238594, 42.127738054914069 ], [ 0.902393243642047, 42.12776780438891 ], [ 0.902399412266209, 42.127794106866531 ], [ 0.902412325252907, 42.127829262549966 ], [ 0.902429408254857, 42.127880208289064 ], [ 0.902448662645214, 42.127936431663336 ], [ 0.902462883480232, 42.128003038885176 ], [ 0.902458931651044, 42.128158358820983 ], [ 0.902437608799144, 42.128271457652403 ], [ 0.902453462307885, 42.128324126885886 ], [ 0.902487040474098, 42.128372755219765 ], [ 0.902537623705967, 42.12843915422728 ], [ 0.902588926653065, 42.128483741625715 ], [ 0.902609920978613, 42.128558329562587 ], [ 0.902654932059513, 42.128615896753132 ], [ 0.902765413491403, 42.128644106104701 ], [ 0.902851734445933, 42.128693698459848 ], [ 0.902913031540963, 42.128790847783328 ], [ 0.903021354983943, 42.128884491673965 ], [ 0.903112673422083, 42.128960364867723 ], [ 0.903209852375862, 42.129036345096793 ], [ 0.903259861359105, 42.12912019308316 ], [ 0.90330857558219, 42.129243301921768 ], [ 0.903352149027306, 42.129344492048354 ], [ 0.903514661638883, 42.129501981021427 ], [ 0.903643616544288, 42.129645761741997 ], [ 0.903794244741757, 42.129772478521353 ], [ 0.903853408932781, 42.12982768486205 ], [ 0.903931729182488, 42.129871019298847 ], [ 0.903962088079984, 42.129875065908884 ], [ 0.904080647170535, 42.129978498684189 ], [ 0.904192943550372, 42.130094038786758 ], [ 0.904331522269643, 42.130159425468968 ], [ 0.904350448140656, 42.130154533238546 ], [ 0.904372465973539, 42.130126999752385 ], [ 0.904394138651422, 42.130109935833104 ], [ 0.904422613710667, 42.130099980077063 ], [ 0.904423303972034, 42.130079040933502 ], [ 0.904435484941189, 42.130065295591969 ], [ 0.904459329177291, 42.130053509262645 ], [ 0.90449712331512, 42.130045469683111 ], [ 0.904520564899752, 42.130045897841818 ], [ 0.904546120570159, 42.130053348525934 ], [ 0.90456984974678, 42.130045052030695 ], [ 0.904595635490935, 42.130045522988638 ], [ 0.904621191170672, 42.130052973656213 ], [ 0.904642116053893, 42.130058593763138 ], [ 0.904655778401457, 42.130071065143525 ], [ 0.904685734846061, 42.130087326067368 ], [ 0.90469728310468, 42.130092774915013 ], [ 0.904709751587907, 42.130070304898325 ], [ 0.904698318360506, 42.130061366194042 ], [ 0.904693917613285, 42.130052555925246 ], [ 0.904675451915354, 42.130043488782398 ], [ 0.904656641131189, 42.130044891210055 ], [ 0.904636061345993, 42.13002880153249 ], [ 0.904633947251428, 42.130021779003698 ], [ 0.904634349862279, 42.130009564501464 ], [ 0.90463040925452, 42.129986794799265 ], [ 0.904638592036691, 42.129952024661002 ], [ 0.904650887965169, 42.129934789436774 ], [ 0.904663241401677, 42.129915809282146 ], [ 0.904670676465792, 42.12990372321709 ], [ 0.904669022488021, 42.129882741257035 ], [ 0.904655877811239, 42.129854565518109 ], [ 0.904654051294209, 42.129838818344716 ], [ 0.904645364871957, 42.12981770794589 ], [ 0.904636793485861, 42.129793107688606 ], [ 0.9046210171137, 42.129773613777679 ], [ 0.904609986562755, 42.129752460563061 ], [ 0.904594440273966, 42.129725986933039 ], [ 0.904585696369077, 42.129706621459036 ], [ 0.904572609279755, 42.129676700782476 ], [ 0.904561981380241, 42.129643333061225 ], [ 0.904548606727141, 42.129622137026715 ], [ 0.904533060493962, 42.129595663389118 ], [ 0.904519858414295, 42.12956923256484 ], [ 0.904513573728601, 42.129546420043269 ], [ 0.904512034843752, 42.129521948223307 ], [ 0.904546693343237, 42.129466709907476 ], [ 0.904558471545974, 42.129465179051017 ], [ 0.904561390850262, 42.12944777257556 ], [ 0.904569113457359, 42.129426961870372 ], [ 0.904581236748792, 42.129414961437391 ], [ 0.904588786797539, 42.12939938551758 ], [ 0.904598508429998, 42.129389087197843 ], [ 0.904630981223926, 42.129400156156549 ], [ 0.904658823272811, 42.129409394552816 ], [ 0.904672427975696, 42.129423610858503 ], [ 0.904690318365279, 42.129450127290035 ], [ 0.904722043546864, 42.129483880302743 ], [ 0.90474147294609, 42.129534868546003 ], [ 0.904752100924699, 42.12956823625295 ], [ 0.904746319916649, 42.129601304285629 ], [ 0.904743880586047, 42.129613045097955 ], [ 0.904748281312292, 42.129621855364945 ], [ 0.904753652820238, 42.12963679428907 ], [ 0.904761181562135, 42.129657447043044 ], [ 0.90477302823047, 42.129671631230188 ], [ 0.904779888132265, 42.129676994447927 ], [ 0.90479460403068, 42.129710873300986 ], [ 0.904813476268782, 42.129760978365965 ], [ 0.904822392781193, 42.129775109036665 ], [ 0.904850364418135, 42.129780421299337 ], [ 0.90487383466473, 42.129779976919117 ], [ 0.90491669823439, 42.129796036993632 ], [ 0.904986856495585, 42.129882434653894 ], [ 0.904984498749922, 42.129953976755573 ], [ 0.904968651111873, 42.130007812725658 ], [ 0.904967903525131, 42.130030496806036 ], [ 0.905028090533084, 42.130125878746199 ], [ 0.905035224483476, 42.130194102209515 ], [ 0.905030982642674, 42.130251642070036 ], [ 0.905027430859547, 42.130288242778931 ], [ 0.905023821565731, 42.130326588416587 ], [ 0.905031703099153, 42.130372127798481 ], [ 0.905051420517887, 42.130414391347273 ], [ 0.905035630311314, 42.130466482392059 ], [ 0.905041455218341, 42.130503254321404 ], [ 0.90503367511373, 42.130525809984462 ], [ 0.90506242426036, 42.130578714328472 ], [ 0.905099801739708, 42.130583325293088 ], [ 0.905130218566007, 42.130585626673366 ], [ 0.905164748729349, 42.130605462944558 ], [ 0.90517132125132, 42.130619550787515 ], [ 0.905175147079287, 42.130645810332616 ], [ 0.905160104444192, 42.130675217312962 ], [ 0.905181144586099, 42.130677347468037 ], [ 0.905240554163891, 42.13065398850825 ], [ 0.905262284300583, 42.130635179495719 ], [ 0.905274062706793, 42.130633648570516 ], [ 0.905281497745826, 42.130621562466459 ], [ 0.905281842741466, 42.130611092889936 ], [ 0.905289047780077, 42.130605986503035 ], [ 0.905295965323245, 42.130609604762874 ], [ 0.905295562831047, 42.130621819268903 ], [ 0.905288300291993, 42.130628670585679 ], [ 0.905285726114103, 42.130635607502917 ], [ 0.905283209434907, 42.130640799490649 ], [ 0.905282691941174, 42.130656503855434 ], [ 0.90535816575039, 42.130643914012794 ], [ 0.905360682423661, 42.130638722023285 ], [ 0.905358568230871, 42.130631699506303 ], [ 0.905351535686868, 42.13063157110912 ], [ 0.905344618138058, 42.130627952852535 ], [ 0.905342331454504, 42.130626165123765 ], [ 0.905344905625843, 42.130619228205006 ], [ 0.905382814995786, 42.130607698480297 ], [ 0.905441706984039, 42.130600043779083 ], [ 0.90545079623226, 42.130608939615897 ], [ 0.905455369604573, 42.130612515069203 ], [ 0.90546457384499, 42.130617921045683 ], [ 0.905464343867921, 42.13062490076414 ], [ 0.905473605604914, 42.130628561810425 ], [ 0.905495048198332, 42.130618477400184 ], [ 0.905588655914673, 42.130553839083689 ], [ 0.905626277755778, 42.130551033925514 ], [ 0.905632907865541, 42.130563376814571 ], [ 0.905620957010005, 42.130570142566569 ], [ 0.905604490263545, 42.130571587940132 ], [ 0.905592596894174, 42.130576608759306 ], [ 0.90559236693149, 42.130583588478522 ], [ 0.90561357953116, 42.130580483764433 ], [ 0.905622898760711, 42.130582399868821 ], [ 0.905641767178886, 42.130579252356 ], [ 0.905671104595576, 42.130543122343134 ], [ 0.905699579664402, 42.13053316627051 ], [ 0.905712507788067, 42.130496736700998 ], [ 0.905722829851247, 42.130325819146329 ], [ 0.905722037818213, 42.130278663244674 ], [ 0.905739079346761, 42.130259768552044 ], [ 0.90574491739962, 42.130224955532611 ], [ 0.905794387535889, 42.130147289482565 ], [ 0.905818748914697, 42.130119798494327 ], [ 0.906033517140071, 42.130008483917237 ], [ 0.906052212938337, 42.130010571123712 ], [ 0.906106760837152, 42.129992360914301 ], [ 0.906135982760729, 42.129959720628129 ], [ 0.90613411069621, 42.129874133464035 ], [ 0.906183218734441, 42.129736224334508 ], [ 0.906251705806315, 42.129615255649647 ], [ 0.906352080412527, 42.129416299748208 ], [ 0.906388966476618, 42.129364593477248 ], [ 0.906415855772724, 42.129260325378532 ], [ 0.906449179938187, 42.129138714896946 ], [ 0.906513529377747, 42.128965291141682 ], [ 0.906541280192554, 42.128834849028017 ], [ 0.906603761621288, 42.128718135473342 ], [ 0.906643043222136, 42.128522429476895 ], [ 0.906677490516558, 42.12790367157897 ] ] ] } }
]
}
