{
"type": "FeatureCollection",
"name": "official_2010",
"crs": { "type": "name", "properties": { "name": "urn:ogc:def:crs:OGC:1.3:CRS84" } },
"features": [
{ "type": "Feature", "properties": { "GRID_CODE": 2, "CODI_FINAL": "2010250090", "MUNICIPI": "Bausen", "DATA_INCEN": "15/03/10" }, "geometry": { "type": "Polygon", "coordinates": [ [ [ 0.698790586138417, 42.843650481545211 ], [ 0.698773883655637, 42.844100385388607 ], [ 0.700302374888191, 42.844131102401832 ], [ 0.700319066297826, 42.843681198077832 ], [ 0.70093045905574, 42.843693479028232 ], [ 0.700922115613505, 42.843918431291407 ], [ 0.701839208732699, 42.843936846676513 ], [ 0.701847548852983, 42.843711894269283 ], [ 0.702764639573872, 42.843730302172496 ], [ 0.702781312883129, 42.843280397039472 ], [ 0.703087007767094, 42.84328653128032 ], [ 0.703095343170748, 42.843061578650541 ], [ 0.70401242501259, 42.843079976380317 ], [ 0.704004092930801, 42.843304929154016 ], [ 0.704615483560551, 42.843317190296752 ], [ 0.704632143199248, 42.842867284547332 ], [ 0.705549223217977, 42.842885669857949 ], [ 0.705565875830242, 42.842435763780138 ], [ 0.706177258497597, 42.842448016383791 ], [ 0.706168934453821, 42.842672969523633 ], [ 0.706780319777759, 42.842685219007649 ], [ 0.706788641607011, 42.842460265771962 ], [ 0.707094333305996, 42.842466389220412 ], [ 0.707102653932373, 42.842241435926653 ], [ 0.707408344619704, 42.842247558511787 ], [ 0.707416664043233, 42.842022605159947 ], [ 0.708028043429067, 42.842034847786969 ], [ 0.708061311370706, 42.841135033895981 ], [ 0.709895425368894, 42.841171741105832 ], [ 0.709887115185298, 42.841396694881304 ], [ 0.710804176765531, 42.841415037598843 ], [ 0.710770948363034, 42.842314853173072 ], [ 0.711076640135549, 42.842320965971936 ], [ 0.711068333903558, 42.842545919887897 ], [ 0.71167972007173, 42.842558143137381 ], [ 0.711671415958861, 42.842783097138778 ], [ 0.711977110293356, 42.842789207588176 ], [ 0.71198541329894, 42.842564253538967 ], [ 0.712291106560427, 42.842570363123905 ], [ 0.712299408424473, 42.842345409017952 ], [ 0.71260510067408, 42.842351517739651 ], [ 0.71261340133381, 42.842126563620745 ], [ 0.713224783965754, 42.84213877852352 ], [ 0.713216485580031, 42.842363732784236 ], [ 0.713827870869074, 42.842375944522082 ], [ 0.713819574541414, 42.84260089886692 ], [ 0.714430962426326, 42.842613107438559 ], [ 0.714464138123468, 42.841713289612457 ], [ 0.714769827718693, 42.841719392482908 ], [ 0.714778120282208, 42.841494437952903 ], [ 0.714472431794213, 42.841488335130222 ], [ 0.714497312233006, 42.840813471667445 ], [ 0.71419162710246, 42.840807368126377 ], [ 0.71419992149754, 42.84058241369619 ], [ 0.713894237630611, 42.840576309388695 ], [ 0.713885942065552, 42.840801263814896 ], [ 0.712663202932398, 42.840776838416346 ], [ 0.712654902904402, 42.841001792642494 ], [ 0.712349217237036, 42.840995684206305 ], [ 0.712340916006469, 42.841220638374502 ], [ 0.711423856317958, 42.841202307986393 ], [ 0.711432160868451, 42.840977354006597 ], [ 0.711126475584363, 42.840971242263841 ], [ 0.711143086615091, 42.840521334324372 ], [ 0.711448769686492, 42.84052744592649 ], [ 0.711457073952381, 42.840302491871171 ], [ 0.712068438167106, 42.840314712533697 ], [ 0.712076740123298, 42.840089758372613 ], [ 0.712688102505303, 42.840101975678081 ], [ 0.712696402151822, 42.83987702141124 ], [ 0.713002082378752, 42.839883128793147 ], [ 0.713018679169799, 42.839433220178393 ], [ 0.712407323241433, 42.839421004745361 ], [ 0.712415623708954, 42.839196050495829 ], [ 0.712721300519189, 42.839202158549725 ], [ 0.712729599782591, 42.838977204287197 ], [ 0.711506897605092, 42.838952767326965 ], [ 0.711531808173943, 42.838277904918158 ], [ 0.710920464268537, 42.838265681854807 ], [ 0.71094538055967, 42.837590819640113 ], [ 0.711251049143625, 42.837596931436003 ], [ 0.711259353276154, 42.837371977296279 ], [ 0.710342351192689, 42.837353639607443 ], [ 0.710334043739198, 42.837578593603702 ], [ 0.710028375441579, 42.83757247936196 ], [ 0.710011758034212, 42.838022387228271 ], [ 0.70940041729737, 42.838010156107529 ], [ 0.709417039132736, 42.837560248432567 ], [ 0.709722707239418, 42.837566364304905 ], [ 0.709747636016501, 42.836891502573835 ], [ 0.707913648797263, 42.836854795928303 ], [ 0.707938596576985, 42.836179935010975 ], [ 0.709161241038703, 42.836204408764267 ], [ 0.709177863621169, 42.835754501023466 ], [ 0.707955227953491, 42.835730027651863 ], [ 0.707946912313012, 42.835954981336506 ], [ 0.707029933307568, 42.835936617560428 ], [ 0.707038252268702, 42.835711664019449 ], [ 0.706426935581552, 42.835699417550863 ], [ 0.706410293136149, 42.836149324431005 ], [ 0.70579897246502, 42.836137074511036 ], [ 0.705807295949309, 42.835912121171894 ], [ 0.704890318888899, 42.835893740319605 ], [ 0.704865338187009, 42.836568599875108 ], [ 0.704254013985369, 42.836556341564702 ], [ 0.704262343195496, 42.836331388485632 ], [ 0.703956682405429, 42.836325258179244 ], [ 0.703981672782252, 42.835650399024793 ], [ 0.703676015347411, 42.835644268045819 ], [ 0.703667684210646, 42.835869221059518 ], [ 0.702750709221059, 42.835850823088577 ], [ 0.702759043678423, 42.83562587021882 ], [ 0.701842072810154, 42.835607465053606 ], [ 0.701817059188894, 42.836282323200372 ], [ 0.701511399105433, 42.836276186325854 ], [ 0.701503059933176, 42.836501138973041 ], [ 0.700891737836597, 42.836488862772214 ], [ 0.700908420573989, 42.836038957660911 ], [ 0.70029710328832, 42.836026678391221 ], [ 0.700288759784351, 42.836251630856509 ], [ 0.699983100178441, 42.836245489950784 ], [ 0.699974755471713, 42.836470442357857 ], [ 0.699363434333743, 42.836458158004582 ], [ 0.699355087317328, 42.836683110305366 ], [ 0.699049425785297, 42.836676966857794 ], [ 0.699032729250905, 42.837126871332678 ], [ 0.698421402048625, 42.837114581754548 ], [ 0.698446453407263, 42.836439725361608 ], [ 0.697835133230228, 42.836427432810979 ], [ 0.697826780679313, 42.836652384871385 ], [ 0.69752111962702, 42.836646237347601 ], [ 0.697504412023475, 42.837096141341654 ], [ 0.697198748853331, 42.837089992906428 ], [ 0.697207103810015, 42.836865040962586 ], [ 0.696901441903922, 42.836858891761466 ], [ 0.696893085779186, 42.837083843655968 ], [ 0.695976097194021, 42.837065391014264 ], [ 0.695967737713628, 42.837290342755438 ], [ 0.695662073916682, 42.837284190195824 ], [ 0.69562026947965, 42.838408948461996 ], [ 0.695314600243976, 42.838402794846417 ], [ 0.695297875606454, 42.838852698003762 ], [ 0.69560354705614, 42.838858851715628 ], [ 0.695595185700276, 42.839083803327163 ], [ 0.694983840682929, 42.839071494991856 ], [ 0.694975477016919, 42.839296446496888 ], [ 0.694364130169892, 42.839284134804046 ], [ 0.694355764193686, 42.83950908620259 ], [ 0.694050089807322, 42.839502929085036 ], [ 0.694024987982399, 42.840177783030029 ], [ 0.693719310370958, 42.840171624952625 ], [ 0.693702573124974, 42.840621527465302 ], [ 0.69339689339549, 42.840615368476215 ], [ 0.693388523521142, 42.840840319669063 ], [ 0.692777162136485, 42.840827999148431 ], [ 0.692768789951704, 42.841052950234726 ], [ 0.692463108296535, 42.841046788703181 ], [ 0.69243798784353, 42.841721641756294 ], [ 0.69213230296312, 42.841715479264757 ], [ 0.692056926383749, 42.843740037393559 ], [ 0.691445536981586, 42.84372770909637 ], [ 0.691386889846247, 42.845302364207534 ], [ 0.691081187539967, 42.845296198453148 ], [ 0.691072807894044, 42.845521149094495 ], [ 0.69076710457499, 42.845514982521387 ], [ 0.690750342779487, 42.845964883676984 ], [ 0.691056048313328, 42.845971050346549 ], [ 0.691030908220058, 42.846645902148218 ], [ 0.691948035304978, 42.84666439769682 ], [ 0.691956412110041, 42.846439446961767 ], [ 0.69287353679842, 42.846457935072316 ], [ 0.692890283475225, 42.846008033282388 ], [ 0.693195989682845, 42.84601419424348 ], [ 0.693204361769514, 42.845789243285019 ], [ 0.69381577225852, 42.845801562664349 ], [ 0.69382414203419, 42.845576611599327 ], [ 0.695352664341433, 42.845607395534408 ], [ 0.695361028482303, 42.845382444263358 ], [ 0.696583843616375, 42.84540705653977 ], [ 0.696592203233276, 42.845182105021003 ], [ 0.696897906164878, 42.845188256003574 ], [ 0.696906264578347, 42.844963304426493 ], [ 0.697211966498608, 42.844969454545456 ], [ 0.69722032370867, 42.844744502910075 ], [ 0.697831725622569, 42.844756800605374 ], [ 0.697840080521897, 42.84453184886361 ], [ 0.698757180789005, 42.844550289191254 ], [ 0.698773883655637, 42.844100385388607 ], [ 0.698468185684732, 42.844094239539345 ], [ 0.698484890382134, 42.843644335792135 ], [ 0.698790586138417, 42.843650481545211 ] ], [ [ 0.702517305289192, 42.842149499213654 ], [ 0.702822994539393, 42.842155634074956 ], [ 0.702806322128582, 42.842605539263573 ], [ 0.702500630723366, 42.842599404352498 ], [ 0.702517305289192, 42.842149499213654 ] ], [ [ 0.709078122642445, 42.838453946817758 ], [ 0.709689467614763, 42.838466179805515 ], [ 0.709681157408752, 42.838691133654009 ], [ 0.710292504978758, 42.838703363431186 ], [ 0.710275888830818, 42.839153271291472 ], [ 0.709970212783938, 42.839147156714866 ], [ 0.709978522012724, 42.838922202837658 ], [ 0.709061497829006, 42.838903854315618 ], [ 0.709078122642445, 42.838453946817758 ] ], [ [ 0.710878935146832, 42.839390452007983 ], [ 0.711490290122895, 42.839402675549465 ], [ 0.711473682259041, 42.839852583731279 ], [ 0.711168002509069, 42.839846472272583 ], [ 0.711159697326887, 42.840071426300426 ], [ 0.710242655329888, 42.840053086843739 ], [ 0.710259272301024, 42.839603179111059 ], [ 0.710870629048404, 42.839615406008349 ], [ 0.710878935146832, 42.839390452007983 ] ] ] } },
{ "type": "Feature", "properties": { "GRID_CODE": 2, "CODI_FINAL": "2010170107", "MUNICIPI": "Colomers", "DATA_INCEN": "28/07/10" }, "geometry": { "type": "MultiPolygon", "coordinates": [ [ [ [ 2.966653155946697, 42.109808314044635 ], [ 2.966762171373991, 42.109790951834924 ], [ 2.966832273828085, 42.109738792361114 ], [ 2.966933582618434, 42.109564890195593 ], [ 2.967034873738566, 42.109425774032232 ], [ 2.967175103655465, 42.10926927544191 ], [ 2.967346488646149, 42.109089594764676 ], [ 2.967502251595191, 42.109008470010082 ], [ 2.967751441156202, 42.108938966704791 ], [ 2.967868243816017, 42.108915807832979 ], [ 2.967992852594096, 42.108852067117695 ], [ 2.968070736234288, 42.108805706755497 ], [ 2.968172006076256, 42.108701376075423 ], [ 2.96825772372561, 42.108556456783759 ], [ 2.968421376868409, 42.108255020441234 ], [ 2.968569414881693, 42.108040545142629 ], [ 2.96867072793939, 42.107843450381338 ], [ 2.968764198113627, 42.107762307637557 ], [ 2.968904395093225, 42.107657986205879 ], [ 2.969106876206456, 42.10755947882361 ], [ 2.969270393942591, 42.107530533467695 ], [ 2.969426120643703, 42.107513180904093 ], [ 2.969784272410704, 42.107513273742271 ], [ 2.969916640991285, 42.107495914540195 ], [ 2.970212527144375, 42.107449608441449 ], [ 2.970414979218223, 42.107409075822247 ], [ 2.970586297656803, 42.107345344441725 ], [ 2.970819923621469, 42.107235246323107 ], [ 2.971037964561354, 42.107154132651992 ], [ 2.97126377552648, 42.107107806132262 ], [ 2.971419525543021, 42.107032474187442 ], [ 2.971559719093142, 42.106922351743385 ], [ 2.971660980761236, 42.106818017497034 ], [ 2.971793412693664, 42.106649916206898 ], [ 2.971918055572625, 42.106487610247022 ], [ 2.97202711618973, 42.106348491457211 ], [ 2.972221837063056, 42.106168808956447 ], [ 2.972463283306588, 42.105960148297733 ], [ 2.972704726144813, 42.105757284922468 ], [ 2.972829340738652, 42.105652955446217 ], [ 2.972992914349756, 42.105473264010691 ], [ 2.973249948229145, 42.105212426349958 ], [ 2.97336681782421, 42.105003735367859 ], [ 2.973429185291425, 42.104800829723381 ], [ 2.973452615406644, 42.104621106241098 ], [ 2.973538379051086, 42.104319644796277 ], [ 2.9736863923905, 42.104099365390333 ], [ 2.973834358842323, 42.103995039604115 ], [ 2.973951152528473, 42.103966076716198 ], [ 2.974099072190771, 42.10397770490119 ], [ 2.974239188064517, 42.104035712792367 ], [ 2.974324805793377, 42.104093708646552 ], [ 2.974464908532776, 42.104186502347041 ], [ 2.974573889640063, 42.10422710980577 ], [ 2.974690647489656, 42.104290909856907 ], [ 2.974807425686374, 42.104302529985418 ], [ 2.974947549587156, 42.104343144191397 ], [ 2.975079883648263, 42.104395351191684 ], [ 2.975149953508224, 42.104395366026509 ], [ 2.975274546080963, 42.104331617754617 ], [ 2.975352436425086, 42.104238870812992 ], [ 2.975430352678022, 42.10407655114836 ], [ 2.975484929352815, 42.103867844973166 ], [ 2.975609633021801, 42.103502615553495 ], [ 2.975718714877619, 42.103270729878147 ], [ 2.975827772923849, 42.103102618608517 ], [ 2.976022500804135, 42.102847559155002 ], [ 2.976271705267211, 42.102644690099908 ], [ 2.976489743800682, 42.102505588420904 ], [ 2.976723344389536, 42.102389680830591 ], [ 2.976886876058599, 42.102273758625898 ], [ 2.97705040367609, 42.102169431747214 ], [ 2.97712829485419, 42.10205929069425 ], [ 2.977214000749683, 42.101862185160556 ], [ 2.977315289227853, 42.101630296442956 ], [ 2.977408751238553, 42.101514360011549 ], [ 2.977595656957676, 42.101334666745018 ], [ 2.977790348727937, 42.101149176465569 ], [ 2.977907180895396, 42.100986862781369 ], [ 2.978024042985957, 42.100731785224426 ], [ 2.978063006961944, 42.100615838107579 ], [ 2.978039704531972, 42.100459295970033 ], [ 2.978000854794878, 42.100233177762682 ], [ 2.978016461938064, 42.100123024517657 ], [ 2.978094376028531, 42.099931714527393 ], [ 2.978164510404972, 42.09972300980462 ], [ 2.978226899758576, 42.099392551879546 ], [ 2.978304825792339, 42.099160657437764 ], [ 2.978367135491754, 42.099067905553973 ], [ 2.978483952264078, 42.098934579579549 ], [ 2.978616323341184, 42.098847637983127 ], [ 2.978717556289289, 42.098754892880144 ], [ 2.978733158014803, 42.09865633458211 ], [ 2.97876433641641, 42.098534588024584 ], [ 2.978779960544911, 42.098366457427026 ], [ 2.97877228063699, 42.098041784316742 ], [ 2.978834653979355, 42.09774611208924 ], [ 2.978920360479359, 42.097514218552234 ], [ 2.979091673330895, 42.097357711001422 ], [ 2.979294109558138, 42.097247589928728 ], [ 2.979551048343714, 42.097102691729447 ], [ 2.97983914248195, 42.096899821059814 ], [ 2.980026045313309, 42.09666214645209 ], [ 2.980251878628926, 42.096395489638944 ], [ 2.980532216444723, 42.096076661475074 ], [ 2.980874826124176, 42.095763640813622 ], [ 2.981271915210341, 42.095479615672105 ], [ 2.981606717419107, 42.095224568814828 ], [ 2.981762443721099, 42.095085447651712 ], [ 2.981925965491829, 42.094905743140181 ], [ 2.982073911214211, 42.094749227112594 ], [ 2.982159573112154, 42.094621690370744 ], [ 2.982307539312281, 42.09438400616235 ], [ 2.982416581190587, 42.094152113742652 ], [ 2.982510052586444, 42.093926016289664 ], [ 2.982587948631369, 42.093723107953565 ], [ 2.982689194931429, 42.093526000309041 ], [ 2.982845008553846, 42.093027419067845 ], [ 2.983070846184589, 42.09264480202868 ], [ 2.983242172972067, 42.092343344792603 ], [ 2.983288953241649, 42.092041869891567 ], [ 2.983304572519899, 42.091838952276667 ], [ 2.98319562561008, 42.091722982478011 ], [ 2.983008823522636, 42.091670776535054 ], [ 2.982378321598086, 42.091670685008467 ], [ 2.982137023214447, 42.091653255745605 ], [ 2.981810105852651, 42.091618420028858 ], [ 2.981677779961707, 42.091612601974418 ], [ 2.981436463455225, 42.09165894629249 ], [ 2.981257415694444, 42.091716895467634 ], [ 2.981140644492364, 42.091757460946461 ], [ 2.981000512612483, 42.091827011421628 ], [ 2.980829251423848, 42.091873365632772 ], [ 2.980642425240927, 42.091908121515523 ], [ 2.980346622370696, 42.091942859112926 ], [ 2.980202606725651, 42.091980520667505 ], [ 2.980093607880867, 42.092055872582563 ], [ 2.979961231834141, 42.09221238876065 ], [ 2.979860009331798, 42.092310932837805 ], [ 2.979789926071016, 42.092397886594966 ], [ 2.979634231993828, 42.092438443899908 ], [ 2.979525257010982, 42.092432627370734 ], [ 2.979354016232331, 42.092403609199359 ], [ 2.979198333411372, 42.092409379754308 ], [ 2.978910304063293, 42.092467306083869 ], [ 2.97858336356204, 42.092496235772877 ], [ 2.97834208023844, 42.092426619069975 ], [ 2.97810855843329, 42.092426576066629 ], [ 2.977937291034775, 42.092478723724163 ], [ 2.977766012113534, 42.092565657733495 ], [ 2.977439052580675, 42.09264676366746 ], [ 2.977080975788754, 42.092669885406742 ], [ 2.976777394085174, 42.09267562385466 ], [ 2.976473789424373, 42.092745136494472 ], [ 2.976014524930913, 42.092750841803245 ], [ 2.975788809100962, 42.092687020666006 ], [ 2.975555325327663, 42.092582613502024 ], [ 2.97528291509468, 42.092495591013979 ], [ 2.97508053122597, 42.092489750602759 ], [ 2.974901484248598, 42.092524498779248 ], [ 2.974675707455201, 42.092623011644783 ], [ 2.974325366672616, 42.092767878723912 ], [ 2.973998354387899, 42.092967828227856 ], [ 2.973764754283623, 42.093156202155356 ], [ 2.973492273860484, 42.093243107180179 ], [ 2.973375439931203, 42.093417012124071 ], [ 2.973375386704072, 42.093547460617103 ], [ 2.973433732826418, 42.093634439432279 ], [ 2.97339467364838, 42.093973597009764 ], [ 2.973550259173994, 42.094220035090594 ], [ 2.973666900535248, 42.094524441458589 ], [ 2.973841885029909, 42.094930320739337 ], [ 2.973822313515703, 42.095205707719508 ], [ 2.97354981855586, 42.095307106809571 ], [ 2.973433051769308, 42.095307080467265 ], [ 2.97282976564563, 42.095292448226033 ], [ 2.972666243928441, 42.095408364793599 ], [ 2.972502697780847, 42.095582257917208 ], [ 2.972354736424081, 42.095715570922657 ], [ 2.972004330476002, 42.095958991563478 ], [ 2.971762938264665, 42.096127067689373 ], [ 2.97155268261163, 42.096295150845044 ], [ 2.971389141325109, 42.096445851298142 ], [ 2.971186706799624, 42.096526970025323 ], [ 2.971132202035239, 42.096555945058569 ], [ 2.971101035181082, 42.096619712350453 ], [ 2.97102697578085, 42.096857400337271 ], [ 2.971019132325039, 42.096990745665288 ], [ 2.971019041991275, 42.097193665706399 ], [ 2.9709644921036, 42.097321201724633 ], [ 2.970878827411922, 42.09739655103278 ], [ 2.97073868493391, 42.097437100087923 ], [ 2.970614132714622, 42.097431271173335 ], [ 2.970396174635358, 42.097402228002757 ], [ 2.970193815496837, 42.097309413387848 ], [ 2.970077104276464, 42.097181833747435 ], [ 2.969983755167064, 42.097036867077513 ], [ 2.969828081673703, 42.096996243212686 ], [ 2.969750232572663, 42.097002020887224 ], [ 2.969641239866873, 42.097019386026894 ], [ 2.969423234600529, 42.097094699435644 ], [ 2.9693297776635, 42.097181640635796 ], [ 2.969213002559624, 42.097193205569383 ], [ 2.968979454989837, 42.097210537272097 ], [ 2.968784816391272, 42.097256867277061 ], [ 2.968621301846682, 42.097332193698158 ], [ 2.968496699465693, 42.097430721402468 ], [ 2.968325377383779, 42.097552427362018 ], [ 2.968185230039841, 42.097598771059452 ], [ 2.968013952558595, 42.097627712803359 ], [ 2.967834889601634, 42.09765665260489 ], [ 2.967710296891231, 42.097731988400156 ], [ 2.967655746228246, 42.097847927712351 ], [ 2.967640124602311, 42.097952281869304 ], [ 2.967717891475324, 42.098114639417915 ], [ 2.967850195181221, 42.098190046303358 ], [ 2.968060349946489, 42.098259676111567 ], [ 2.968216023109241, 42.098306100127928 ], [ 2.968465116492197, 42.09834675138481 ], [ 2.968659719536662, 42.09838159014528 ], [ 2.9688543032983, 42.098457012096105 ], [ 2.969009960404934, 42.098538221197828 ], [ 2.969134473376847, 42.098631017374167 ], [ 2.96919670580445, 42.098729594880567 ], [ 2.969251141999662, 42.098851361310551 ], [ 2.969258850208754, 42.09901369940134 ], [ 2.969235432259653, 42.099147040473774 ], [ 2.969204232043128, 42.099274581778694 ], [ 2.969149682777179, 42.099390521815259 ], [ 2.969040611245885, 42.099564424199087 ], [ 2.968908195114208, 42.099715129647585 ], [ 2.968799127929675, 42.099877436721698 ], [ 2.968736783984936, 42.100010767307111 ], [ 2.968658858440695, 42.100167284778536 ], [ 2.96854977808292, 42.100352782190448 ], [ 2.968464092389854, 42.10045711800111 ], [ 2.968370617919954, 42.100567248954235 ], [ 2.968199335369794, 42.100590393648069 ], [ 2.967950221940461, 42.100572932459514 ], [ 2.967701113806899, 42.100543875661572 ], [ 2.967459791631066, 42.100514820440729 ], [ 2.967280744264917, 42.100497377285066 ], [ 2.967117284244125, 42.100445152026097 ], [ 2.966907126795245, 42.100369722800927 ], [ 2.966813703087817, 42.100375493672018 ], [ 2.966790335904288, 42.100398678088553 ], [ 2.966759154458329, 42.100479837029255 ], [ 2.966766889141881, 42.100578400292392 ], [ 2.966821328190722, 42.100688572316166 ], [ 2.966899122907663, 42.100798750961204 ], [ 2.966984699576157, 42.100914729055006 ], [ 2.967062521312433, 42.100972728160421 ], [ 2.967163695824653, 42.101036531521657 ], [ 2.967272661034197, 42.101088741450823 ], [ 2.967498406806041, 42.101135185975672 ], [ 2.96763852134738, 42.101170010915837 ], [ 2.967731923114505, 42.101210620588731 ], [ 2.967801960676223, 42.101268617045655 ], [ 2.967871972568712, 42.101378792836194 ], [ 2.967879714815403, 42.101465760492545 ], [ 2.967848493471188, 42.101628087925697 ], [ 2.967786163063046, 42.101726631853822 ], [ 2.96773934834242, 42.101935336176375 ], [ 2.967669171510207, 42.102155629950111 ], [ 2.967567862067491, 42.102358521332626 ], [ 2.967474348420119, 42.102538224651269 ], [ 2.967334119504984, 42.102723712177493 ], [ 2.967193869274429, 42.102949783374321 ], [ 2.967115942203829, 42.10309470420146 ], [ 2.967045789013702, 42.103262818144408 ], [ 2.966952246009212, 42.103494699960045 ], [ 2.966913230427814, 42.103668619944791 ], [ 2.966874187531519, 42.103894719714496 ], [ 2.96685074853002, 42.104057048602925 ], [ 2.966819520383806, 42.104225173391768 ], [ 2.966772759985435, 42.104317923378929 ], [ 2.966710425274648, 42.104416466674863 ], [ 2.96663249530513, 42.104561387135497 ], [ 2.966585710455615, 42.104700518631518 ], [ 2.966593444835058, 42.104799081833526 ], [ 2.966655652554028, 42.104949839956006 ], [ 2.966764609207287, 42.105031038702791 ], [ 2.966889143426187, 42.105100646644871 ], [ 2.967052611669251, 42.105158669899936 ], [ 2.967169378940497, 42.105193488818358 ], [ 2.96737955553848, 42.105263120201023 ], [ 2.967589736033564, 42.105326953038386 ], [ 2.96769871758484, 42.105361769263006 ], [ 2.967815479778149, 42.105408183437198 ], [ 2.96797892686126, 42.105512586594656 ], [ 2.968025597885267, 42.105599565214668 ], [ 2.968087841157673, 42.105686547695647 ], [ 2.968118932388093, 42.105790914890818 ], [ 2.968126649852688, 42.105930061844177 ], [ 2.968111004306838, 42.106080797902891 ], [ 2.968056427257775, 42.106237320744114 ], [ 2.967970683638572, 42.106440217029316 ], [ 2.967830459046374, 42.10660251442534 ], [ 2.967386455876247, 42.107025623819972 ], [ 2.967012558245562, 42.107373381252614 ], [ 2.966724349058452, 42.107628398683175 ], [ 2.966443924132078, 42.107883417204583 ], [ 2.966272539239609, 42.108063096977112 ], [ 2.966179026170592, 42.108219607600397 ], [ 2.966093313329173, 42.108347132497478 ], [ 2.966038729369589, 42.108503654719847 ], [ 2.965991925186333, 42.10867177422638 ], [ 2.965867357515199, 42.108654344706359 ], [ 2.965734982300452, 42.108677496983731 ], [ 2.965664898586652, 42.108694869696393 ], [ 2.965524767955556, 42.108660041936062 ], [ 2.965431338129914, 42.108654216617097 ], [ 2.965330113509884, 42.10866578216821 ], [ 2.96522889452471, 42.108665752082793 ], [ 2.965119908668617, 42.108630933531074 ], [ 2.965018693349987, 42.10862510555441 ], [ 2.965042026158195, 42.108671494140225 ], [ 2.965088724172113, 42.108706294192814 ], [ 2.965150997010197, 42.108735301520547 ], [ 2.965228847845606, 42.108752717536639 ], [ 2.965368978518567, 42.108787545612749 ], [ 2.965477971554598, 42.108810768425535 ], [ 2.965586957914618, 42.108845587041564 ], [ 2.965711516691398, 42.10888040971269 ], [ 2.965836066446712, 42.108932625500806 ], [ 2.965991739722707, 42.109025434057202 ], [ 2.966046218075315, 42.109071831481678 ], [ 2.966116265775295, 42.109124031094666 ], [ 2.966170741220496, 42.109176226209819 ], [ 2.966256325348005, 42.109298002431075 ], [ 2.96631078306116, 42.109384983575126 ], [ 2.966357454641448, 42.109471962814894 ], [ 2.966380771262239, 42.109553137173066 ], [ 2.966427446060431, 42.10963431827151 ], [ 2.966481919203788, 42.109692310984578 ], [ 2.966513043258939, 42.109732903697292 ], [ 2.966544178762047, 42.109750305851541 ], [ 2.966583089084879, 42.109790900814659 ], [ 2.966653155946697, 42.109808314044635 ] ] ], [ [ [ 2.9633248072037, 42.110440970669536 ], [ 2.963287071979925, 42.11039175072419 ], [ 2.963079348425386, 42.110433863379392 ], [ 2.963145382539156, 42.110525270929791 ], [ 2.963220882095895, 42.110574502805541 ], [ 2.963069815545551, 42.110595544252703 ], [ 2.96294704387604, 42.110665802517545 ], [ 2.96277703047952, 42.110799313292716 ], [ 2.962710895360442, 42.110883648885661 ], [ 2.962578637363399, 42.111031230894554 ], [ 2.962455867854477, 42.11109445870143 ], [ 2.962427565486218, 42.11105930101516 ], [ 2.962342686606672, 42.110904619778012 ], [ 2.962238836564068, 42.110904586236508 ], [ 2.96216329629507, 42.110925650867216 ], [ 2.962116083403333, 42.110939695055819 ], [ 2.962002758979575, 42.110995895884123 ], [ 2.961927285288215, 42.110904485047627 ], [ 2.961870656481579, 42.110876347523913 ], [ 2.961795128607008, 42.110876322853073 ], [ 2.961719626231688, 42.110834119969013 ], [ 2.961719484839873, 42.111073130489949 ], [ 2.961728871530156, 42.111164519843761 ], [ 2.96169104973341, 42.111262923642492 ], [ 2.96162488349486, 42.111396466687729 ], [ 2.961577636715429, 42.111466748349386 ], [ 2.961568141118668, 42.111558131881438 ], [ 2.961605901278746, 42.111565173863397 ], [ 2.961709764910143, 42.111544118876388 ], [ 2.96175696228397, 42.111558193884449 ], [ 2.961766382352051, 42.111593345578328 ], [ 2.961889086675747, 42.111642593769304 ], [ 2.96164354895003, 42.111762018645834 ], [ 2.961643507293229, 42.11183231578385 ], [ 2.961596251904734, 42.111916656938057 ], [ 2.961530093167039, 42.112036140423008 ], [ 2.961454496918182, 42.112148590771142 ], [ 2.961435568453655, 42.112225911665021 ], [ 2.961397732956091, 42.112345404402149 ], [ 2.96145435452369, 42.112387601281405 ], [ 2.961473211790766, 42.112429786044935 ], [ 2.961586493332273, 42.112450912449802 ], [ 2.961586347247817, 42.112696952872149 ], [ 2.961557982018992, 42.112767240693728 ], [ 2.961520158459205, 42.112865644002575 ], [ 2.961501213146169, 42.112971083918119 ], [ 2.961520062294478, 42.113027327752086 ], [ 2.961567268554897, 42.113027343347177 ], [ 2.961567255995786, 42.113048432398415 ], [ 2.96166168101543, 42.113027374389041 ], [ 2.96168999689781, 42.11304144320124 ], [ 2.961774955356711, 42.11306256009366 ], [ 2.961803258798932, 42.113097717928959 ], [ 2.961812641807171, 42.11319613721254 ], [ 2.961803150932374, 42.113280490767934 ], [ 2.961755911280305, 42.113336712947429 ], [ 2.961708654317035, 42.113421054125133 ], [ 2.961812567121092, 42.113322671965847 ], [ 2.961831487140017, 42.113259410961966 ], [ 2.961859819174885, 42.113245360712362 ], [ 2.961982559820399, 42.113238370797106 ], [ 2.962067531577219, 42.113238398421942 ], [ 2.962218563650405, 42.113287655517333 ], [ 2.962341275752791, 42.113329873693338 ], [ 2.962454579506717, 42.113315850656249 ], [ 2.962435668271261, 42.113365052680876 ], [ 2.962463951836897, 42.113435358933458 ], [ 2.962445007978415, 42.11354079854457 ], [ 2.962426104791271, 42.11357594103422 ], [ 2.962407193456332, 42.113625143051877 ], [ 2.962482711794678, 42.113646256370231 ], [ 2.962586550622467, 42.113674408755514 ], [ 2.962614886746218, 42.113653328757522 ], [ 2.962567732886889, 42.113561927021998 ], [ 2.962548882654164, 42.113505683319943 ], [ 2.962577284275631, 42.113372127706633 ], [ 2.96262454758559, 42.113273726637651 ], [ 2.962549016864166, 42.113273702461868 ], [ 2.962634017027359, 42.113224522002312 ], [ 2.962794522936117, 42.11321754328462 ], [ 2.962945619887817, 42.113154323704592 ], [ 2.963030687279148, 42.112985637348544 ], [ 2.9631158028251, 42.112732594669026 ], [ 2.963115826856135, 42.112690416113054 ], [ 2.963134757369811, 42.112606065428231 ], [ 2.963163140834669, 42.112500628626499 ], [ 2.963106514016383, 42.112465462155242 ], [ 2.963059356308232, 42.112381090572711 ], [ 2.963059424490696, 42.112261585361537 ], [ 2.963135005515067, 42.112170222966917 ], [ 2.963220055677089, 42.112029655061384 ], [ 2.963286199306456, 42.111931259656515 ], [ 2.963342881367162, 42.111868010238268 ], [ 2.963324090649871, 42.111706320509228 ], [ 2.963371323778566, 42.11165712723264 ], [ 2.963427990253352, 42.111621996391918 ], [ 2.963512955276511, 42.111629052961263 ], [ 2.963569633482582, 42.111572832588003 ], [ 2.963503573899944, 42.111523603862906 ], [ 2.963390305325576, 42.111481390245132 ], [ 2.963286490185078, 42.111418090073457 ], [ 2.963352608658085, 42.111361873140488 ], [ 2.963428160933165, 42.1113197182652 ], [ 2.963550960981769, 42.111200251360735 ], [ 2.963645461490094, 42.111038597369671 ], [ 2.963721060443278, 42.110912086061163 ], [ 2.9637116782219, 42.110806636921261 ], [ 2.963787256579948, 42.11071527411778 ], [ 2.963919480373097, 42.11062392877249 ], [ 2.964023408554994, 42.110483366032284 ], [ 2.964136788631824, 42.110321717443632 ], [ 2.964259620358735, 42.110138982120993 ], [ 2.96425967850435, 42.110033536356788 ], [ 2.96412748368803, 42.110075674006019 ], [ 2.964014158723928, 42.110138906803215 ], [ 2.963910274645868, 42.110202142412312 ], [ 2.963730863271168, 42.110265354079822 ], [ 2.963541998990345, 42.110349651978964 ], [ 2.9633248072037, 42.110440970669536 ] ] ] ] } },
{ "type": "Feature", "properties": { "GRID_CODE": 2, "CODI_FINAL": "2010250091", "MUNICIPI": "Albesa", "DATA_INCEN": "05/04/10" }, "geometry": { "type": "Polygon", "coordinates": [ [ [ 0.617620670056377, 41.771768405710127 ], [ 0.61760401546865, 41.77221836778466 ], [ 0.617303477732454, 41.77221213355196 ], [ 0.61729514924967, 41.772437114479963 ], [ 0.616994610620046, 41.772430879414145 ], [ 0.616986280992392, 41.772655860328008 ], [ 0.616685741349122, 41.772649624426549 ], [ 0.616669079712501, 41.773099586125745 ], [ 0.616368538067311, 41.773093349340918 ], [ 0.616351873954427, 41.773543310901367 ], [ 0.616051330307274, 41.773537073233165 ], [ 0.616034663719711, 41.77398703460986 ], [ 0.615734118070555, 41.773980796058233 ], [ 0.61572578358516, 41.774205776704804 ], [ 0.616026330282773, 41.774212015305409 ], [ 0.616009663064123, 41.774661976664625 ], [ 0.616310211953559, 41.774668214577723 ], [ 0.616301879280452, 41.774893195291661 ], [ 0.615700779559587, 41.774880718583269 ], [ 0.61566743947176, 41.775780640898837 ], [ 0.615366885589647, 41.775774401171056 ], [ 0.615350212848301, 41.776224362191527 ], [ 0.615049656963999, 41.776218121580243 ], [ 0.615016306209677, 41.777118043259001 ], [ 0.614415186277075, 41.777105559286575 ], [ 0.614423526190658, 41.776880578968658 ], [ 0.614122967385333, 41.776874335852547 ], [ 0.614097944213854, 41.777549276628619 ], [ 0.614398506165014, 41.777555519891827 ], [ 0.614390165966544, 41.777780500179148 ], [ 0.613789040061909, 41.77776801276918 ], [ 0.613780697672842, 41.777992992903243 ], [ 0.61438182567311, 41.778005480456258 ], [ 0.614356804164557, 41.778680421180141 ], [ 0.615559073892079, 41.77870538735754 ], [ 0.615567410275654, 41.778480406915001 ], [ 0.615867976836062, 41.77848664644516 ], [ 0.615876312074367, 41.778261665988424 ], [ 0.616176877741118, 41.778267904685279 ], [ 0.616185211837512, 41.77804292412435 ], [ 0.616485776550487, 41.77804916198663 ], [ 0.616494109503327, 41.777824181366526 ], [ 0.616794673262511, 41.777830418394281 ], [ 0.61680300507182, 41.77760543771501 ], [ 0.617103567877234, 41.77761167390824 ], [ 0.617120229112315, 41.777161712466139 ], [ 0.616819668405834, 41.777155476325852 ], [ 0.616861325079083, 41.776030572719492 ], [ 0.617161880544264, 41.776036808569948 ], [ 0.617178540451447, 41.775586846985078 ], [ 0.617479093914375, 41.775593081952103 ], [ 0.617495751346778, 41.775143120183543 ], [ 0.617796302807494, 41.775149354267157 ], [ 0.617804630332939, 41.774924373318619 ], [ 0.618105180839961, 41.774930606567821 ], [ 0.618113507222089, 41.774705625560138 ], [ 0.618414056775404, 41.774711857974935 ], [ 0.618422382014238, 41.774486876908114 ], [ 0.619023479246498, 41.774499339327114 ], [ 0.61901515610631, 41.774724320446801 ], [ 0.619315705943979, 41.774730550505133 ], [ 0.619324028035674, 41.774505569336547 ], [ 0.619624576919594, 41.774511798560489 ], [ 0.619649539485746, 41.773836854711803 ], [ 0.619950085318997, 41.773843083003548 ], [ 0.619966724459174, 41.773393120288958 ], [ 0.619666180722807, 41.773386892095012 ], [ 0.619682821639364, 41.772936929483706 ], [ 0.619983363218794, 41.772943157578588 ], [ 0.620024958524452, 41.771818250512993 ], [ 0.620626031543802, 41.771830703858775 ], [ 0.620659297707191, 41.770930777676888 ], [ 0.619457168760429, 41.770905868624851 ], [ 0.619448848122897, 41.771130850000347 ], [ 0.6185472492793, 41.771112159773423 ], [ 0.618530601550331, 41.771562122202788 ], [ 0.618230066674767, 41.771555890473095 ], [ 0.618221741619787, 41.771780871623548 ], [ 0.617620670056377, 41.771768405710127 ] ] ] } },
{ "type": "Feature", "properties": { "GRID_CODE": 2, "CODI_FINAL": "2010250092", "MUNICIPI": "Albesa", "DATA_INCEN": "23/05/10" }, "geometry": { "type": "MultiPolygon", "coordinates": [ [ [ [ 0.617620670056377, 41.771768405710127 ], [ 0.618221741619787, 41.771780871623548 ], [ 0.618230066674767, 41.771555890473095 ], [ 0.618530601550331, 41.771562122202788 ], [ 0.6185472492793, 41.771112159773423 ], [ 0.619448848122897, 41.771130850000347 ], [ 0.619457168760429, 41.770905868624851 ], [ 0.620659297707191, 41.770930777676888 ], [ 0.620626031543802, 41.771830703858775 ], [ 0.622128715837584, 41.771861823525541 ], [ 0.622137027324233, 41.771636841740687 ], [ 0.622738099572152, 41.771649283993121 ], [ 0.622754717948003, 41.771199320194931 ], [ 0.623055252147271, 41.77120554004599 ], [ 0.62306356014497, 41.770980558082762 ], [ 0.623364093388853, 41.770986777144586 ], [ 0.623380707003873, 41.770536813089905 ], [ 0.622479113900934, 41.770518153977555 ], [ 0.622504043048567, 41.769843208258642 ], [ 0.62220351532823, 41.769836987129935 ], [ 0.622228446829163, 41.769162041467077 ], [ 0.621927922348139, 41.769155819699577 ], [ 0.621936233687381, 41.768930837840017 ], [ 0.622236757120198, 41.768937059558674 ], [ 0.622245067314955, 41.768712077685052 ], [ 0.622545589794194, 41.768718298569539 ], [ 0.62256220780683, 41.768268334604031 ], [ 0.622862728284305, 41.76827455460549 ], [ 0.622879343822235, 41.767824590501554 ], [ 0.623179862297986, 41.767830809620044 ], [ 0.623238006362908, 41.766255934638359 ], [ 0.622336473289632, 41.766237275953884 ], [ 0.622328164133919, 41.766462257984621 ], [ 0.622027652230595, 41.766456036803348 ], [ 0.622011031540848, 41.766906000691534 ], [ 0.621410003825729, 41.766893555777791 ], [ 0.621393378563446, 41.76734351947475 ], [ 0.620792347034492, 41.767331071224433 ], [ 0.620784032165147, 41.767556052959883 ], [ 0.620483515494543, 41.767549827607937 ], [ 0.620458567175733, 41.768224772561432 ], [ 0.620158047455393, 41.76821854627751 ], [ 0.620141412671984, 41.768668509461072 ], [ 0.619840890950005, 41.768662282294066 ], [ 0.619824253691415, 41.769112245339052 ], [ 0.619523729967767, 41.769106017288934 ], [ 0.619515410148195, 41.769330998747229 ], [ 0.619214885471076, 41.769324769862862 ], [ 0.619198243452963, 41.769774732606052 ], [ 0.618897716774125, 41.769768502838524 ], [ 0.618872749889138, 41.770443446797557 ], [ 0.618572220160297, 41.770437216097918 ], [ 0.618563896627513, 41.770662197348294 ], [ 0.618263365945166, 41.770655965814335 ], [ 0.618255041269326, 41.770880947005573 ], [ 0.617954509695251, 41.770874714593567 ], [ 0.617946183816231, 41.771099695724416 ], [ 0.617645651286991, 41.771093462523091 ], [ 0.617637324324965, 41.771318443596059 ], [ 0.617336790782115, 41.771312209559163 ], [ 0.617320134476988, 41.771762171576569 ], [ 0.617620670056377, 41.771768405710127 ] ] ], [ [ [ 0.616176317686563, 41.770162361361301 ], [ 0.615875789861001, 41.77015612359741 ], [ 0.615800790535899, 41.772180950563587 ], [ 0.616401865154662, 41.772193426097651 ], [ 0.616426859472453, 41.771518483603089 ], [ 0.616727393779117, 41.771524720045093 ], [ 0.616735723980903, 41.771299739129226 ], [ 0.617036257334087, 41.771305974736876 ], [ 0.617052915356529, 41.770856012776576 ], [ 0.617353446707958, 41.770862247500936 ], [ 0.617361774526984, 41.770637266501524 ], [ 0.616760714017195, 41.770624796320355 ], [ 0.61676904389805, 41.770399815409917 ], [ 0.61616798586415, 41.770387342185231 ], [ 0.616176317686563, 41.770162361361301 ] ] ], [ [ [ 0.619648516013549, 41.765731294238442 ], [ 0.6193480081063, 41.765725066136618 ], [ 0.619323049481594, 41.766400010793014 ], [ 0.619022538524949, 41.76639378175922 ], [ 0.619014217745873, 41.766618763242043 ], [ 0.6187137058359, 41.766612533374065 ], [ 0.618680417521435, 41.767512458961477 ], [ 0.619281449819177, 41.767524918348506 ], [ 0.619306409864741, 41.766849973845048 ], [ 0.620207949591381, 41.766868656528366 ], [ 0.620224582859703, 41.766418693181663 ], [ 0.619623560472857, 41.766406239040315 ], [ 0.619648516013549, 41.765731294238442 ] ] ], [ [ [ 0.621200933872782, 41.764412531664753 ], [ 0.62090043184018, 41.764406307783595 ], [ 0.620875490579843, 41.765081253355632 ], [ 0.621175995816473, 41.765087477384682 ], [ 0.62116768294174, 41.765312459270937 ], [ 0.621768695794922, 41.765324905071083 ], [ 0.621793627845562, 41.764649959133543 ], [ 0.621192621281987, 41.76463751358159 ], [ 0.621200933872782, 41.764412531664753 ] ] ], [ [ [ 0.617996137366297, 41.76974980882509 ], [ 0.617695611066543, 41.769743575916173 ], [ 0.617687284673349, 41.769968557050319 ], [ 0.61738675742016, 41.769962323307134 ], [ 0.617378429883917, 41.770187304382134 ], [ 0.617979486581592, 41.770199771181083 ], [ 0.617996137366297, 41.76974980882509 ] ] ] ] } },
{ "type": "Feature", "properties": { "GRID_CODE": 2, "CODI_FINAL": "2010080166", "MUNICIPI": "CastellBell i el Vilar", "DATA_INCEN": "28/07/10" }, "geometry": { "type": "Polygon", "coordinates": [ [ [ 1.878885979490321, 41.645375153635129 ], [ 1.878889100287631, 41.645195043387069 ], [ 1.878288802037385, 41.645189189721293 ], [ 1.878292705053332, 41.644964051926188 ], [ 1.877692409129731, 41.644958195172777 ], [ 1.877696314190126, 41.644733057414591 ], [ 1.877396167309422, 41.644730127885296 ], [ 1.877400073369008, 41.644504990186 ], [ 1.877099927577988, 41.64450205985117 ], [ 1.877107741653364, 41.644051784426225 ], [ 1.877708029103812, 41.64405764413015 ], [ 1.877719743617434, 41.643382230763386 ], [ 1.87741960300312, 41.643379301372285 ], [ 1.877427414545838, 41.642929025764758 ], [ 1.877727553071465, 41.642931955109773 ], [ 1.87773536234691, 41.642481679464616 ], [ 1.877135089577446, 41.642475820083789 ], [ 1.877127276064672, 41.64292609563622 ], [ 1.876526999295809, 41.642920233029237 ], [ 1.876515272516628, 41.643595646174376 ], [ 1.876215131035868, 41.643592713626163 ], [ 1.876199490529487, 41.644493264281017 ], [ 1.875899344915662, 41.644490330857018 ], [ 1.875891522306158, 41.644940606105941 ], [ 1.875591374648771, 41.644937671807206 ], [ 1.875583549772262, 41.645387946973401 ], [ 1.875283400069726, 41.645385011889978 ], [ 1.875275572926896, 41.645835286928367 ], [ 1.874975421179961, 41.645832351015216 ], [ 1.874967591769146, 41.646282626015854 ], [ 1.874667437977787, 41.646279689272944 ], [ 1.874663522161801, 41.64650482669142 ], [ 1.874063212623773, 41.646498950808599 ], [ 1.874055376678371, 41.646949225615757 ], [ 1.873455063201448, 41.646943346461654 ], [ 1.873439382419654, 41.64784389573623 ], [ 1.874039704253128, 41.647849775075244 ], [ 1.874031867773277, 41.648300049727574 ], [ 1.874332030876543, 41.648302988245632 ], [ 1.874324196306731, 41.648753262952596 ], [ 1.874624361543847, 41.648756200733189 ], [ 1.874620445237485, 41.648981338051023 ], [ 1.875520944289392, 41.648990146804564 ], [ 1.875517031072424, 41.649215284182496 ], [ 1.875817198576324, 41.649218218919621 ], [ 1.87581328635948, 41.649443356311473 ], [ 1.876113454953372, 41.649446290242999 ], [ 1.876109543735894, 41.649671427693804 ], [ 1.875809374097317, 41.649668493739227 ], [ 1.875801549440159, 41.650118768522262 ], [ 1.876702064696843, 41.650127568217698 ], [ 1.876709883086564, 41.64967729325128 ], [ 1.878510902325552, 41.649694871161373 ], [ 1.878503096473069, 41.650145146359208 ], [ 1.879403612990407, 41.650153924895299 ], [ 1.879399713132092, 41.650379062526994 ], [ 1.879699886437557, 41.650381987191288 ], [ 1.879695987579586, 41.650607124836831 ], [ 1.879996161914916, 41.650610048694816 ], [ 1.879992264056531, 41.650835186399235 ], [ 1.880292439541026, 41.650838109497052 ], [ 1.880296336353879, 41.650612971814674 ], [ 1.881196859939217, 41.650621736336859 ], [ 1.881216327670427, 41.649496047263092 ], [ 1.880916158321228, 41.649493126654228 ], [ 1.880923947192334, 41.649042851033641 ], [ 1.880623779976833, 41.649039929687028 ], [ 1.880631570760689, 41.648589654030765 ], [ 1.880031240701355, 41.648583809079035 ], [ 1.880046830093088, 41.647683257885589 ], [ 1.879146347782206, 41.647674484855621 ], [ 1.879150248153173, 41.647449347092099 ], [ 1.878850088576281, 41.64744642120511 ], [ 1.878873496136166, 41.646095594615055 ], [ 1.87917364950583, 41.646098520364603 ], [ 1.879177549565223, 41.645873382582096 ], [ 1.879477701874761, 41.645876307524475 ], [ 1.879485499832985, 41.645426031796553 ], [ 1.878885199316181, 41.645420181219038 ], [ 1.878885979490321, 41.645375153635129 ] ], [ [ 1.877361010766678, 41.646756367082261 ], [ 1.877353197652865, 41.64720664233316 ], [ 1.877053039387196, 41.647203711767403 ], [ 1.877060854530075, 41.646753436562037 ], [ 1.877361010766678, 41.646756367082261 ] ] ] } },
{ "type": "Feature", "properties": { "GRID_CODE": 2, "CODI_FINAL": "2010080165", "MUNICIPI": "Viladecans", "DATA_INCEN": "29/07/10" }, "geometry": { "type": "MultiPolygon", "coordinates": [ [ [ [ 2.011233778817097, 41.331558215281611 ], [ 2.011234459299601, 41.331513183358602 ], [ 2.010637024195697, 41.33150805246396 ], [ 2.010650642172533, 41.330607413597498 ], [ 2.010351928761498, 41.330604847068088 ], [ 2.010355334202317, 41.330379687337889 ], [ 2.010056621917862, 41.330377120054074 ], [ 2.010063434679344, 41.329926800651435 ], [ 2.009466014279361, 41.329921663838945 ], [ 2.009459197345536, 41.330371983160184 ], [ 2.009160485116763, 41.330369413595626 ], [ 2.009153665971736, 41.330819732840119 ], [ 2.008854951726026, 41.330817162414938 ], [ 2.008851541066902, 41.331042322025851 ], [ 2.008552825891475, 41.331039750805829 ], [ 2.008549414166097, 41.331264910342398 ], [ 2.008250697941472, 41.331262338326489 ], [ 2.008243872316669, 41.33171265742196 ], [ 2.007945154074371, 41.331710084590412 ], [ 2.007941740176276, 41.331935244059267 ], [ 2.00764302094453, 41.331932670432316 ], [ 2.007639606038469, 41.332157829917357 ], [ 2.007340885817262, 41.332155255495017 ], [ 2.007316972713543, 41.333731371445324 ], [ 2.008511882563508, 41.333741665050773 ], [ 2.008508470372429, 41.333966824523543 ], [ 2.008807198975116, 41.333969396007333 ], [ 2.008803787713884, 41.334194555490754 ], [ 2.009102517383667, 41.334197126219578 ], [ 2.009095696921895, 41.334647445155696 ], [ 2.008199501858586, 41.33463973052212 ], [ 2.008189261618818, 41.33531520874358 ], [ 2.007890526923372, 41.33531263558784 ], [ 2.007887112404157, 41.335537794956608 ], [ 2.008185848128023, 41.335540368132598 ], [ 2.008161952547807, 41.33711648355623 ], [ 2.008759438450634, 41.337121627865578 ], [ 2.008756026706695, 41.337346787222543 ], [ 2.009054770774637, 41.337349358234803 ], [ 2.009044538336863, 41.338024836266477 ], [ 2.010837022011584, 41.338040246422594 ], [ 2.010843831353317, 41.337589927471342 ], [ 2.013831286645977, 41.337615548636713 ], [ 2.013861833995417, 41.335589111179551 ], [ 2.013563097596668, 41.335586552733595 ], [ 2.013576677281839, 41.334685913668309 ], [ 2.013277944975549, 41.334683354527215 ], [ 2.013291528216326, 41.333782715443022 ], [ 2.012992800062067, 41.333780155607329 ], [ 2.013002990188109, 41.33310467622583 ], [ 2.012405540165294, 41.333099554349886 ], [ 2.012408938833503, 41.332874394578063 ], [ 2.012110214908285, 41.33287183249751 ], [ 2.012117014244534, 41.332421513012584 ], [ 2.011818292414491, 41.332418950197223 ], [ 2.01182169302344, 41.332193790438573 ], [ 2.011522972260284, 41.332191226868261 ], [ 2.011526373858851, 41.331966067120725 ], [ 2.01122765416258, 41.331963502795453 ], [ 2.011233778817097, 41.331558215281611 ] ] ], [ [ [ 2.008661298413234, 41.323879671803205 ], [ 2.008665390930739, 41.323609479974053 ], [ 2.008068028484467, 41.323604336545024 ], [ 2.008061203439862, 41.324054656171683 ], [ 2.007463836977583, 41.324049509561419 ], [ 2.007457007666585, 41.324499829070731 ], [ 2.006859637307808, 41.324494679280178 ], [ 2.006852803729547, 41.324944998717108 ], [ 2.006554116522754, 41.324942422618612 ], [ 2.006547280734184, 41.325392741933669 ], [ 2.005949902325512, 41.325387587330617 ], [ 2.005946482316851, 41.325612746956473 ], [ 2.005647792202607, 41.325610168472721 ], [ 2.00564437112719, 41.325835328069182 ], [ 2.005345679964155, 41.325832748789644 ], [ 2.005342257821958, 41.326057908356738 ], [ 2.003848797510062, 41.326045000233307 ], [ 2.003835087994909, 41.326945637914264 ], [ 2.004133784103238, 41.326948221170369 ], [ 2.004130357654776, 41.327173380610795 ], [ 2.004429054830013, 41.327175963112246 ], [ 2.00442562937063, 41.327401122563927 ], [ 2.004126931167399, 41.32739854004214 ], [ 2.004120078076585, 41.327848858832603 ], [ 2.004717478633998, 41.327854023182489 ], [ 2.004724327612764, 41.327403704310704 ], [ 2.005023025834048, 41.327406285281945 ], [ 2.00501960239246, 41.327631444720197 ], [ 2.005318301740363, 41.327634024937247 ], [ 2.005314879287228, 41.327859184431773 ], [ 2.005613579702031, 41.327861763894141 ], [ 2.005617001127145, 41.327636604379315 ], [ 2.00651309952058, 41.327644338055343 ], [ 2.006502844381636, 41.328319816710327 ], [ 2.006801547007866, 41.328322393113154 ], [ 2.006794712110121, 41.328772712241729 ], [ 2.007392121591282, 41.328777862803413 ], [ 2.007388706141036, 41.32900302234961 ], [ 2.008284823678162, 41.329010742439543 ], [ 2.008291648372093, 41.328560423171425 ], [ 2.007992944523849, 41.328557850623525 ], [ 2.007996357841083, 41.328332690973596 ], [ 2.008295060661269, 41.328335263501252 ], [ 2.008298472911008, 41.328110103867033 ], [ 2.0085971747419, 41.328112675599385 ], [ 2.008600585925532, 41.327887515890822 ], [ 2.008899286707385, 41.327890086827374 ], [ 2.008906106901707, 41.32743976738756 ], [ 2.008607408116148, 41.327437196491005 ], [ 2.008614230212229, 41.326986877010377 ], [ 2.007718140315766, 41.326979159792614 ], [ 2.007724968424037, 41.326528840442307 ], [ 2.008919746826292, 41.326539128354106 ], [ 2.008926566556566, 41.326088808760439 ], [ 2.008627873938855, 41.326086237985344 ], [ 2.008641517044993, 41.32518559886023 ], [ 2.008342828577663, 41.325183027391155 ], [ 2.00834965195476, 41.324732707769662 ], [ 2.008050965581944, 41.324730135566156 ], [ 2.008054378240235, 41.324504975762046 ], [ 2.00835306358519, 41.324507547945302 ], [ 2.008356475176191, 41.324282388156909 ], [ 2.008655159472313, 41.324284959544464 ], [ 2.008661298413234, 41.323879671803205 ] ] ] ] } },
{ "type": "Feature", "properties": { "GRID_CODE": 2, "CODI_FINAL": "2010080167", "MUNICIPI": "Olivella", "DATA_INCEN": "29/08/10" }, "geometry": { "type": "MultiPolygon", "coordinates": [ [ [ [ 1.78466321546051, 41.306177599408059 ], [ 1.784364636338867, 41.306174447925322 ], [ 1.784377175895523, 41.305499017204561 ], [ 1.784078599841366, 41.305495865021406 ], [ 1.784116225244521, 41.303469572722349 ], [ 1.783817658476392, 41.303466419988411 ], [ 1.783830202483336, 41.302790989085992 ], [ 1.782934511761501, 41.302781526463285 ], [ 1.782938696081443, 41.3025563828853 ], [ 1.783237258601392, 41.302559537842406 ], [ 1.78324144184659, 41.302334394275398 ], [ 1.783540003387621, 41.30233754843352 ], [ 1.783552549761632, 41.301662117467849 ], [ 1.782955432885312, 41.301655808526533 ], [ 1.782959617027441, 41.301430664903258 ], [ 1.782661059686886, 41.301427509296261 ], [ 1.7826652447473, 41.301202365733047 ], [ 1.782366688480613, 41.301199209376769 ], [ 1.782375060513223, 41.30074892218245 ], [ 1.782076506406413, 41.30074576510242 ], [ 1.782080693377736, 41.300520621516341 ], [ 1.781782140285054, 41.300517463686418 ], [ 1.781769576150362, 41.301192894297451 ], [ 1.781471020026278, 41.30118973561882 ], [ 1.781462641645485, 41.301640022627183 ], [ 1.781164083516283, 41.301636863124678 ], [ 1.781151512510076, 41.302312293448658 ], [ 1.780852951349329, 41.302309133097353 ], [ 1.780844568387286, 41.302759419914331 ], [ 1.78054600522215, 41.302756258694032 ], [ 1.780533427342873, 41.303431688775945 ], [ 1.780234861145206, 41.303428526751816 ], [ 1.780230667397961, 41.303653670024168 ], [ 1.779633533092588, 41.303647343603558 ], [ 1.77962933724396, 41.303872486861927 ], [ 1.779330769136255, 41.303869322465424 ], [ 1.779326572213513, 41.30409446568968 ], [ 1.779028003126984, 41.304091300494044 ], [ 1.779023805130944, 41.304316443639159 ], [ 1.778725235125309, 41.304313277645051 ], [ 1.778729434147835, 41.304088134524882 ], [ 1.778430865156654, 41.304084967780859 ], [ 1.778435065158819, 41.303859824631409 ], [ 1.778136497241785, 41.303856657138141 ], [ 1.778111290356164, 41.305207515657365 ], [ 1.778708438496214, 41.30521385016835 ], [ 1.778704239234468, 41.30543899328763 ], [ 1.779002814432423, 41.305442159407036 ], [ 1.778994417819018, 41.305892445667887 ], [ 1.779292995117765, 41.305895611062915 ], [ 1.779276205366448, 41.306796183528434 ], [ 1.779873368319669, 41.306802512195098 ], [ 1.779869172831509, 41.307027655304722 ], [ 1.779570590304442, 41.307024491333628 ], [ 1.779562197130244, 41.307474777565574 ], [ 1.779263612597537, 41.30747161277035 ], [ 1.779259414912303, 41.307696755847608 ], [ 1.778960829401446, 41.307693590208132 ], [ 1.778948232979725, 41.308369019310035 ], [ 1.779246821571476, 41.308372184979277 ], [ 1.77923842571317, 41.308822471005477 ], [ 1.779537016406022, 41.308825635950249 ], [ 1.779532819461546, 41.309050778997324 ], [ 1.778935636129763, 41.309044448284247 ], [ 1.778923038791014, 41.309719877175134 ], [ 1.778624444146232, 41.309716710582592 ], [ 1.778607642939505, 41.310617282223973 ], [ 1.778906241751176, 41.310620448916879 ], [ 1.778885244378362, 41.311746163398645 ], [ 1.778586640433285, 41.311742996536026 ], [ 1.778578239096267, 41.312193282232542 ], [ 1.778876845095959, 41.312196449100021 ], [ 1.778860045898362, 41.313097020436913 ], [ 1.779158656053431, 41.313100186629697 ], [ 1.779154457176489, 41.313325329477294 ], [ 1.78005029094883, 41.313334823483117 ], [ 1.78004189921458, 41.313785109255264 ], [ 1.780937739636418, 41.313794596486126 ], [ 1.780954510591656, 41.312894024561231 ], [ 1.780357291811274, 41.312887700744334 ], [ 1.780365681111385, 41.312437414803846 ], [ 1.780067073906201, 41.31243425178419 ], [ 1.780071269511723, 41.312209108825073 ], [ 1.779772663321362, 41.312205945055283 ], [ 1.779776859906141, 41.311980802111897 ], [ 1.779478254790336, 41.311977637592598 ], [ 1.779486649869864, 41.311527351773144 ], [ 1.780681062344215, 41.311540005003941 ], [ 1.780676868935353, 41.311765148040429 ], [ 1.7809754732148, 41.31176830943717 ], [ 1.78097128078521, 41.311993452489368 ], [ 1.781269886139157, 41.3119966131366 ], [ 1.781257311646338, 41.312672042267685 ], [ 1.781854528598724, 41.312678361387562 ], [ 1.781821010954776, 41.314479505761106 ], [ 1.782119627748005, 41.314482664358685 ], [ 1.782107060868162, 41.315158093409934 ], [ 1.782405680790077, 41.315161251307629 ], [ 1.782397304725746, 41.315611537376057 ], [ 1.782695926749355, 41.315614694548962 ], [ 1.782691739673789, 41.315839837549248 ], [ 1.783587609050517, 41.315849304539874 ], [ 1.783591793045652, 41.31562416142004 ], [ 1.783890415259363, 41.315627315494901 ], [ 1.783894598179911, 41.315402172341059 ], [ 1.784193219414038, 41.315405325616588 ], [ 1.784197401259187, 41.315180182473753 ], [ 1.784794641756005, 41.315186486651008 ], [ 1.784798821500405, 41.314961343404306 ], [ 1.785396060192674, 41.314967644434567 ], [ 1.785404415430074, 41.314517357859408 ], [ 1.785105798114293, 41.31451420778113 ], [ 1.785109976689282, 41.314289064482068 ], [ 1.784811360507696, 41.314285913654757 ], [ 1.78481554006225, 41.314060770371334 ], [ 1.784218309776042, 41.314054466441647 ], [ 1.784222491337137, 41.313829323198668 ], [ 1.784521105428678, 41.313832475570955 ], [ 1.784525285915306, 41.313607332293969 ], [ 1.785122512188466, 41.313613634575447 ], [ 1.78513922544381, 41.312713061222198 ], [ 1.785736443631354, 41.312719360206792 ], [ 1.785744795925981, 41.312269073399008 ], [ 1.785446188832482, 41.312265924343201 ], [ 1.785450365906133, 41.312040780927504 ], [ 1.785748971972724, 41.312043929958506 ], [ 1.785753147972051, 41.31181878650883 ], [ 1.786051752999438, 41.311821934739996 ], [ 1.786060102860976, 41.31137164780916 ], [ 1.785761499827623, 41.311368499626958 ], [ 1.785778202970632, 41.310467925707975 ], [ 1.785181005320663, 41.310461627219382 ], [ 1.78518518304172, 41.310236483755027 ], [ 1.784886585284829, 41.310233333373645 ], [ 1.78490329980102, 41.309332759568619 ], [ 1.784604706198719, 41.309329608512172 ], [ 1.784617244727427, 41.308654178148316 ], [ 1.78431865425281, 41.308651026391935 ], [ 1.784327015048856, 41.308200739455984 ], [ 1.784625603470059, 41.308203891162705 ], [ 1.784629782769352, 41.307978747701178 ], [ 1.784928370211301, 41.307981898608759 ], [ 1.784949260866058, 41.306856180859114 ], [ 1.784650678557404, 41.306853030075587 ], [ 1.78466321546051, 41.306177599408059 ] ] ], [ [ [ 1.781794703991816, 41.299842032992721 ], [ 1.781197604166522, 41.299835715160469 ], [ 1.781189224245026, 41.30028600218364 ], [ 1.781786328235134, 41.300292320116021 ], [ 1.781794703991816, 41.299842032992721 ] ] ] ] } },
{ "type": "Feature", "properties": { "GRID_CODE": 2, "CODI_FINAL": "2010430093", "MUNICIPI": "Tarragona", "DATA_INCEN": "30/07/10" }, "geometry": { "type": "Polygon", "coordinates": [ [ [ 1.335207651829492, 41.150916545307091 ], [ 1.335230425846825, 41.150016124511907 ], [ 1.334932615093215, 41.150011820694694 ], [ 1.334944003749463, 41.149561610330565 ], [ 1.335241812467602, 41.149565914079993 ], [ 1.335247505681735, 41.149340808827304 ], [ 1.335545313446717, 41.149345111773265 ], [ 1.335551005578593, 41.149120006477204 ], [ 1.335848812390406, 41.149124308619704 ], [ 1.335865885285051, 41.148448992617155 ], [ 1.336759296948413, 41.148461894122484 ], [ 1.33677067249008, 41.148011683173998 ], [ 1.337068474471544, 41.148015982069005 ], [ 1.337074161126867, 41.147790876591692 ], [ 1.3376697631895, 41.14779947195953 ], [ 1.337675447745084, 41.147574366405024 ], [ 1.337973247884665, 41.147578662923777 ], [ 1.337990298115295, 41.146903345966841 ], [ 1.33828809526647, 41.146907641614561 ], [ 1.338299459728413, 41.146457430239913 ], [ 1.338895050094147, 41.14646601909066 ], [ 1.338883689702548, 41.146916230600645 ], [ 1.338585892482084, 41.146911936492756 ], [ 1.338574529796525, 41.147362147942225 ], [ 1.338872329111765, 41.147366442118631 ], [ 1.338866648689987, 41.147591547862973 ], [ 1.339760050016527, 41.147604425830757 ], [ 1.339765727384292, 41.147379320029962 ], [ 1.34006352695708, 41.147383611128369 ], [ 1.340069203243996, 41.147158505239275 ], [ 1.340367001863515, 41.147162795534356 ], [ 1.340378352209076, 41.146712583660161 ], [ 1.340676148798188, 41.146716873117306 ], [ 1.34068182285687, 41.14649176713219 ], [ 1.340384027284217, 41.146487477753858 ], [ 1.340395377184155, 41.146037265821974 ], [ 1.340693170780115, 41.146041555178599 ], [ 1.340698844645804, 41.145816449165068 ], [ 1.340996637288534, 41.145820737718459 ], [ 1.341002310072356, 41.145595631661678 ], [ 1.341300101761876, 41.145599919411815 ], [ 1.341305773462719, 41.145374813356803 ], [ 1.341007982790726, 41.145370525640459 ], [ 1.341013655445916, 41.145145419564741 ], [ 1.340715865855764, 41.145141131112723 ], [ 1.340727213007057, 41.144690919045495 ], [ 1.340131638089719, 41.144682339968355 ], [ 1.340148664440731, 41.144007021931699 ], [ 1.340744233253265, 41.144015600806057 ], [ 1.340749906538886, 41.143790494752338 ], [ 1.341047689964643, 41.143794783000757 ], [ 1.341059034310335, 41.143344570707285 ], [ 1.340463471533305, 41.143335993575349 ], [ 1.340469145644509, 41.143110887481967 ], [ 1.340171365340109, 41.143106597795267 ], [ 1.340182715403174, 41.142656385692753 ], [ 1.340480493613231, 41.142660675310978 ], [ 1.340497515173755, 41.141985356962259 ], [ 1.340795290455607, 41.141989645710616 ], [ 1.340800963163498, 41.141764539526633 ], [ 1.341098737492323, 41.14176882747185 ], [ 1.341115752178158, 41.141093508761735 ], [ 1.340817980900154, 41.141089220962911 ], [ 1.340823653350794, 41.140864114741042 ], [ 1.340525883155531, 41.140859826161666 ], [ 1.340548576382928, 41.139959401359718 ], [ 1.34084634244957, 41.139963689803089 ], [ 1.34085768664345, 41.1395134772552 ], [ 1.341155450799479, 41.139517764862575 ], [ 1.341161121782745, 41.139292658540647 ], [ 1.341458884985864, 41.13929694534496 ], [ 1.341464554886497, 41.139071839024787 ], [ 1.341166792700582, 41.139067552254282 ], [ 1.341172463555273, 41.138842445913404 ], [ 1.341470224723984, 41.138846732650144 ], [ 1.34147589449719, 41.138621626266023 ], [ 1.341773654713009, 41.13862591219975 ], [ 1.341784992032254, 41.138175699335569 ], [ 1.341487233850764, 41.138171413469408 ], [ 1.34149290343, 41.137946307101906 ], [ 1.340897389294169, 41.137937733129355 ], [ 1.340903060844532, 41.13771262677492 ], [ 1.340307549000167, 41.137704049792966 ], [ 1.340301875415538, 41.137929156079821 ], [ 1.339110848489789, 41.137911992750645 ], [ 1.339093815145249, 41.138587311103663 ], [ 1.338498295935853, 41.138578724620224 ], [ 1.338492615990871, 41.138803830666312 ], [ 1.338194855465596, 41.13879953623686 ], [ 1.338183493407608, 41.139249748233794 ], [ 1.337885730912351, 41.139245452967401 ], [ 1.337891413020527, 41.139020347007943 ], [ 1.337295890257673, 41.139011754235014 ], [ 1.337301574335785, 41.138786648333777 ], [ 1.337003814068209, 41.138782350827249 ], [ 1.336998128972906, 41.139007456694628 ], [ 1.336700367752601, 41.13900315838498 ], [ 1.336694681575663, 41.139228264209017 ], [ 1.336396919402622, 41.139223965096221 ], [ 1.336391232144015, 41.139449070876907 ], [ 1.336093469077806, 41.139444770961809 ], [ 1.336082092333853, 41.139894982381996 ], [ 1.336379857494056, 41.13989928236569 ], [ 1.336362794944462, 41.140574599594068 ], [ 1.336065026732527, 41.14057029950871 ], [ 1.336042271695639, 41.141470722166709 ], [ 1.334851183275904, 41.141453513590733 ], [ 1.334845490285896, 41.141678619107218 ], [ 1.334547717310087, 41.141674315005766 ], [ 1.334542023239349, 41.141899420433838 ], [ 1.334244249309635, 41.141895115574144 ], [ 1.334232858938666, 41.142345326379058 ], [ 1.333339531495933, 41.142332406846101 ], [ 1.333333833160954, 41.142557512155072 ], [ 1.333036056438692, 41.142553204071149 ], [ 1.333030357021743, 41.142778309336691 ], [ 1.332732579346732, 41.142774000449457 ], [ 1.332721178285354, 41.143224210839179 ], [ 1.33242339864022, 41.143219901114676 ], [ 1.332417696994604, 41.143445006283883 ], [ 1.331226575050551, 41.143427759557014 ], [ 1.331215163486796, 41.14387796955107 ], [ 1.330917381112761, 41.143873655877705 ], [ 1.330911674186068, 41.144098760848614 ], [ 1.330613890859317, 41.144094446371867 ], [ 1.33060818285048, 41.144319551299276 ], [ 1.330310398631696, 41.144315235974993 ], [ 1.330276143115861, 41.145665865091509 ], [ 1.329680562600916, 41.14565723181574 ], [ 1.329646292545284, 41.147007860137911 ], [ 1.329944088905454, 41.147012177365035 ], [ 1.329938378020066, 41.147237282101258 ], [ 1.330236175462572, 41.147241598592892 ], [ 1.330224755532758, 41.147691808104895 ], [ 1.330522555075205, 41.147696123895081 ], [ 1.330511136922832, 41.148146333392141 ], [ 1.330808938505716, 41.148150648479934 ], [ 1.33080323034951, 41.148375753270763 ], [ 1.33050542774898, 41.148371438148963 ], [ 1.330499718510396, 41.148596542896321 ], [ 1.330201914897374, 41.148592226970145 ], [ 1.330190494191802, 41.149042436323356 ], [ 1.329892688667738, 41.149038119560508 ], [ 1.329881265667791, 41.149488328807799 ], [ 1.329583458113525, 41.149484011206518 ], [ 1.32957774549813, 41.149709115804434 ], [ 1.329279937050485, 41.149704797400446 ], [ 1.329262795763604, 41.150380110990241 ], [ 1.329858418889647, 41.150388747233677 ], [ 1.329852707032923, 41.150613851827714 ], [ 1.330150519740636, 41.150618168829524 ], [ 1.330156230579599, 41.150393064201481 ], [ 1.331347477926077, 41.150410324421095 ], [ 1.331341771158167, 41.150635429185122 ], [ 1.331043958191519, 41.150631115261618 ], [ 1.331038250342271, 41.150856219937161 ], [ 1.330740436422563, 41.150851905210089 ], [ 1.330729018551611, 41.151302114555655 ], [ 1.330431202662192, 41.151297798945976 ], [ 1.330419782437122, 41.151748008184775 ], [ 1.330121964575675, 41.151743691782507 ], [ 1.330099119337923, 41.152644109966154 ], [ 1.32980129746984, 41.152639792658228 ], [ 1.329749882661533, 41.154665732675909 ], [ 1.330047713690918, 41.154670050289965 ], [ 1.330042001621544, 41.154895154737922 ], [ 1.329446337591602, 41.154886518672086 ], [ 1.329440623422622, 41.155111622997474 ], [ 1.329142790546405, 41.15510730377688 ], [ 1.32913707529349, 41.155332408103774 ], [ 1.328839241404504, 41.155328088078569 ], [ 1.328799225755082, 41.156903817774115 ], [ 1.329097066770395, 41.156908138037579 ], [ 1.329091351000176, 41.157133242243624 ], [ 1.329389193037677, 41.157137561815539 ], [ 1.329383478220752, 41.157362666046147 ], [ 1.329979164646627, 41.157371302905453 ], [ 1.330002015324696, 41.156470885518054 ], [ 1.330597693866092, 41.156479518981236 ], [ 1.330591983314707, 41.156704623421362 ], [ 1.330294142993549, 41.156700307040623 ], [ 1.330288431360471, 41.156925411392251 ], [ 1.331479797045182, 41.156942672476873 ], [ 1.331496919535513, 41.156267358895569 ], [ 1.331794758019891, 41.156271672128497 ], [ 1.331806170653394, 41.155821462973961 ], [ 1.331508334206256, 41.155817149763962 ], [ 1.331519748557447, 41.155366940638601 ], [ 1.331817583029235, 41.155371253736483 ], [ 1.331823289120117, 41.155146149103537 ], [ 1.332121122637454, 41.155150461442759 ], [ 1.332126827586071, 41.154925356765482 ], [ 1.332722492781091, 41.15493397897685 ], [ 1.332716789810055, 41.155159083676175 ], [ 1.333908125047976, 41.155176318998343 ], [ 1.333919522782562, 41.154726109273653 ], [ 1.334515186657709, 41.154734722179953 ], [ 1.334520883392686, 41.154509617213016 ], [ 1.334818714438963, 41.154513922478145 ], [ 1.334841496660005, 41.153613502425003 ], [ 1.335139323699046, 41.153617806784787 ], [ 1.335184876838833, 41.151816965951546 ], [ 1.335482695799343, 41.151821269270435 ], [ 1.335499774070541, 41.151145953710646 ], [ 1.335201958223053, 41.151141650494324 ], [ 1.335207651829492, 41.150916545307091 ] ], [ [ 1.33215535165553, 41.153799833286307 ], [ 1.332149646970777, 41.154024938010096 ], [ 1.332745304022037, 41.15403355994976 ], [ 1.332733898531457, 41.154483769459745 ], [ 1.332436067937568, 41.15447945880684 ], [ 1.332441771732582, 41.15425435411305 ], [ 1.332143942221341, 41.154250042724421 ], [ 1.332149646970777, 41.154024938010096 ], [ 1.33185181854216, 41.154020625885771 ], [ 1.331857524244852, 41.153795521195931 ], [ 1.33215535165553, 41.153799833286307 ] ] ] } },
{ "type": "Feature", "properties": { "GRID_CODE": 2, "CODI_FINAL": "2010430092", "MUNICIPI": "Benifallet", "DATA_INCEN": "24/05/10" }, "geometry": { "type": "Polygon", "coordinates": [ [ [ 0.503927972719526, 40.980531471562301 ], [ 0.503334192385279, 40.980518609244115 ], [ 0.503342679600468, 40.98029361637635 ], [ 0.503045790554715, 40.980287184121671 ], [ 0.5030542786825, 40.980062191249324 ], [ 0.503351166721299, 40.980068623453313 ], [ 0.503359653746074, 40.979843630520008 ], [ 0.503062766714218, 40.979837198366738 ], [ 0.503181589122724, 40.976687297159309 ], [ 0.502884716342296, 40.976680864953273 ], [ 0.502893203938218, 40.97645587201248 ], [ 0.502596332201256, 40.976449439092214 ], [ 0.502604820709576, 40.976224446146837 ], [ 0.502307950075429, 40.976218012513669 ], [ 0.502316439494426, 40.97599301960873 ], [ 0.501128962005126, 40.975967277643804 ], [ 0.501111975017061, 40.976417263037654 ], [ 0.50051823279415, 40.976404387224889 ], [ 0.500509737142401, 40.976629379804947 ], [ 0.499915993348241, 40.976616500882422 ], [ 0.49990749552742, 40.97684149334944 ], [ 0.499610622797516, 40.9768350526926 ], [ 0.499602123875439, 40.977060045053605 ], [ 0.499008376631277, 40.977047161346199 ], [ 0.49899987565711, 40.977272153641678 ], [ 0.498703001142857, 40.977265710591084 ], [ 0.498685996893974, 40.977715695004704 ], [ 0.498389120462335, 40.977709251088882 ], [ 0.498355106780796, 40.978609219634833 ], [ 0.498058226418047, 40.978602774752197 ], [ 0.498049721751469, 40.97882776677848 ], [ 0.497752840478121, 40.978821321081355 ], [ 0.497710310661782, 40.979946280939785 ], [ 0.498007196969633, 40.9799527268909 ], [ 0.497998691723807, 40.980177718900585 ], [ 0.498295579075472, 40.980184164137455 ], [ 0.498287074740329, 40.980409156187676 ], [ 0.498583963254571, 40.980415600712931 ], [ 0.498575459831835, 40.980640592758647 ], [ 0.498278570310634, 40.980634148182638 ], [ 0.498270065782984, 40.980859140212324 ], [ 0.497973175351071, 40.980852694821749 ], [ 0.497964669721888, 40.981077686745387 ], [ 0.498261561159081, 40.981084132231722 ], [ 0.498244551624206, 40.98153411619478 ], [ 0.498541445113969, 40.981540560972647 ], [ 0.498532941210009, 40.981765552967062 ], [ 0.498829835860705, 40.981771997078262 ], [ 0.498838338759349, 40.981547004988066 ], [ 0.499135232500977, 40.981553448239694 ], [ 0.499126730609349, 40.98177844038068 ], [ 0.499423625454219, 40.981784882919314 ], [ 0.499398122167118, 40.982459859341652 ], [ 0.499101224301126, 40.982453416650706 ], [ 0.49908421965182, 40.982903400840264 ], [ 0.49967801950829, 40.98291628566146 ], [ 0.49966101850413, 40.983366269968037 ], [ 0.499067214619288, 40.983353384943754 ], [ 0.499050209201819, 40.983803369006189 ], [ 0.499347113110353, 40.983809812001802 ], [ 0.499338611263545, 40.984034804090896 ], [ 0.499932421324184, 40.984047687890829 ], [ 0.499923921397141, 40.98427268002618 ], [ 0.500814640318408, 40.984292000196511 ], [ 0.500806143316637, 40.984516992473878 ], [ 0.501399958367771, 40.984529868838386 ], [ 0.501450926916423, 40.983179914232792 ], [ 0.501747828512013, 40.98318635100928 ], [ 0.50176481528561, 40.982736365928062 ], [ 0.50146791564313, 40.982729929296738 ], [ 0.501484903985279, 40.98227994431965 ], [ 0.502375597099316, 40.982299251616574 ], [ 0.502392579074021, 40.98184926629542 ], [ 0.501501891942881, 40.981829959301479 ], [ 0.501510385778328, 40.981604966754531 ], [ 0.501807280385564, 40.981611403132227 ], [ 0.501824265752339, 40.981161417951064 ], [ 0.501527373159126, 40.981154981674798 ], [ 0.501544360214781, 40.980704996555318 ], [ 0.501247469731671, 40.980698559616762 ], [ 0.501255964093435, 40.980473567069211 ], [ 0.501849743141841, 40.980486440081137 ], [ 0.501832758292397, 40.980936425322589 ], [ 0.502129649974725, 40.980942860784353 ], [ 0.502121158441662, 40.981167853463546 ], [ 0.502418051227104, 40.98117428821228 ], [ 0.502409560604942, 40.981399280931917 ], [ 0.50270645449349, 40.981405714967586 ], [ 0.50268947491724, 40.981855700431204 ], [ 0.504173955811953, 40.981887859658549 ], [ 0.504182440643475, 40.981662866656578 ], [ 0.504776231623962, 40.981675724898906 ], [ 0.504784714284327, 40.981450731829064 ], [ 0.505081608941249, 40.981457159754541 ], [ 0.505098571961629, 40.981007173437774 ], [ 0.504207894380349, 40.980987887675241 ], [ 0.504216378768393, 40.980762894630978 ], [ 0.503919487420538, 40.980756464566184 ], [ 0.503927972719526, 40.980531471562301 ] ] ] } }
]
}
