{
"type": "FeatureCollection",
"name": "official_2004",
"crs": { "type": "name", "properties": { "name": "urn:ogc:def:crs:OGC:1.3:CRS84" } },
"features": [
{ "type": "Feature", "properties": { "GRID_CODE": 2, "CODI_FINAL": "2004250003", "MUNICIPI": "Naut Aran", "DATA_INCEN": "05/02/04" }, "geometry": { "type": "MultiPolygon", "coordinates": [ [ [ [ 0.841014681049684, 42.7068038906665 ], [ 0.841045871227108, 42.705903974188416 ], [ 0.840801832399293, 42.705899373346561 ], [ 0.840814309464431, 42.705539406785824 ], [ 0.840326234735531, 42.705530203657602 ], [ 0.840319994852607, 42.705710186929124 ], [ 0.840075956839622, 42.70570558455632 ], [ 0.840082197485966, 42.70552560135976 ], [ 0.839838160295263, 42.705520998497406 ], [ 0.839850642762936, 42.705161032141525 ], [ 0.840094678547297, 42.705165634901249 ], [ 0.840107159377855, 42.7048056684621 ], [ 0.839375056972586, 42.704791858717641 ], [ 0.8393875417991, 42.704431892380782 ], [ 0.838899476203638, 42.704422683409156 ], [ 0.838893232442474, 42.704602666501202 ], [ 0.838161132398774, 42.704588849038998 ], [ 0.83814864041984, 42.704948815029667 ], [ 0.837904605737054, 42.704944208141434 ], [ 0.837892112120836, 42.705304174048742 ], [ 0.838136148148938, 42.705308781038525 ], [ 0.838104916592353, 42.706208695883213 ], [ 0.838348956258666, 42.706213302498817 ], [ 0.83833646459434, 42.706573268430546 ], [ 0.837604341724998, 42.706559446900407 ], [ 0.837591845605698, 42.706919412678381 ], [ 0.837103761164671, 42.706910195581784 ], [ 0.837097511611728, 42.70709017838093 ], [ 0.836853468771708, 42.70708556906942 ], [ 0.836847218457363, 42.707265551833309 ], [ 0.83660317497228, 42.707260941928375 ], [ 0.836609425990652, 42.707080959193377 ], [ 0.836365383205981, 42.707076348796619 ], [ 0.836371634870966, 42.706896366084074 ], [ 0.836127592908722, 42.706891755197759 ], [ 0.836133845159293, 42.706711772506516 ], [ 0.834669598690492, 42.706684096539092 ], [ 0.83466334221592, 42.706864079057041 ], [ 0.834419300594666, 42.706859464532698 ], [ 0.834413043357075, 42.707039447060346 ], [ 0.833924958939944, 42.70703021639639 ], [ 0.833912441416894, 42.707390181270668 ], [ 0.83366839791701, 42.707385565102129 ], [ 0.833649619059601, 42.707925512255585 ], [ 0.833893664673136, 42.707930128465847 ], [ 0.833824812263939, 42.709909934490504 ], [ 0.834312919151495, 42.709919166033124 ], [ 0.834319177367897, 42.709739183654328 ], [ 0.835051336078123, 42.709753027008198 ], [ 0.835045079974047, 42.709933009473673 ], [ 0.834801026328374, 42.709928395543486 ], [ 0.834794769523753, 42.710108377974798 ], [ 0.835282878279211, 42.710117605418333 ], [ 0.835276622823817, 42.710297587946023 ], [ 0.834788512600662, 42.710288360398543 ], [ 0.834782255620117, 42.710468342815865 ], [ 0.834538199919533, 42.710463728279386 ], [ 0.834525684438822, 42.710823693038151 ], [ 0.833793513399154, 42.710809846046466 ], [ 0.833780993462134, 42.711169810651128 ], [ 0.834025051806886, 42.711174426862087 ], [ 0.834018792487602, 42.711354409161778 ], [ 0.833774733377675, 42.711349792920764 ], [ 0.83376847329675, 42.711529775185134 ], [ 0.833524413541707, 42.711525158350597 ], [ 0.833518152697562, 42.711705140624652 ], [ 0.834738455327478, 42.711728219650929 ], [ 0.8347321979483, 42.711908202018066 ], [ 0.835220320785231, 42.711917430084426 ], [ 0.835214064756966, 42.712097412502928 ], [ 0.83619031399945, 42.712115862471585 ], [ 0.836196567212524, 42.711935879892557 ], [ 0.836684690799677, 42.711945101724332 ], [ 0.836697194296282, 42.711585136477687 ], [ 0.836941254798113, 42.71158974655696 ], [ 0.836947505724849, 42.711409763917068 ], [ 0.8371915655189, 42.711414373446665 ], [ 0.837185315296337, 42.71159435611542 ], [ 0.837673436466499, 42.71160357362843 ], [ 0.837692182860606, 42.711063625387098 ], [ 0.838912476347211, 42.711086659713004 ], [ 0.838918721468507, 42.710906676823058 ], [ 0.839162779671595, 42.710911282065204 ], [ 0.839169024031392, 42.710731299140008 ], [ 0.839413080975964, 42.71073590386716 ], [ 0.839419324635296, 42.710555920907872 ], [ 0.839907438387945, 42.710565128721399 ], [ 0.839919922718066, 42.710205162668231 ], [ 0.840652089551312, 42.710218970340911 ], [ 0.840658329517996, 42.710038987218255 ], [ 0.840902384540602, 42.710043588677763 ], [ 0.840914862893849, 42.709683622355577 ], [ 0.840426755664545, 42.709674418941056 ], [ 0.84043299616346, 42.709494435827985 ], [ 0.840188943308362, 42.709489833369538 ], [ 0.840201425481458, 42.709129867180629 ], [ 0.840445476928357, 42.709134469581429 ], [ 0.840451717194351, 42.708954486447929 ], [ 0.840939818792417, 42.708963689586959 ], [ 0.840946057592941, 42.708783706389433 ], [ 0.841190107805106, 42.70878830712882 ], [ 0.841227535365466, 42.70770840759463 ], [ 0.840983489440247, 42.707703806984256 ], [ 0.841014681049684, 42.7068038906665 ] ], [ [ 0.836797214117307, 42.708705413807856 ], [ 0.837285312525927, 42.708714632475811 ], [ 0.83727906316419, 42.708894615240816 ], [ 0.836790963286404, 42.708885396513978 ], [ 0.836797214117307, 42.708705413807856 ] ], [ [ 0.836240338391996, 42.710676001935447 ], [ 0.8364843951972, 42.710680612908469 ], [ 0.836471890867914, 42.711040578116553 ], [ 0.836227832593396, 42.711035967084626 ], [ 0.836240338391996, 42.710676001935447 ] ], [ [ 0.838999903319904, 42.70856689854417 ], [ 0.839732049966476, 42.708580711664581 ], [ 0.839725807641847, 42.708760694723267 ], [ 0.839969857504936, 42.70876529810446 ], [ 0.839963615888074, 42.708945281186708 ], [ 0.839475514748474, 42.708936073890925 ], [ 0.839481757836065, 42.70875609082249 ], [ 0.83899365888304, 42.708746881516355 ], [ 0.838999903319904, 42.70856689854417 ] ], [ [ 0.835088871314755, 42.708673132032111 ], [ 0.835821017868399, 42.708686970189618 ], [ 0.835814764282216, 42.708866952781406 ], [ 0.835570714690358, 42.708862340538325 ], [ 0.835564460280094, 42.709042323138661 ], [ 0.835076359799501, 42.709033097034819 ], [ 0.835088871314755, 42.708673132032111 ] ], [ [ 0.838461837331819, 42.709997550393098 ], [ 0.83870589183694, 42.710002156574134 ], [ 0.83871213731829, 42.709822173674539 ], [ 0.83895619123922, 42.709826779263267 ], [ 0.838962435959109, 42.7096467963284 ], [ 0.839206489231706, 42.709651401413701 ], [ 0.839194001020799, 42.710011367332349 ], [ 0.83870589183694, 42.710002156574134 ], [ 0.838693400641189, 42.710362122352933 ], [ 0.838205288809199, 42.710352909399731 ], [ 0.838211535874527, 42.710172926571786 ], [ 0.83845559102798, 42.710177533256271 ], [ 0.838461837331819, 42.709997550393098 ] ], [ [ 0.838280249506898, 42.708193114900368 ], [ 0.838768344439031, 42.708202327206351 ], [ 0.838755854390204, 42.708562293113445 ], [ 0.838511805456832, 42.708557687162006 ], [ 0.838505559671275, 42.708737670122673 ], [ 0.838261510091182, 42.708733063622788 ], [ 0.838267756640265, 42.708553080737119 ], [ 0.838023707882607, 42.708548473747641 ], [ 0.838029955017385, 42.708368490883238 ], [ 0.838274003133544, 42.708373097800028 ], [ 0.838280249506898, 42.708193114900368 ] ], [ [ 0.83800496601051, 42.709088422345012 ], [ 0.838737118854808, 42.709102241970434 ], [ 0.838730873541844, 42.709282224894544 ], [ 0.83824277022025, 42.709273012288591 ], [ 0.838224029773639, 42.709812960850542 ], [ 0.837491868824299, 42.70979913776133 ], [ 0.83749811782987, 42.709619155000695 ], [ 0.836765959509294, 42.709605327321597 ], [ 0.836753457277119, 42.709965292664414 ], [ 0.836509403168444, 42.709960682370337 ], [ 0.836503151292645, 42.710140665003827 ], [ 0.836259096538821, 42.710136054116255 ], [ 0.836265349179757, 42.709956071512792 ], [ 0.836021295248472, 42.709951460135656 ], [ 0.836027548475088, 42.709771477553502 ], [ 0.836271601702262, 42.709776088901755 ], [ 0.836277854229923, 42.709596106240475 ], [ 0.836521906810403, 42.70960071704026 ], [ 0.836528158574988, 42.709420734388679 ], [ 0.836772210508773, 42.709425344639996 ], [ 0.836778461513421, 42.709245361908131 ], [ 0.837510615607854, 42.709259189459061 ], [ 0.837504366717043, 42.709439172232514 ], [ 0.837992471163659, 42.709448388014891 ], [ 0.83800496601051, 42.709088422345012 ] ] ], [ [ [ 0.833061342876809, 42.710795994378145 ], [ 0.832817286171885, 42.710791376101504 ], [ 0.832811023384249, 42.710971358313337 ], [ 0.832078851441104, 42.7109575002778 ], [ 0.832072586544532, 42.711137482397582 ], [ 0.831828528661389, 42.711132861984616 ], [ 0.83181599716688, 42.71149282609975 ], [ 0.832060056520921, 42.711497446526742 ], [ 0.832053791392314, 42.711677428581112 ], [ 0.831809731395125, 42.711672808126345 ], [ 0.831797199617986, 42.712032772159105 ], [ 0.832529384004074, 42.712046632228073 ], [ 0.832548175276427, 42.711506685909498 ], [ 0.833280353903606, 42.71152054104256 ], [ 0.833286615455443, 42.711340558792173 ], [ 0.833042556517984, 42.711335940992264 ], [ 0.833061342876809, 42.710795994378145 ] ] ], [ [ [ 0.831340413005115, 42.711123619643644 ], [ 0.829876067602277, 42.711095880108154 ], [ 0.82986979625137, 42.711275861914864 ], [ 0.830113854378206, 42.711280486513807 ], [ 0.830107583734885, 42.711460468344207 ], [ 0.830595701571183, 42.711469715996088 ], [ 0.830589432216019, 42.711649697921828 ], [ 0.830833491925465, 42.711654320974759 ], [ 0.830827223279488, 42.711834302879176 ], [ 0.831071283749109, 42.711838925486425 ], [ 0.831090087525453, 42.711298979624402 ], [ 0.831334145940125, 42.711303601625204 ], [ 0.831340413005115, 42.711123619643644 ] ] ], [ [ [ 0.829387952867079, 42.711086629453185 ], [ 0.828899838423282, 42.711077376720866 ], [ 0.828893564316806, 42.711257358412894 ], [ 0.829381680168895, 42.711266611203122 ], [ 0.829387952867079, 42.711086629453185 ] ] ] ] } },
{ "type": "Feature", "properties": { "GRID_CODE": 2, "CODI_FINAL": "2004250124", "MUNICIPI": "Vilaller", "DATA_INCEN": "15/11/04" }, "geometry": { "type": "Polygon", "coordinates": [ [ [ 0.713709151899517, 42.452143801307749 ], [ 0.713692783325073, 42.452593740695576 ], [ 0.713996573406377, 42.452599801179659 ], [ 0.71398839006407, 42.452824770905835 ], [ 0.714595972800297, 42.452836889558007 ], [ 0.714587791535286, 42.453061859368987 ], [ 0.716106755381883, 42.453092142157502 ], [ 0.716123106961506, 42.452642202096051 ], [ 0.715819316163765, 42.452636147241861 ], [ 0.715827492899454, 42.45241117722086 ], [ 0.715523703341584, 42.452405121610866 ], [ 0.715531881069117, 42.452180151627154 ], [ 0.715228092629604, 42.452174095258961 ], [ 0.715236271348958, 42.451949125312538 ], [ 0.715540058703008, 42.451955181633281 ], [ 0.715548236243258, 42.451730211629311 ], [ 0.715852022605487, 42.451736267098205 ], [ 0.715860198966669, 42.451511297036618 ], [ 0.714948843417204, 42.45149312835899 ], [ 0.71494066379971, 42.451718098278228 ], [ 0.714333091791591, 42.45170598171071 ], [ 0.714324909909548, 42.451930951524929 ], [ 0.713413549254232, 42.451912770451294 ], [ 0.713421734390967, 42.451687800824509 ], [ 0.712814163321556, 42.451675676167824 ], [ 0.712830537657174, 42.451225737028729 ], [ 0.713438104386536, 42.451237861450473 ], [ 0.713446289304492, 42.45101289174945 ], [ 0.714053854237928, 42.451025012858636 ], [ 0.71407021932797, 42.450575073278863 ], [ 0.714981561009631, 42.450593248626753 ], [ 0.714989740158821, 42.450368278656796 ], [ 0.714685960589962, 42.450362221059322 ], [ 0.714694140730845, 42.450137251126677 ], [ 0.714086584105624, 42.450125133614733 ], [ 0.714078401733265, 42.450350103451257 ], [ 0.713774622506221, 42.450344043441881 ], [ 0.713790989206431, 42.4498941038512 ], [ 0.714094766323531, 42.449900163766877 ], [ 0.714102948447746, 42.449675193908853 ], [ 0.714406724573217, 42.449681252972681 ], [ 0.714423086368312, 42.449231313176291 ], [ 0.714119312413471, 42.449225254207356 ], [ 0.71412749425663, 42.449000284318934 ], [ 0.713519948798612, 42.448988164062996 ], [ 0.713511764784876, 42.449213133856489 ], [ 0.712904217593517, 42.449201010244444 ], [ 0.712920589866793, 42.448751070882217 ], [ 0.712616818551083, 42.448745007986545 ], [ 0.712641379516185, 42.44807009894209 ], [ 0.712033843738282, 42.448057971023971 ], [ 0.712025654673184, 42.448282940620579 ], [ 0.711721885809275, 42.448276875406954 ], [ 0.711705505228896, 42.448726814429769 ], [ 0.711401734288251, 42.448720748316795 ], [ 0.71137715945598, 42.449395656699885 ], [ 0.711984707881999, 42.449407788405381 ], [ 0.711960138719095, 42.450082696937258 ], [ 0.712263916359132, 42.450088761726626 ], [ 0.71225572753541, 42.450313731279465 ], [ 0.711951948810023, 42.450307666442598 ], [ 0.711943758807169, 42.450532635937805 ], [ 0.711032419937678, 42.450514436458441 ], [ 0.711016033139994, 42.450964375088319 ], [ 0.710712251533699, 42.450958306891366 ], [ 0.710704056907911, 42.451183276166049 ], [ 0.711919188176788, 42.451207544316311 ], [ 0.711910997798798, 42.451432513770932 ], [ 0.711607213740276, 42.451426447892153 ], [ 0.711582638787259, 42.452101356052601 ], [ 0.711886426102096, 42.452107422073922 ], [ 0.711878235348949, 42.45233239148795 ], [ 0.712182023843038, 42.452338456752379 ], [ 0.712141074038755, 42.453463303861753 ], [ 0.712444868054111, 42.45346936855924 ], [ 0.712436678909261, 42.453694338007438 ], [ 0.71274047410394, 42.45370040194797 ], [ 0.712732285952504, 42.453925371388507 ], [ 0.71333987873184, 42.453937496994904 ], [ 0.71333169265777, 42.454162466520287 ], [ 0.713635490303171, 42.454168528187353 ], [ 0.713627305220937, 42.454393497750075 ], [ 0.714234902965722, 42.454405618720706 ], [ 0.714243085878443, 42.454180649018042 ], [ 0.714850681767754, 42.454192766629575 ], [ 0.714858862415618, 42.453967796821857 ], [ 0.715162659445611, 42.45397385437407 ], [ 0.715179018287565, 42.453523914678321 ], [ 0.713660044992419, 42.453493619303366 ], [ 0.713668229701385, 42.453268649655087 ], [ 0.713364436457288, 42.453262588224149 ], [ 0.713380807763446, 42.452812649037106 ], [ 0.713684598897273, 42.452818710374281 ], [ 0.713692783325073, 42.452593740695576 ], [ 0.713085203322126, 42.452581617311694 ], [ 0.713101576238461, 42.452131678113773 ], [ 0.713709151899517, 42.452143801307749 ] ], [ [ 0.712239349545897, 42.450763670353496 ], [ 0.712543130535792, 42.450769734480978 ], [ 0.712534942516146, 42.450994704050892 ], [ 0.712231160440864, 42.450988639875924 ], [ 0.712239349545897, 42.450763670353496 ] ] ] } },
{ "type": "Feature", "properties": { "GRID_CODE": 2, "CODI_FINAL": "2004170040", "MUNICIPI": "Biure", "DATA_INCEN": "25/07/04" }, "geometry": { "type": "Polygon", "coordinates": [ [ [ 2.913802962213434, 42.343999513030575 ], [ 2.913805159984573, 42.342378409466626 ], [ 2.913683759745202, 42.342378318819357 ], [ 2.913683882021635, 42.342288257502055 ], [ 2.913562481956082, 42.342288166726526 ], [ 2.913562359506392, 42.342378228043565 ], [ 2.913319559030461, 42.342378046106354 ], [ 2.913318699501858, 42.343008475326776 ], [ 2.913440100952362, 42.343008566361647 ], [ 2.913439365239817, 42.343548934217623 ], [ 2.91319656026019, 42.34354875201592 ], [ 2.913196437282824, 42.343638813312189 ], [ 2.912832229297745, 42.343638539089739 ], [ 2.912832352794926, 42.343548477794329 ], [ 2.912710950246954, 42.343548386115017 ], [ 2.912711073916823, 42.343458324818485 ], [ 2.912589671603391, 42.343458233010949 ], [ 2.912589795446032, 42.343368171668232 ], [ 2.912346991167333, 42.343367987713187 ], [ 2.912346866978232, 42.343458049010287 ], [ 2.912104062355354, 42.34345786449547 ], [ 2.912103937819138, 42.34354792579056 ], [ 2.911861132851951, 42.343547740806059 ], [ 2.911861257734753, 42.343457679466518 ], [ 2.911739855425318, 42.343457586759243 ], [ 2.911739980480761, 42.343367525463606 ], [ 2.911618578345167, 42.343367432628064 ], [ 2.911618703512586, 42.343277371331261 ], [ 2.911133095668964, 42.34327699875 ], [ 2.911133221589572, 42.343186937452984 ], [ 2.91101181980339, 42.343186843975367 ], [ 2.911012324112471, 42.342826598729218 ], [ 2.911133725205602, 42.342826692205648 ], [ 2.911133977040468, 42.342646569596013 ], [ 2.911255377787656, 42.342646662943331 ], [ 2.911255629273744, 42.342466540282381 ], [ 2.911134228873074, 42.342466446935653 ], [ 2.911134480703315, 42.342286324314657 ], [ 2.910891680536035, 42.342286137236698 ], [ 2.910891806796795, 42.342196075924669 ], [ 2.910163407530475, 42.342195511653074 ], [ 2.910163789367227, 42.341925327668683 ], [ 2.910042390011258, 42.34192523321196 ], [ 2.910042517482532, 42.341835171851294 ], [ 2.909678319938025, 42.34183488762082 ], [ 2.909678447928406, 42.341744826304648 ], [ 2.909435649914886, 42.341744636145606 ], [ 2.909435778251181, 42.341654574828617 ], [ 2.909314379357865, 42.341654479556546 ], [ 2.909314507866822, 42.341564418238441 ], [ 2.909435906526197, 42.341564513510157 ], [ 2.909436291529857, 42.341294329501345 ], [ 2.909314893390228, 42.341294234230546 ], [ 2.909315021896825, 42.341204172906743 ], [ 2.908708032013016, 42.341203694671243 ], [ 2.908707902700874, 42.341293755993597 ], [ 2.908465106368613, 42.341293563781065 ], [ 2.908464976709392, 42.341383625101372 ], [ 2.908343578340556, 42.341383528802005 ], [ 2.908343708233727, 42.341293467482025 ], [ 2.908222310099437, 42.341293371054476 ], [ 2.908222180033018, 42.341383432374137 ], [ 2.907736586808768, 42.341383045422461 ], [ 2.907736456048757, 42.341473106739478 ], [ 2.90688666671678, 42.34147242458981 ], [ 2.906886798689531, 42.341382363274931 ], [ 2.906765400389212, 42.341382265304738 ], [ 2.906765532473915, 42.341292203988708 ], [ 2.90664413434745, 42.341292105890318 ], [ 2.906644002028797, 42.341382167205985 ], [ 2.906522603729691, 42.341382068978739 ], [ 2.906522471297895, 42.341472130292736 ], [ 2.906401072765446, 42.341472031936597 ], [ 2.90640054215698, 42.341832277222032 ], [ 2.90652194132173, 42.341832375579351 ], [ 2.906521411396601, 42.342192620798265 ], [ 2.906642811254985, 42.342192719028297 ], [ 2.90664267893019, 42.342282780374802 ], [ 2.906764078962493, 42.342282878431561 ], [ 2.906763946810358, 42.342372939776972 ], [ 2.906885347016524, 42.342373037705507 ], [ 2.906885215037041, 42.342463099049802 ], [ 2.90700661541707, 42.342463196850119 ], [ 2.907006483670931, 42.342553258193341 ], [ 2.907127884224757, 42.342553355910482 ], [ 2.907127752590647, 42.342643417207498 ], [ 2.907249153318336, 42.342643514796421 ], [ 2.907248890394811, 42.342823637386822 ], [ 2.907370291469625, 42.342823734847805 ], [ 2.90737002889022, 42.34300385743316 ], [ 2.907491430372864, 42.343003954766253 ], [ 2.90749129925551, 42.343094016057108 ], [ 2.907612700851315, 42.343094113261948 ], [ 2.907612308015455, 42.343364297126897 ], [ 2.907126699556607, 42.34336390757769 ], [ 2.907126831195553, 42.343273846292014 ], [ 2.906762625377606, 42.343273552747625 ], [ 2.906762757475037, 42.343183491461424 ], [ 2.906398552182344, 42.343183196761146 ], [ 2.906398021527588, 42.343543441938635 ], [ 2.906276619071512, 42.34354334344691 ], [ 2.906276486217878, 42.343633404726141 ], [ 2.905912278333429, 42.343633108523811 ], [ 2.90591214495938, 42.343723169800711 ], [ 2.905790742159212, 42.343723070794191 ], [ 2.905790475062727, 42.34390319334311 ], [ 2.905669071916631, 42.343903094207434 ], [ 2.905668804471084, 42.344083216795056 ], [ 2.905790207963789, 42.344083315886323 ], [ 2.905790074413339, 42.344173377200825 ], [ 2.905911478079862, 42.344173476208901 ], [ 2.905910677865023, 42.344713843797869 ], [ 2.90603208257181, 42.344713942679277 ], [ 2.906031949424386, 42.34480400393948 ], [ 2.906153354305063, 42.344804102692649 ], [ 2.906153221269611, 42.344894163951707 ], [ 2.906396031379355, 42.344894361073017 ], [ 2.906395898689852, 42.344984422331272 ], [ 2.906517303918917, 42.344984520699441 ], [ 2.906517038884568, 42.345164643257327 ], [ 2.90663844446087, 42.345164741452543 ], [ 2.906638312176743, 42.345254802752223 ], [ 2.906759717926868, 42.345254900864226 ], [ 2.906759585754766, 42.345344962117721 ], [ 2.906880991678792, 42.345345060101472 ], [ 2.906881123677667, 42.345254998802645 ], [ 2.907245340933496, 42.345255291981729 ], [ 2.907245209454536, 42.345345353236453 ], [ 2.907366615380971, 42.345345450706041 ], [ 2.907366484074691, 42.34543551195965 ], [ 2.907609296336641, 42.34543570651384 ], [ 2.907609165376317, 42.345525767766638 ], [ 2.907851977926545, 42.345525961807226 ], [ 2.90785184731219, 42.345616023059215 ], [ 2.908094660211388, 42.345616216586215 ], [ 2.908094529943005, 42.345706277837394 ], [ 2.908337343191157, 42.345706470850807 ], [ 2.908337213329467, 42.345796532101247 ], [ 2.908701433726092, 42.345796820613131 ], [ 2.908701304322897, 42.345886881908058 ], [ 2.908944118270216, 42.345887073592159 ], [ 2.908943989213004, 42.345977134886247 ], [ 2.909065396360873, 42.345977230513263 ], [ 2.909065267476347, 42.346067291806236 ], [ 2.909429489503959, 42.346067578007023 ], [ 2.909429617807835, 42.34597751675814 ], [ 2.910158060778433, 42.345978085732135 ], [ 2.910157933453574, 42.346068146982759 ], [ 2.91027934078055, 42.346068241369643 ], [ 2.910279086475619, 42.34624836391226 ], [ 2.910400494210467, 42.346248458171225 ], [ 2.910400367230438, 42.346338519418182 ], [ 2.910521775078454, 42.346338613548859 ], [ 2.910521648271146, 42.346428674794694 ], [ 2.910643056293036, 42.346428768797118 ], [ 2.910642676387489, 42.346698952526978 ], [ 2.910399859304527, 42.34669876439181 ], [ 2.9103994784146, 42.346968948152224 ], [ 2.910642296537417, 42.346969136244127 ], [ 2.910642169899256, 42.347059197525347 ], [ 2.910884988370983, 42.34705938510362 ], [ 2.910885114662484, 42.346969323866844 ], [ 2.911006523725888, 42.346969417485383 ], [ 2.9110066498435, 42.346879356246887 ], [ 2.911128058734186, 42.346879449736576 ], [ 2.911128184677934, 42.346789388496369 ], [ 2.911492410833632, 42.34678966814819 ], [ 2.911493037883548, 42.346339361921387 ], [ 2.911614445736838, 42.346339454850074 ], [ 2.91161457098395, 42.346249393600168 ], [ 2.911978794027203, 42.34624967174917 ], [ 2.911978918753868, 42.346159610496962 ], [ 2.912343141343174, 42.346159887443164 ], [ 2.912343265488676, 42.346069826188625 ], [ 2.912586080224679, 42.346070010206127 ], [ 2.912586204023044, 42.345979948949591 ], [ 2.912707611188257, 42.345980040765227 ], [ 2.912707858558169, 42.345799918202353 ], [ 2.912829265377373, 42.345800009888855 ], [ 2.912829635908024, 42.345529826100602 ], [ 2.912951042207937, 42.345529917657679 ], [ 2.912951288879032, 42.345349795079464 ], [ 2.913072694832943, 42.345349886507435 ], [ 2.91307294109444, 42.345169763967959 ], [ 2.913194346702351, 42.345169855266782 ], [ 2.913194469689317, 42.345079793994657 ], [ 2.913315875124523, 42.345079885164665 ], [ 2.91331648918456, 42.344629578736217 ], [ 2.913437893753934, 42.344629669776268 ], [ 2.913438138966787, 42.344449547167294 ], [ 2.913559543190161, 42.344449638078224 ], [ 2.913559910576353, 42.344179454220892 ], [ 2.913681314280467, 42.344179545002426 ], [ 2.913681558855304, 42.343999422378161 ], [ 2.913802962213434, 42.343999513030575 ] ] ] } },
{ "type": "Feature", "properties": { "GRID_CODE": 2, "CODI_FINAL": "2004250129", "MUNICIPI": "Coll de Nargó", "DATA_INCEN": "29/12/04" }, "geometry": { "type": "MultiPolygon", "coordinates": [ [ [ [ 1.290532289951132, 42.206029442736806 ], [ 1.290544423773512, 42.205579325590904 ], [ 1.290847134133733, 42.205583835757437 ], [ 1.290859265530606, 42.205133718547536 ], [ 1.291161973813304, 42.20513822784492 ], [ 1.291174102787212, 42.20468811048098 ], [ 1.290871396651341, 42.204683601254331 ], [ 1.290907788407632, 42.203333249235946 ], [ 1.290605088781276, 42.203328739423107 ], [ 1.290617220939304, 42.202878622047507 ], [ 1.290919918419031, 42.202883131789598 ], [ 1.290932048153115, 42.202433014304972 ], [ 1.290326657556158, 42.202423994163937 ], [ 1.290320590577213, 42.202649052840307 ], [ 1.290017894370016, 42.202644541537815 ], [ 1.290011826187895, 42.202869600168313 ], [ 1.28970912897677, 42.202865088032141 ], [ 1.289703059713723, 42.203090146573558 ], [ 1.289400361438129, 42.203085633602747 ], [ 1.289394291031173, 42.203310692144214 ], [ 1.289091591751654, 42.203306178339659 ], [ 1.289085520201978, 42.203531236836163 ], [ 1.288782819918536, 42.203526722197843 ], [ 1.28877067446549, 42.203976839046312 ], [ 1.288467972104789, 42.203972323538821 ], [ 1.288461898200168, 42.204197381935778 ], [ 1.288159194835525, 42.2041928655945 ], [ 1.288147044672439, 42.204642982243868 ], [ 1.287844339230482, 42.204638465033362 ], [ 1.287838262970764, 42.204863523330765 ], [ 1.287535556585413, 42.204859005287375 ], [ 1.287529479182827, 42.205084063539744 ], [ 1.287226771732995, 42.205079544661622 ], [ 1.287220693188732, 42.205304602823972 ], [ 1.286917984734978, 42.205300083112 ], [ 1.286905825288683, 42.205750199427165 ], [ 1.287511246498898, 42.205759238193572 ], [ 1.287505168818416, 42.205984296407642 ], [ 1.287807880631479, 42.205988814629144 ], [ 1.287813957238504, 42.205763756379611 ], [ 1.288116668047572, 42.205768273767255 ], [ 1.288110592514006, 42.205993332052202 ], [ 1.288413304405428, 42.205997848675949 ], [ 1.288407229875882, 42.206222906986753 ], [ 1.288709942970775, 42.206227422848386 ], [ 1.288691722187197, 42.206902597784612 ], [ 1.288389005871811, 42.206898081816732 ], [ 1.288382931064497, 42.207123140089251 ], [ 1.288080213745044, 42.207118623287492 ], [ 1.288074137794741, 42.207343681514999 ], [ 1.287468701278907, 42.207334645401161 ], [ 1.287462623112068, 42.207559703548242 ], [ 1.287159903853938, 42.207555184280245 ], [ 1.28716598309432, 42.207330126168607 ], [ 1.285652393274616, 42.207307518029971 ], [ 1.285646308666522, 42.207532575964279 ], [ 1.285343589825559, 42.207528051905548 ], [ 1.285349675507179, 42.207302994006703 ], [ 1.285046957869857, 42.207298469185865 ], [ 1.285040871114701, 42.207523527049233 ], [ 1.284738152414094, 42.207519001348565 ], [ 1.284732064515809, 42.207744059166856 ], [ 1.283823905607319, 42.207730477302611 ], [ 1.283829996726242, 42.207505419590838 ], [ 1.282921841725608, 42.207491830647911 ], [ 1.282915747386056, 42.20771688825311 ], [ 1.282613028098101, 42.207712356972728 ], [ 1.282606932616547, 42.207937414487802 ], [ 1.282304212324719, 42.207932882373413 ], [ 1.282292019002985, 42.208382997393763 ], [ 1.281989296694259, 42.208378464410721 ], [ 1.281983198794725, 42.208603521870081 ], [ 1.281377752179905, 42.208594453391513 ], [ 1.281365551998361, 42.209044568141067 ], [ 1.280760101306291, 42.20903549637039 ], [ 1.280741794070379, 42.209710668164412 ], [ 1.281044522602442, 42.209715204555714 ], [ 1.2810384211242, 42.20994026185182 ], [ 1.280735691518478, 42.209935725424934 ], [ 1.280729588896815, 42.210160782675878 ], [ 1.280124127747345, 42.210151707355365 ], [ 1.280111918001197, 42.210601821641148 ], [ 1.279809185444311, 42.210597282712804 ], [ 1.279803079331687, 42.210822339827324 ], [ 1.279500345770899, 42.210817800064881 ], [ 1.279488131311118, 42.211267914150774 ], [ 1.280396338765083, 42.211281531302966 ], [ 1.280390234652301, 42.211506588415816 ], [ 1.280692971702984, 42.211511125935324 ], [ 1.280699074743244, 42.211286068741863 ], [ 1.281001810730622, 42.211290605381329 ], [ 1.280995708764106, 42.211515662610367 ], [ 1.281298445955537, 42.21152019848774 ], [ 1.28129234499423, 42.211745255697771 ], [ 1.281595083329163, 42.211749790812142 ], [ 1.2816011832167, 42.211524733566556 ], [ 1.282509395358011, 42.211538334010683 ], [ 1.282515491955804, 42.211313276603853 ], [ 1.284331911736702, 42.211340455763612 ], [ 1.284325821582651, 42.211565513338606 ], [ 1.28462855954059, 42.211570040431745 ], [ 1.284634648620897, 42.211344982821259 ], [ 1.285542859630525, 42.211358559201898 ], [ 1.285536773770282, 42.211583616963871 ], [ 1.285839512006587, 42.211588140862752 ], [ 1.285845596793082, 42.211363083065301 ], [ 1.286148333964638, 42.211367606129201 ], [ 1.286154417668365, 42.211142548287611 ], [ 1.286759890133183, 42.211151591949736 ], [ 1.286753808637505, 42.211376649863155 ], [ 1.287662021107636, 42.211390209473926 ], [ 1.287668099380845, 42.211165151499166 ], [ 1.288273572601253, 42.211174187176582 ], [ 1.288279648658709, 42.210949129076404 ], [ 1.288582384299357, 42.210953645681819 ], [ 1.288588459213622, 42.210728587536629 ], [ 1.288891193849997, 42.210733103308108 ], [ 1.288897267619881, 42.210508045162932 ], [ 1.289502734892933, 42.210517074238496 ], [ 1.289508806447182, 42.210292015967951 ], [ 1.289811539144382, 42.210296529272959 ], [ 1.289805468663843, 42.21052158757891 ], [ 1.290410936353314, 42.210530611863206 ], [ 1.290404867950825, 42.210755670230377 ], [ 1.290707603003625, 42.21076018121051 ], [ 1.290695468139225, 42.211210297941882 ], [ 1.29160368009565, 42.211223826302287 ], [ 1.291615808517581, 42.21077370935874 ], [ 1.291313073317285, 42.210769200775147 ], [ 1.291319138498597, 42.210544142301885 ], [ 1.291924606881608, 42.210553158600689 ], [ 1.291930669844941, 42.210328100092141 ], [ 1.292233403096966, 42.21033260700883 ], [ 1.292221279247224, 42.210782724132045 ], [ 1.293734957222119, 42.210805247134665 ], [ 1.293747070335813, 42.210355129613149 ], [ 1.293141603208266, 42.210346122966698 ], [ 1.293159778800504, 42.209670946869586 ], [ 1.293765239485872, 42.209679953304132 ], [ 1.293759183171351, 42.209905012098389 ], [ 1.294061914691584, 42.209909514153154 ], [ 1.294055859382736, 42.210134572928141 ], [ 1.294358591985341, 42.210139074218802 ], [ 1.294340428860991, 42.210814250727246 ], [ 1.295551373029746, 42.210832248330604 ], [ 1.29555742317879, 42.210607189362854 ], [ 1.296162893560994, 42.210616183303074 ], [ 1.296168941492206, 42.210391124300244 ], [ 1.2964716757133, 42.210395620037254 ], [ 1.296477722502866, 42.210170560944604 ], [ 1.29617498935549, 42.210166065242845 ], [ 1.296181037149636, 42.209941006175889 ], [ 1.295878305145102, 42.209936509710865 ], [ 1.295884353943803, 42.20971145066958 ], [ 1.295581623082122, 42.20970695344127 ], [ 1.295587672944693, 42.209481894471637 ], [ 1.296495862455604, 42.209495383654236 ], [ 1.296514001786238, 42.208820206277785 ], [ 1.297422182256329, 42.208833687956485 ], [ 1.297410095880676, 42.209283806413467 ], [ 1.297712825009717, 42.209288298780123 ], [ 1.297688655722938, 42.210188535765269 ], [ 1.29859685634699, 42.21020200854079 ], [ 1.298602895551466, 42.209976949191933 ], [ 1.298905628177789, 42.209981438470088 ], [ 1.298911666239526, 42.209756379076467 ], [ 1.299214397800625, 42.209760867519996 ], [ 1.299220434778989, 42.209535808127498 ], [ 1.298917704232238, 42.209531319673296 ], [ 1.298923742154717, 42.209306260305539 ], [ 1.299226471628999, 42.20931074867957 ], [ 1.299232508409997, 42.209085689222043 ], [ 1.299837965357691, 42.20909466350323 ], [ 1.299831930724024, 42.209319723031136 ], [ 1.301042849802381, 42.209337662152841 ], [ 1.301048880140166, 42.209112602529252 ], [ 1.301654337975958, 42.209121567229076 ], [ 1.301666394152517, 42.208671447722615 ], [ 1.301363667347466, 42.208666965842255 ], [ 1.301375725394434, 42.208216846412839 ], [ 1.301073000805563, 42.208212363804286 ], [ 1.301079030860426, 42.207987304088789 ], [ 1.300776307414108, 42.207982820716879 ], [ 1.300788369343123, 42.207532701325711 ], [ 1.300485648112917, 42.207528217225665 ], [ 1.300491680046375, 42.207303157595909 ], [ 1.300188960019242, 42.207298672733479 ], [ 1.300201025828813, 42.206848553425601 ], [ 1.299898307957212, 42.206844067834155 ], [ 1.299904341832083, 42.206619008201045 ], [ 1.299601625102979, 42.206614521846305 ], [ 1.299595590154577, 42.206839581444228 ], [ 1.299292872420931, 42.206835094255872 ], [ 1.299286836329997, 42.207060153809003 ], [ 1.298378680384259, 42.207046687303439 ], [ 1.298372641003662, 42.207271746741419 ], [ 1.297464482457404, 42.207258272989051 ], [ 1.297470525058653, 42.207033213656729 ], [ 1.295956934191858, 42.20701074156409 ], [ 1.295950886222873, 42.207235800720156 ], [ 1.295345448248776, 42.207226806241906 ], [ 1.295351498364849, 42.207001747156362 ], [ 1.29474606275395, 42.206992749553933 ], [ 1.294740010490794, 42.207217808568899 ], [ 1.294437291715572, 42.207213308534691 ], [ 1.294431238309676, 42.207438367504807 ], [ 1.293825798881497, 42.207429364926305 ], [ 1.293831854433284, 42.20720430607183 ], [ 1.292923699000012, 42.207190796343603 ], [ 1.292929757703185, 42.20696573758552 ], [ 1.292627040418101, 42.206961232750878 ], [ 1.29262098064018, 42.20718629151866 ], [ 1.29231826234961, 42.207181785895251 ], [ 1.292312201428871, 42.207406844618149 ], [ 1.291706762908508, 42.207397830905265 ], [ 1.291712825976339, 42.207172772253074 ], [ 1.291410107954219, 42.207168264235186 ], [ 1.291416172026271, 42.206943205608788 ], [ 1.289902588081155, 42.206920653715855 ], [ 1.2899147267524, 42.206470536788046 ], [ 1.289612012306377, 42.206466024084726 ], [ 1.289618082611417, 42.206240965641868 ], [ 1.28992079598395, 42.206245478309789 ], [ 1.289926865144907, 42.206020419866988 ], [ 1.290532289951132, 42.206029442736806 ] ], [ [ 1.289242508188658, 42.208937152298276 ], [ 1.289847960567913, 42.20894617932619 ], [ 1.289835820371383, 42.209396295998403 ], [ 1.289230363696346, 42.209387268873911 ], [ 1.289242508188658, 42.208937152298276 ] ], [ [ 1.282909652976835, 42.207941945848745 ], [ 1.283212373408001, 42.207946476366182 ], [ 1.28319409298428, 42.208621649157202 ], [ 1.282891369332377, 42.208617118533148 ], [ 1.282897463950606, 42.208392060966247 ], [ 1.282594741441954, 42.208387529579269 ], [ 1.282600837064091, 42.20816247203831 ], [ 1.282903558499165, 42.208167003389761 ], [ 1.282909652976835, 42.207941945848745 ] ], [ [ 1.294098245097079, 42.208559161077332 ], [ 1.294092190202343, 42.20878421995473 ], [ 1.294394916423486, 42.208788721034466 ], [ 1.294382808574857, 42.209238838786156 ], [ 1.294080080206426, 42.209234337635806 ], [ 1.294074025104032, 42.209459396484498 ], [ 1.29346856642753, 42.209450391717631 ], [ 1.293486738028269, 42.208775215400621 ], [ 1.293789464050416, 42.208779718076464 ], [ 1.293795520018777, 42.20855465923438 ], [ 1.294098245097079, 42.208559161077332 ] ], [ [ 1.289890449133597, 42.207370770560352 ], [ 1.28987224019127, 42.208045945777791 ], [ 1.290174962159684, 42.208050457974501 ], [ 1.290162824665458, 42.208500574794073 ], [ 1.289557376440668, 42.208491549549741 ], [ 1.289563447370275, 42.208266491193029 ], [ 1.289260724405299, 42.208261977408071 ], [ 1.289278939997231, 42.207586802431699 ], [ 1.289581659741484, 42.207591316110459 ], [ 1.289587730393497, 42.207366257715456 ], [ 1.289890449133597, 42.207370770560352 ] ], [ [ 1.285942943972964, 42.207762157184817 ], [ 1.285930776557368, 42.208212273031521 ], [ 1.286233498697586, 42.208216795598858 ], [ 1.28623958136719, 42.207991737622322 ], [ 1.286845023828933, 42.208000780337436 ], [ 1.2868389433077, 42.208225838339906 ], [ 1.286536220967887, 42.208221317368626 ], [ 1.286530139302337, 42.208446375371054 ], [ 1.28592469274464, 42.208437330963037 ], [ 1.285930776557368, 42.208212273031521 ], [ 1.285628054426148, 42.208207749664822 ], [ 1.285621969539834, 42.208432807560833 ], [ 1.284713800342836, 42.208419232563379 ], [ 1.28472597654793, 42.207969116975569 ], [ 1.285028697336314, 42.207973642701326 ], [ 1.285034784230633, 42.207748584857121 ], [ 1.285942943972964, 42.207762157184817 ] ] ], [ [ [ 1.290532289951132, 42.206029442736806 ], [ 1.290526222935917, 42.20625450129539 ], [ 1.290828936516551, 42.206259011568036 ], [ 1.290822870446141, 42.206484070106526 ], [ 1.291731014823308, 42.206497596284997 ], [ 1.291743140335196, 42.206047478894469 ], [ 1.290532289951132, 42.206029442736806 ] ] ], [ [ [ 1.297688655722938, 42.210188535765269 ], [ 1.297385922299134, 42.210184043257684 ], [ 1.297379878730727, 42.210409102456083 ], [ 1.297682613228253, 42.210413594998869 ], [ 1.297688655722938, 42.210188535765269 ] ] ] ] } },
{ "type": "Feature", "properties": { "GRID_CODE": 2, "CODI_FINAL": "2004170080", "MUNICIPI": "Torroella de Montgrí", "DATA_INCEN": "26/09/04" }, "geometry": { "type": "MultiPolygon", "coordinates": [ [ [ [ 3.143969388293965, 42.05424148546863 ], [ 3.143968366689255, 42.053791157089499 ], [ 3.143061999979079, 42.053792295517852 ], [ 3.143061492386777, 42.053567131328592 ], [ 3.142759371265908, 42.053567509181079 ], [ 3.142758358232718, 42.053117180724968 ], [ 3.143060477219334, 42.053116802833358 ], [ 3.143059969644303, 42.052891638572433 ], [ 3.143362087618607, 42.052891259933489 ], [ 3.143361578982311, 42.052666095666673 ], [ 3.143663695883685, 42.052665716190404 ], [ 3.143663186186159, 42.052440551917684 ], [ 3.143361070351813, 42.052440931390969 ], [ 3.143360561727215, 42.052215767151459 ], [ 3.143058446953997, 42.052216145781514 ], [ 3.143057939402202, 42.051990981530167 ], [ 3.142755825750718, 42.051991359406983 ], [ 3.1427553192716, 42.051766195098743 ], [ 3.142453206620908, 42.05176657217747 ], [ 3.142452701214544, 42.051541407857414 ], [ 3.142150589625081, 42.051541784137953 ], [ 3.142150085291447, 42.051316619806094 ], [ 3.140337422156859, 42.051318860727001 ], [ 3.14033692423071, 42.051093696368717 ], [ 3.14003481473517, 42.051094067076924 ], [ 3.14003431788174, 42.050868902751901 ], [ 3.139732209507805, 42.050869272616872 ], [ 3.139731713726983, 42.05064410828011 ], [ 3.140033821033875, 42.050643738372983 ], [ 3.140033324191686, 42.050418573985191 ], [ 3.14033543048642, 42.050418203285709 ], [ 3.140334932583075, 42.050193038936975 ], [ 3.140637037805237, 42.050192667445216 ], [ 3.140636538840574, 42.049967503045494 ], [ 3.140938642990152, 42.049967130761466 ], [ 3.140937642944235, 42.049516801986272 ], [ 3.140635540928411, 42.04951717426448 ], [ 3.1406345430389, 42.049066845402955 ], [ 3.140332443151104, 42.049067216880189 ], [ 3.140331945281715, 42.048842052433223 ], [ 3.140029846455067, 42.04884242311239 ], [ 3.140029349658274, 42.048617258698677 ], [ 3.139727251953108, 42.0486176285347 ], [ 3.139725764796906, 42.047942135141604 ], [ 3.140027859362003, 42.047941765269144 ], [ 3.140027362587863, 42.04771660081996 ], [ 3.140329456020101, 42.047716230155366 ], [ 3.140327962531216, 42.047040736673203 ], [ 3.139421691697335, 42.047041846210682 ], [ 3.139421197079296, 42.046816681720237 ], [ 3.138514929394835, 42.046817784093243 ], [ 3.138515912236361, 42.047268113172592 ], [ 3.138213820843331, 42.04726847901582 ], [ 3.138215291947339, 42.047943972576938 ], [ 3.137913197348433, 42.047944337633631 ], [ 3.137914665302367, 42.04861983112351 ], [ 3.13670627411019, 42.048621283568195 ], [ 3.136705789053877, 42.048396119069061 ], [ 3.13610159558844, 42.048396840537407 ], [ 3.136102078511132, 42.048622005042176 ], [ 3.135799980673031, 42.048622364541465 ], [ 3.135800462534404, 42.048847529040195 ], [ 3.135498363624095, 42.048847887792192 ], [ 3.135498844424125, 42.049073052284839 ], [ 3.135196744501912, 42.049073410244411 ], [ 3.13519722424048, 42.04929857468597 ], [ 3.134895123185528, 42.049298931853265 ], [ 3.134894644513712, 42.049073767363879 ], [ 3.134592544520151, 42.04907412373322 ], [ 3.134592066920723, 42.048848959277208 ], [ 3.133987869111292, 42.048849669579781 ], [ 3.133987393650954, 42.048624505109323 ], [ 3.133685295774662, 42.048624859042626 ], [ 3.133684347003762, 42.048174530024561 ], [ 3.133986442746348, 42.048174176051774 ], [ 3.133985967302175, 42.047949011509687 ], [ 3.134288061972649, 42.047948656789565 ], [ 3.134287585467121, 42.047723492241388 ], [ 3.134589679004872, 42.047723136683956 ], [ 3.134589201438012, 42.047497972129698 ], [ 3.134951712492737, 42.047497544441498 ], [ 3.134951808225388, 42.04754257732543 ], [ 3.135012226796598, 42.047542505955121 ], [ 3.135012322572137, 42.047587538838577 ], [ 3.135133159799159, 42.047587395957294 ], [ 3.135133255660353, 42.047632428885201 ], [ 3.135193674316153, 42.047632357374226 ], [ 3.135193770220236, 42.047677390301665 ], [ 3.135254188918499, 42.047677318758787 ], [ 3.135254284865472, 42.047722351685749 ], [ 3.135314703606176, 42.047722280110939 ], [ 3.13531479965646, 42.047767313037383 ], [ 3.135375218379194, 42.047767241430734 ], [ 3.135375314472368, 42.047812274356708 ], [ 3.135435733237565, 42.047812202718134 ], [ 3.135435829373629, 42.047857235643626 ], [ 3.135496248181266, 42.047857163973148 ], [ 3.135496440539298, 42.047947229777826 ], [ 3.135798535121976, 42.047946871037126 ], [ 3.13579757144876, 42.0474965420049 ], [ 3.135616315992034, 42.047496757350352 ], [ 3.135616219729713, 42.047451724422338 ], [ 3.135555801306538, 42.047451796155435 ], [ 3.135555608868, 42.047361730343169 ], [ 3.13549519052985, 42.047361801999202 ], [ 3.135494998237951, 42.047271736185238 ], [ 3.135434579924595, 42.047271807854322 ], [ 3.135434387718912, 42.047181742038696 ], [ 3.135373969490582, 42.04718181363075 ], [ 3.135373777371114, 42.047091747813496 ], [ 3.13531335928842, 42.047091819418462 ], [ 3.135313071208604, 42.04695672066709 ], [ 3.135252653193278, 42.046956792239989 ], [ 3.135252557250025, 42.046911759306987 ], [ 3.13519213927716, 42.046911830847982 ], [ 3.135191947416323, 42.04682176502579 ], [ 3.134889858095931, 42.046822122117298 ], [ 3.134889379484237, 42.046596957575368 ], [ 3.134587291225198, 42.046597313914035 ], [ 3.134586813745977, 42.046372149315346 ], [ 3.134284726548196, 42.04637250485613 ], [ 3.134284250080687, 42.046147340245888 ], [ 3.133982163944165, 42.046147694988818 ], [ 3.133981688548764, 42.045922530366916 ], [ 3.133679603473512, 42.045922884312006 ], [ 3.133679129150196, 42.045697719678458 ], [ 3.132772877152432, 42.045698776734994 ], [ 3.132773348275752, 42.045923941376813 ], [ 3.132471263178854, 42.045924292096615 ], [ 3.132471733240866, 42.046149456732316 ], [ 3.132169647132435, 42.046149806704754 ], [ 3.132170116133115, 42.046374971334316 ], [ 3.131868028892134, 42.046375320469444 ], [ 3.131868496831459, 42.046600485092881 ], [ 3.131566408518534, 42.046600833480717 ], [ 3.131567342279649, 42.047051162661383 ], [ 3.131869432726108, 42.047050814313145 ], [ 3.13186990068134, 42.047275978864931 ], [ 3.132474083631195, 42.047275279732744 ], [ 3.132475493929661, 42.047950773408544 ], [ 3.130965020423103, 42.047952515384353 ], [ 3.130964555712513, 42.047727350805893 ], [ 3.130662462049976, 42.047727696822015 ], [ 3.130661998351036, 42.047502532232052 ], [ 3.130359905749966, 42.047502877450334 ], [ 3.130358055274085, 42.046602219036025 ], [ 3.130055966934686, 42.046602563448431 ], [ 3.13005550539567, 42.046377398853757 ], [ 3.129451330894815, 42.046378085242821 ], [ 3.12945087149444, 42.046152920633908 ], [ 3.128846699045613, 42.046153603837389 ], [ 3.128847156312698, 42.046378768496687 ], [ 3.12854506907423, 42.046379108930928 ], [ 3.128545525279824, 42.046604273584016 ], [ 3.127941348532964, 42.046604952027685 ], [ 3.127941802610327, 42.046830116677221 ], [ 3.127337623769857, 42.046830791990793 ], [ 3.127339431596905, 42.047731450431293 ], [ 3.126735244141441, 42.047732122585614 ], [ 3.126735693977576, 42.047957287201363 ], [ 3.126433599175365, 42.04795762208844 ], [ 3.126434047949748, 42.048182786652909 ], [ 3.126131952136057, 42.048183120747446 ], [ 3.126132399848844, 42.048408285350675 ], [ 3.125830302902836, 42.048408618652772 ], [ 3.12583119620998, 42.048858947792809 ], [ 3.126133295289637, 42.048858614485518 ], [ 3.126133742957309, 42.049083779062194 ], [ 3.126435843098701, 42.049083444957134 ], [ 3.126436740703912, 42.049533774078554 ], [ 3.12613463842872, 42.049534108143803 ], [ 3.126135086172125, 42.049759272693827 ], [ 3.125530879533306, 42.049759938534045 ], [ 3.125531325147953, 42.049985103035382 ], [ 3.124927116294611, 42.049985765700185 ], [ 3.124927559780627, 42.050210930242869 ], [ 3.124625454339894, 42.050211260385012 ], [ 3.124625011920776, 42.049986095839728 ], [ 3.124322907481486, 42.049986425184201 ], [ 3.124322466134298, 42.049761260627484 ], [ 3.124624569506701, 42.049760931285618 ], [ 3.124623684693765, 42.049310602195767 ], [ 3.124321583455099, 42.04931093153251 ], [ 3.124320700795933, 42.048860602356996 ], [ 3.124018601685914, 42.048860930893426 ], [ 3.12401816143079, 42.048635766334826 ], [ 3.123716063442914, 42.048636094028431 ], [ 3.123715624259621, 42.048410929458413 ], [ 3.12341352727323, 42.048411256399412 ], [ 3.123413089161656, 42.048186091772926 ], [ 3.123715185081245, 42.048185764834479 ], [ 3.123714745907875, 42.047960600201684 ], [ 3.124016840695346, 42.04796027251578 ], [ 3.124017280935418, 42.048185437100969 ], [ 3.124319376844995, 42.048185108572262 ], [ 3.124319818156974, 42.048410273191067 ], [ 3.124621915128324, 42.048409943864648 ], [ 3.124621472749632, 42.048184779293472 ], [ 3.124923568649127, 42.048184449174499 ], [ 3.124922681773126, 42.047734119920655 ], [ 3.124620588007197, 42.047734450034447 ], [ 3.124620145643542, 42.047509285391612 ], [ 3.12341177485698, 42.047510597885299 ], [ 3.123412212953574, 42.04773576253838 ], [ 3.123110119162461, 42.047736088631574 ], [ 3.123110556197271, 42.047961253278338 ], [ 3.122808461334486, 42.047961578623969 ], [ 3.122809333285371, 42.048411907850991 ], [ 3.123111430281834, 42.048411582545285 ], [ 3.123112304386234, 42.04886191173172 ], [ 3.122810205256218, 42.048862237087533 ], [ 3.122810641249007, 42.049087401647498 ], [ 3.122206440900826, 42.049088049978707 ], [ 3.122203837819978, 42.047737062275445 ], [ 3.121901744009102, 42.047737385233177 ], [ 3.121900878488498, 42.047287055892731 ], [ 3.123411336765378, 42.047285433223337 ], [ 3.123410460597241, 42.046835103917843 ], [ 3.12250419207054, 42.046836079871476 ], [ 3.122503757194153, 42.046610915220313 ], [ 3.121295403335976, 42.046612205365484 ], [ 3.121295833945582, 42.046837370071785 ], [ 3.120993744386935, 42.046837690634135 ], [ 3.120994173934634, 42.047062855289056 ], [ 3.120692083304363, 42.04706317505881 ], [ 3.120693368776744, 42.047738669067911 ], [ 3.120995462607275, 42.047738349290626 ], [ 3.120997180906029, 42.048639007850248 ], [ 3.120695082808313, 42.048639327637552 ], [ 3.120695511328435, 42.048864492269018 ], [ 3.120091312984636, 42.048865129418132 ], [ 3.120091739375953, 42.049090294045754 ], [ 3.117674937393737, 42.049092810990935 ], [ 3.117675355255102, 42.049317975629386 ], [ 3.117373253964169, 42.049318286632321 ], [ 3.117373670763432, 42.049543451264334 ], [ 3.117071568340545, 42.049543761519622 ], [ 3.117071152608134, 42.0493185968852 ], [ 3.116466949881865, 42.049319215005461 ], [ 3.116466536287907, 42.049094050357319 ], [ 3.116164436044972, 42.049094358222234 ], [ 3.116164848572089, 42.049319522872786 ], [ 3.115862747197177, 42.049319829945013 ], [ 3.115863158662049, 42.049544994544064 ], [ 3.115561056215584, 42.049545300823532 ], [ 3.11556146661835, 42.04977046546113 ], [ 3.11405094904209, 42.049771984897745 ], [ 3.114051354115089, 42.049997149538378 ], [ 3.114353458718581, 42.049996847230027 ], [ 3.114353864863097, 42.050222011859425 ], [ 3.114051759192703, 42.050222314170149 ], [ 3.114052164274853, 42.050447478748019 ], [ 3.113750057593355, 42.050447780265856 ], [ 3.113750461613276, 42.05067294488223 ], [ 3.113448353799835, 42.050673245607278 ], [ 3.113449562686281, 42.05134873936526 ], [ 3.113751673700583, 42.051348438633148 ], [ 3.11375207773884, 42.051573603169025 ], [ 3.114356301827224, 42.051572999359514 ], [ 3.114357114185601, 42.052023328440256 ], [ 3.114054999979559, 42.052023630769902 ], [ 3.11405540509872, 42.052248795321844 ], [ 3.114357520371762, 42.052248492989833 ], [ 3.114357926562481, 42.052473657485514 ], [ 3.114660042898008, 42.052473354400917 ], [ 3.114660450160392, 42.052698518885371 ], [ 3.115264684891074, 42.052697910280699 ], [ 3.115265094292192, 42.052923074751519 ], [ 3.11556721274775, 42.052922769231351 ], [ 3.115568033698278, 42.053373098231667 ], [ 3.1158701542833, 42.053372791911443 ], [ 3.11587138894538, 42.054048285293177 ], [ 3.114662893832482, 42.054049505785933 ], [ 3.114663301127436, 42.054274670253321 ], [ 3.113756926557702, 42.054275577268143 ], [ 3.113756522464191, 42.054050412838691 ], [ 3.113454398645403, 42.054050713599032 ], [ 3.113453995623524, 42.05382554911332 ], [ 3.113151872867241, 42.053825849076034 ], [ 3.113151068971442, 42.053375520073303 ], [ 3.111942586497789, 42.053376711952595 ], [ 3.111942984175061, 42.053601876467731 ], [ 3.111640862463026, 42.053602172406663 ], [ 3.111641259077722, 42.053827336915241 ], [ 3.11133913629415, 42.05382763210622 ], [ 3.111340322963947, 42.054503125540627 ], [ 3.111642448948882, 42.054502830342713 ], [ 3.111642845581667, 42.054727994815821 ], [ 3.112247099672278, 42.054727402029407 ], [ 3.112247498443899, 42.054952566489 ], [ 3.112549626549541, 42.0549522689005 ], [ 3.112549226650346, 42.054727104443288 ], [ 3.113455607738515, 42.054726206957938 ], [ 3.113456413823516, 42.055176535804542 ], [ 3.112247897219985, 42.055177730894691 ], [ 3.112248694785142, 42.055628059319204 ], [ 3.111946563473412, 42.055628356119364 ], [ 3.111946961196004, 42.055853520545803 ], [ 3.111644828812524, 42.055853816552926 ], [ 3.111645225472351, 42.056078980927765 ], [ 3.111343092077563, 42.056079276141809 ], [ 3.111343487674758, 42.056304440555166 ], [ 3.111041353147801, 42.056304734976187 ], [ 3.111041747682182, 42.056529899337932 ], [ 3.11043747648032, 42.056530485798561 ], [ 3.110437084080346, 42.0563053213872 ], [ 3.11013494953994, 42.056305613422175 ], [ 3.110134166887935, 42.05585528461333 ], [ 3.109832034537948, 42.055855575848341 ], [ 3.109831644285802, 42.055630411405829 ], [ 3.109529512938157, 42.05563070184327 ], [ 3.109528734582356, 42.055180373377411 ], [ 3.10922660536464, 42.055180663015001 ], [ 3.109226217260174, 42.054955498541339 ], [ 3.108924089105217, 42.054955787381346 ], [ 3.108923702072333, 42.05473062289655 ], [ 3.108621575040541, 42.054730910938929 ], [ 3.108621189079289, 42.054505746488047 ], [ 3.107412684995498, 42.054506890650629 ], [ 3.107412226945817, 42.054236693260137 ], [ 3.107472651862289, 42.054236636334522 ], [ 3.107472499115223, 42.054146570535003 ], [ 3.107412074284121, 42.054146627460447 ], [ 3.107411539883007, 42.053831397127915 ], [ 3.106807294247957, 42.053831964446545 ], [ 3.106807977408652, 42.054237260541768 ], [ 3.106868402387352, 42.054237203979255 ], [ 3.106868478364471, 42.054282236856821 ], [ 3.10680805334315, 42.054282293464468 ], [ 3.106808432897278, 42.054507457982638 ], [ 3.106506306841686, 42.054507740455676 ], [ 3.106507063828534, 42.054958069424814 ], [ 3.106809192018431, 42.054957786947341 ], [ 3.106809571585532, 42.055182951438908 ], [ 3.107111700838286, 42.055182668163908 ], [ 3.107111320204014, 42.054957503674572 ], [ 3.108017704674329, 42.054956649129409 ], [ 3.108018088510036, 42.055181813567032 ], [ 3.108320217745369, 42.055181527110747 ], [ 3.108321372479781, 42.055857020048464 ], [ 3.108019240042866, 42.055857306511498 ], [ 3.108019623896145, 42.056082470958692 ], [ 3.10771749038756, 42.056082756583564 ], [ 3.107718255972764, 42.056533085455833 ], [ 3.107416120385849, 42.056533370334776 ], [ 3.107416502117662, 42.056758534714803 ], [ 3.107114365398723, 42.056758818800681 ], [ 3.107114746067682, 42.056983983219091 ], [ 3.106812608277138, 42.056984266511805 ], [ 3.106812987883089, 42.05720943087853 ], [ 3.106510849020928, 42.057209713378093 ], [ 3.106511606111286, 42.057660042134401 ], [ 3.106209465170645, 42.057660323842917 ], [ 3.10621022014361, 42.058110652568146 ], [ 3.105908077003591, 42.058110933485743 ], [ 3.105908453429221, 42.058336097859765 ], [ 3.105606309217582, 42.058336377984141 ], [ 3.105606684580062, 42.058561542306464 ], [ 3.105304539296793, 42.05856182163761 ], [ 3.10530491359627, 42.058786985998289 ], [ 3.105002767301791, 42.058787264536136 ], [ 3.10500314053808, 42.05901242884508 ], [ 3.104700993111537, 42.059012706589726 ], [ 3.104702109643863, 42.059688199559957 ], [ 3.104399959010872, 42.059688476515667 ], [ 3.104400330129392, 42.059913640838523 ], [ 3.104098178424672, 42.059913916955914 ], [ 3.104098918539508, 42.060364245579336 ], [ 3.103796764756114, 42.06036452090553 ], [ 3.10379971684385, 42.06216583492656 ], [ 3.103497554455839, 42.062166109519573 ], [ 3.103497922418194, 42.062391273751338 ], [ 3.10319575895844, 42.062391547550945 ], [ 3.10319612585734, 42.062616711730961 ], [ 3.102893961386259, 42.06261698473714 ], [ 3.102895058905382, 42.063292477320395 ], [ 3.101988555677495, 42.063293291585047 ], [ 3.101988193036422, 42.063068127378109 ], [ 3.101686026413557, 42.063068397206372 ], [ 3.101685664844226, 42.062843232988484 ], [ 3.101383499224402, 42.062843502019156 ], [ 3.101383859726147, 42.063068666239182 ], [ 3.101081693034546, 42.063068934431392 ], [ 3.101082771361484, 42.063744426999492 ], [ 3.101384941255881, 42.063744158755952 ], [ 3.101385301774056, 42.06396932294048 ], [ 3.101687472731981, 42.063969053899278 ], [ 3.101688195915911, 42.064419382192511 ], [ 3.102292542029709, 42.064418841760038 ], [ 3.102292178300305, 42.064193677599562 ], [ 3.102594350313505, 42.064193406169508 ], [ 3.102593985520659, 42.063968242047331 ], [ 3.103198327399248, 42.063967696804795 ], [ 3.103197960475191, 42.063742532632979 ], [ 3.103500130280215, 42.063742258865595 ], [ 3.103499762292705, 42.063517094687043 ], [ 3.103801931086267, 42.063516820081162 ], [ 3.1038015620354, 42.063291655940915 ], [ 3.104103729757123, 42.063291380541628 ], [ 3.104103359642778, 42.06306621634964 ], [ 3.104707692877925, 42.063065663168786 ], [ 3.104707320632676, 42.062840499017284 ], [ 3.105009486206514, 42.062840221235703 ], [ 3.105009859519435, 42.063065385430058 ], [ 3.105312026156606, 42.063065106850736 ], [ 3.105312400541316, 42.063290270989022 ], [ 3.105010232836535, 42.063290549570503 ], [ 3.105010606157964, 42.063515713747123 ], [ 3.105312774930366, 42.063515435163467 ], [ 3.105313149323683, 42.063740599329044 ], [ 3.105615319159465, 42.06374031994762 ], [ 3.105614943698514, 42.063515155784231 ], [ 3.105917112401947, 42.063514875609513 ], [ 3.105916735877728, 42.063289711484487 ], [ 3.107125406559245, 42.063288582838695 ], [ 3.107125787354027, 42.063513746999938 ], [ 3.107427956096323, 42.063513462847396 ], [ 3.107428719834097, 42.063963791093769 ], [ 3.10712654901697, 42.06396407525073 ], [ 3.107126929824758, 42.064189239385335 ], [ 3.106220413963005, 42.064190087044523 ], [ 3.106220791572132, 42.064415251176918 ], [ 3.105314272529081, 42.06441609168246 ], [ 3.105314646939461, 42.06464125581256 ], [ 3.104408124654966, 42.064642089164394 ], [ 3.104407753447708, 42.064416925072827 ], [ 3.103803407331991, 42.064417476688526 ], [ 3.103803038264231, 42.064192312538722 ], [ 3.103198694327485, 42.064192860967758 ], [ 3.10319906125983, 42.064418025076812 ], [ 3.102896888187284, 42.064418298100136 ], [ 3.102897254056199, 42.064643462247496 ], [ 3.102595079911801, 42.064643734477364 ], [ 3.102595809526662, 42.065094062704681 ], [ 3.102293633242714, 42.065094334143232 ], [ 3.102293996988624, 42.065319498223189 ], [ 3.101991819693239, 42.065319768868186 ], [ 3.101992182375633, 42.065544932986448 ], [ 3.101690003947874, 42.065545202792961 ], [ 3.101690727189557, 42.065995531007069 ], [ 3.101992907752735, 42.065995261151294 ], [ 3.101993270447454, 42.066220425197912 ], [ 3.102295452074352, 42.066220154589438 ], [ 3.102295815840985, 42.066445318625064 ], [ 3.102597998471007, 42.066445047173843 ], [ 3.102598363309649, 42.066670211243519 ], [ 3.102900547063747, 42.066669938994501 ], [ 3.102902742589764, 42.068020923123463 ], [ 3.102600552489092, 42.068021195385214 ], [ 3.102601282228664, 42.068471523346517 ], [ 3.102903474525547, 42.068471251080439 ], [ 3.102903840469436, 42.06869641502314 ], [ 3.103206033769683, 42.068696142004327 ], [ 3.103205666757818, 42.068470978018745 ], [ 3.103507859046349, 42.068470704161264 ], [ 3.10350712289947, 42.068020376212807 ], [ 3.103809313048027, 42.068020101563967 ], [ 3.103808943913049, 42.067794937601079 ], [ 3.104715511069428, 42.067794108886993 ], [ 3.104715883408078, 42.068019272888428 ], [ 3.105018073539737, 42.068018995056839 ], [ 3.105019940635995, 42.069144814830025 ], [ 3.104717745164812, 42.06914509267245 ], [ 3.104718117528845, 42.069370256575631 ], [ 3.104415921045922, 42.069370533624479 ], [ 3.104416663650877, 42.0698208614536 ], [ 3.104718862269715, 42.069820584400439 ], [ 3.104719234646552, 42.070045748322052 ], [ 3.105021434389565, 42.070045470470916 ], [ 3.105021807838634, 42.070270634381494 ], [ 3.105324008645368, 42.070270355732461 ], [ 3.105325132222069, 42.070945847359383 ], [ 3.106231744168317, 42.070945006618103 ], [ 3.106232877456301, 42.071620498145435 ], [ 3.105930670254212, 42.071620779194916 ], [ 3.105931046937215, 42.0718459429918 ], [ 3.105628838662772, 42.071846223247682 ], [ 3.105629589905549, 42.072296550864309 ], [ 3.105025169131891, 42.072297108997375 ], [ 3.105024422161481, 42.071846781372024 ], [ 3.104722213874222, 42.071847059240547 ], [ 3.104721841463437, 42.071621895389875 ], [ 3.10441963424002, 42.071622172460437 ], [ 3.104420005582731, 42.071847336313276 ], [ 3.104117797286924, 42.071847612545177 ], [ 3.104118537848857, 42.072297940228559 ], [ 3.104420748280775, 42.072297663947296 ], [ 3.104422605099964, 42.073423482899699 ], [ 3.104120389387747, 42.073423759146678 ], [ 3.10412187064657, 42.074324414184623 ], [ 3.104424090691917, 42.074324137883899 ], [ 3.104424462085337, 42.074549301585286 ], [ 3.105028904239377, 42.074548746637035 ], [ 3.105029277773493, 42.074773910325213 ], [ 3.105935944207498, 42.074773071904765 ], [ 3.105936320950602, 42.074998235577517 ], [ 3.106238544175132, 42.074997954540116 ], [ 3.106239299810819, 42.075448281899625 ], [ 3.105937074510277, 42.075448562986423 ], [ 3.105937828026613, 42.075898890314853 ], [ 3.105635600524755, 42.075899170610171 ], [ 3.105637103335659, 42.07679982516941 ], [ 3.10593933511081, 42.076799544865324 ], [ 3.105939711892631, 42.077024708503259 ], [ 3.106846410336873, 42.077023862808851 ], [ 3.106846790328086, 42.077249026431332 ], [ 3.107753491998901, 42.077248173566801 ], [ 3.107752342362786, 42.076572682782924 ], [ 3.108054573039273, 42.076572396909576 ], [ 3.108054188787734, 42.076347233269395 ], [ 3.108356418391524, 42.076346946602399 ], [ 3.108356033076125, 42.076121783000616 ], [ 3.108658261607206, 42.076121495539951 ], [ 3.108656329694, 42.074995677274273 ], [ 3.108958552879278, 42.074995389028985 ], [ 3.108958165453739, 42.074770225378494 ], [ 3.109260387566358, 42.074769936339585 ], [ 3.109259610591999, 42.074319608971521 ], [ 3.109561830503293, 42.074319319141324 ], [ 3.10956144095451, 42.074094155423737 ], [ 3.109863659853594, 42.074093864799913 ], [ 3.109863269241144, 42.073868701120752 ], [ 3.110165487067583, 42.073868409703358 ], [ 3.110164312052243, 42.073192918529472 ], [ 3.110466526609273, 42.073192626323149 ], [ 3.110464955712201, 42.072291971339638 ], [ 3.111069376388685, 42.072291384557758 ], [ 3.111070955830864, 42.073192039567942 ], [ 3.111373170434864, 42.073191744974082 ], [ 3.111373566374837, 42.073416908713412 ], [ 3.111675781982048, 42.073416613321498 ], [ 3.111676178994623, 42.073641777004603 ], [ 3.113489479253757, 42.073639987971376 ], [ 3.113489075832165, 42.073414824302247 ], [ 3.114093507038553, 42.073414221580911 ], [ 3.114093101485246, 42.073189057907626 ], [ 3.114395316043584, 42.073188755355552 ], [ 3.114394909426674, 42.072963591630739 ], [ 3.114697122912233, 42.072963288285209 ], [ 3.114696715231906, 42.072738124598928 ], [ 3.114998927644675, 42.07273782045997 ], [ 3.114998518840359, 42.072512656722232 ], [ 3.11530073018043, 42.072512351834881 ], [ 3.115300320373099, 42.072287188090606 ], [ 3.115602530640321, 42.072286882364793 ], [ 3.115602119769647, 42.072061718659072 ], [ 3.115904328964092, 42.072061412139867 ], [ 3.115903505100473, 42.071611084616556 ], [ 3.116205712093705, 42.071610777351466 ], [ 3.116204060150728, 42.070710122253061 ], [ 3.116506262927453, 42.070709814156722 ], [ 3.116505848885528, 42.070484650396146 ], [ 3.117110252228344, 42.070484031821131 ], [ 3.117109836055143, 42.07025886805652 ], [ 3.117412036681655, 42.070258557577802 ], [ 3.11741161944513, 42.070033393761705 ], [ 3.117713818998911, 42.07003308248968 ], [ 3.11771256411415, 42.06935759108557 ], [ 3.11801476039884, 42.069357279025162 ], [ 3.118014341045462, 42.069132115178505 ], [ 3.118316536317877, 42.069131802324783 ], [ 3.118316115901439, 42.068906638516715 ], [ 3.120733669243011, 42.068904107106434 ], [ 3.120733240287986, 42.06867894326426 ], [ 3.121035433381085, 42.068678623299199 ], [ 3.12103500336305, 42.068453459450673 ], [ 3.122243771354002, 42.068452171508504 ], [ 3.122243337069321, 42.068227007661186 ], [ 3.122545527941476, 42.06822668367775 ], [ 3.122545092593958, 42.068001519869114 ], [ 3.122847282453707, 42.068001195092471 ], [ 3.122846409637757, 42.067550867408649 ], [ 3.123148597356831, 42.067550541841435 ], [ 3.123148159888435, 42.067325377966256 ], [ 3.124659092948768, 42.067323738253108 ], [ 3.124658650146232, 42.067098574381887 ], [ 3.125263021247877, 42.067097912959163 ], [ 3.125262576314762, 42.066872749084254 ], [ 3.127075682969627, 42.066870745646149 ], [ 3.127076134309619, 42.067095909505376 ], [ 3.127378319822109, 42.067095572804106 ], [ 3.12737877223507, 42.067320736651816 ], [ 3.127680958810217, 42.067320399152237 ], [ 3.12768050532943, 42.067095235307164 ], [ 3.127982690771153, 42.067094897014655 ], [ 3.12798132715651, 42.066419405479188 ], [ 3.128283509450171, 42.066419066443935 ], [ 3.12828305385451, 42.066193902568685 ], [ 3.129189597440275, 42.066192880562113 ], [ 3.129189138646609, 42.065967716731038 ], [ 3.129491318783792, 42.065967374473573 ], [ 3.129490858927513, 42.065742210591246 ], [ 3.130095216990314, 42.065741523739966 ], [ 3.1300947550038, 42.065516359854158 ], [ 3.130699110970392, 42.065515669780723 ], [ 3.130698646853795, 42.065290505936467 ], [ 3.131907354392153, 42.065289116298253 ], [ 3.131906886009886, 42.065063952410966 ], [ 3.132209061768095, 42.065063603003942 ], [ 3.132208592323466, 42.064838439110531 ], [ 3.132510767069141, 42.064838088955625 ], [ 3.132508885073553, 42.063937433349295 ], [ 3.132811055543097, 42.063937082364724 ], [ 3.132810583990039, 42.063711918477502 ], [ 3.133414922717271, 42.063711214127274 ], [ 3.133414449034238, 42.063486050191642 ], [ 3.13371661735235, 42.063485696825936 ], [ 3.133713294249544, 42.06190954918268 ], [ 3.134015455089188, 42.061909195040798 ], [ 3.134014979314292, 42.061684031039761 ], [ 3.134317139020642, 42.061683676150267 ], [ 3.134316662183652, 42.061458512143133 ], [ 3.134618820877376, 42.061458156415831 ], [ 3.134618342978316, 42.061232992402608 ], [ 3.134920500599193, 42.061232635927624 ], [ 3.134920021638086, 42.061007471908333 ], [ 3.135524334667835, 42.061006756487494 ], [ 3.135523853577322, 42.060781592509976 ], [ 3.135826009046701, 42.060781233609099 ], [ 3.135825526894118, 42.060556069580464 ], [ 3.13612768129053, 42.060555709886948 ], [ 3.136127198076072, 42.060330545897301 ], [ 3.137335811276285, 42.060329099179903 ], [ 3.137335323797559, 42.060103935192693 ], [ 3.138846084790246, 42.060102108957373 ], [ 3.138845591979819, 42.059876944930572 ], [ 3.139449894251099, 42.059876208855933 ], [ 3.13944939931155, 42.059651044871067 ], [ 3.140053699364977, 42.05965030562048 ], [ 3.140053202296158, 42.059425141587489 ], [ 3.140355351277191, 42.059424770771898 ], [ 3.140354853146743, 42.059199606777966 ], [ 3.14065700099427, 42.059199235169935 ], [ 3.140655503434691, 42.058523743053577 ], [ 3.140957648134849, 42.058523370658776 ], [ 3.140957147892325, 42.058298206590159 ], [ 3.141259291519533, 42.058297833447902 ], [ 3.141255281246522, 42.056496520693102 ], [ 3.141557416329587, 42.056496146733828 ], [ 3.141556914004016, 42.056270982636249 ], [ 3.142463315956651, 42.056269855995168 ], [ 3.142462304919285, 42.055819527746017 ], [ 3.142764436777698, 42.05581915061417 ], [ 3.142762410504306, 42.054918494426566 ], [ 3.143064538027794, 42.054918116511303 ], [ 3.143064030406456, 42.054692952321325 ], [ 3.143366156917434, 42.054692573613636 ], [ 3.143365648234746, 42.054467409417775 ], [ 3.143667773672889, 42.054467029962765 ], [ 3.143667263928873, 42.054241865761007 ], [ 3.143969388293965, 42.05424148546863 ] ], [ [ 3.108328301719382, 42.059909978430625 ], [ 3.108026150070581, 42.059910264888963 ], [ 3.108026534002598, 42.060135429176512 ], [ 3.107422228617592, 42.060135999801268 ], [ 3.107421846820452, 42.059910835509235 ], [ 3.107119695158651, 42.059911119626229 ], [ 3.107119314433288, 42.059685955323118 ], [ 3.106817163834564, 42.059686238642449 ], [ 3.106816784180954, 42.059461074328226 ], [ 3.106212485165813, 42.059461638576046 ], [ 3.106212107651409, 42.059236474293584 ], [ 3.105909959174485, 42.059236755177125 ], [ 3.105908829859141, 42.058561262224941 ], [ 3.106210975133856, 42.058560981302932 ], [ 3.106210597636582, 42.058335816939973 ], [ 3.10651274177921, 42.058335535224842 ], [ 3.106511984662972, 42.057885206521739 ], [ 3.107116268786787, 42.057884640713965 ], [ 3.107116649477446, 42.058109805088044 ], [ 3.107418792600187, 42.058109520988836 ], [ 3.107419556129136, 42.058559849660874 ], [ 3.10772170132179, 42.058559564761872 ], [ 3.107722084220614, 42.058784729104836 ], [ 3.108024230476271, 42.058784443408143 ], [ 3.108024998300856, 42.059234772018073 ], [ 3.108327146747414, 42.059234485566463 ], [ 3.108328301719382, 42.059909978430625 ] ], [ [ 3.135820705670866, 42.058304428986489 ], [ 3.135518561942871, 42.058304787811423 ], [ 3.135519042973155, 42.05852995193154 ], [ 3.134612608615006, 42.058531023777299 ], [ 3.134613086448599, 42.05875618785192 ], [ 3.132800211181292, 42.058758310038819 ], [ 3.132799739751857, 42.058533145947578 ], [ 3.132497594902239, 42.05853349682117 ], [ 3.132496654194081, 42.058083168561566 ], [ 3.132798796908933, 42.05808281764844 ], [ 3.13279832549562, 42.05785765353059 ], [ 3.133704750345469, 42.057856596027136 ], [ 3.133704275735502, 42.057631431863655 ], [ 3.134308556787039, 42.057630722934981 ], [ 3.134309033531533, 42.057855887047872 ], [ 3.135517599898863, 42.057854459589549 ], [ 3.135518080918168, 42.058079623727423 ], [ 3.135820223578731, 42.058079264860289 ], [ 3.135820705670866, 42.058304428986489 ] ], [ [ 3.117074894370128, 42.051345078140734 ], [ 3.116772783407153, 42.051345387620245 ], [ 3.116773612828034, 42.051795716725458 ], [ 3.116169386680319, 42.051796333263383 ], [ 3.116169799263853, 42.052021497807509 ], [ 3.115867685085766, 42.05202180490857 ], [ 3.115867273569231, 42.051796640362042 ], [ 3.115565160453464, 42.051796946665476 ], [ 3.115564750008605, 42.051571782107672 ], [ 3.11465841389464, 42.051572696239369 ], [ 3.114657192190863, 42.050897202536348 ], [ 3.115261409849587, 42.050896593924733 ], [ 3.115261000490456, 42.050671429374113 ], [ 3.115563108276102, 42.050671123877862 ], [ 3.115563518702171, 42.050896288426109 ], [ 3.116469845171456, 42.050895367204042 ], [ 3.116469017922244, 42.050445038023057 ], [ 3.11707323131748, 42.050444419923643 ], [ 3.117074894370128, 42.051345078140734 ] ], [ [ 3.106516906287482, 42.06081234252526 ], [ 3.106214750342862, 42.060812624264699 ], [ 3.106215127887453, 42.061037788530101 ], [ 3.105006499856497, 42.061038907496716 ], [ 3.105006126581857, 42.060813743222575 ], [ 3.10470397061586, 42.060814020984601 ], [ 3.104703226214354, 42.060363692450359 ], [ 3.10500538004541, 42.060363414692645 ], [ 3.10500500678353, 42.060138250391873 ], [ 3.105911464988453, 42.060137412397637 ], [ 3.105911841452688, 42.060362576691851 ], [ 3.106516149076341, 42.060362014017251 ], [ 3.106516906287482, 42.06081234252526 ] ], [ [ 3.111367627689073, 42.07003945196255 ], [ 3.111065428037997, 42.070039746524131 ], [ 3.111065822846735, 42.070264910344896 ], [ 3.110763622183605, 42.070265204112985 ], [ 3.110763228442775, 42.070040040244891 ], [ 3.109856629449152, 42.070040916768036 ], [ 3.109855457865327, 42.069365425135018 ], [ 3.111064243638623, 42.069364254918575 ], [ 3.111064638433862, 42.069589418765929 ], [ 3.11136683594908, 42.069589124253987 ], [ 3.111367627689073, 42.07003945196255 ] ], [ [ 3.112872608053907, 42.066660508691562 ], [ 3.11226824088956, 42.066661104861289 ], [ 3.112268639902105, 42.066886268850865 ], [ 3.111664270523533, 42.066886861842725 ], [ 3.111663079906445, 42.066211369923558 ], [ 3.111360898413709, 42.06621166519659 ], [ 3.111360502618185, 42.065986501218489 ], [ 3.111662683043075, 42.06598620590276 ], [ 3.111662286184228, 42.065761041873074 ], [ 3.11196446553693, 42.065760745809072 ], [ 3.111964863463453, 42.065985909791401 ], [ 3.112267043879296, 42.065985612884418 ], [ 3.112267442878201, 42.066210776900583 ], [ 3.112871805771317, 42.066210180695158 ], [ 3.112872608053907, 42.066660508691562 ] ], [ [ 3.107123502650575, 42.062162761989605 ], [ 3.106821340369923, 42.062163045333229 ], [ 3.106821720075449, 42.062388209541027 ], [ 3.10651955666241, 42.062388492046381 ], [ 3.106519935304689, 42.062613656247514 ], [ 3.106217770819826, 42.062613938004596 ], [ 3.10621739324512, 42.062388773801246 ], [ 3.105915229823528, 42.062389054760594 ], [ 3.105914476822206, 42.061938726367956 ], [ 3.106216638108689, 42.061938445413006 ], [ 3.106216260546889, 42.061713281183067 ], [ 3.106518420761608, 42.061712999479852 ], [ 3.106518042136586, 42.061487835243241 ], [ 3.107122360357424, 42.061487269364697 ], [ 3.107123502650575, 42.062162761989605 ] ], [ [ 3.11979219123894, 42.050441598956802 ], [ 3.119490084586817, 42.050441915583342 ], [ 3.119490508878302, 42.050667080153843 ], [ 3.118886293425618, 42.050667710981251 ], [ 3.118885871268054, 42.050442546450867 ], [ 3.118583764661791, 42.05044286064674 ], [ 3.11858334357595, 42.050217696105022 ], [ 3.118885449115218, 42.050217381866553 ], [ 3.118885026967192, 42.049992217273385 ], [ 3.119791340536725, 42.04999126983919 ], [ 3.11979219123894, 42.050441598956802 ] ], [ [ 3.108625820904422, 42.057207719223271 ], [ 3.107719404383206, 42.057208578652663 ], [ 3.107718638771832, 42.056758249833614 ], [ 3.108020775482071, 42.056757964157008 ], [ 3.108020391615747, 42.056532799781451 ], [ 3.108624662888567, 42.056532226046599 ], [ 3.108625820904422, 42.057207719223271 ] ], [ [ 3.128572907070385, 42.06011413523305 ], [ 3.128270754735543, 42.060114475034432 ], [ 3.128270299285275, 42.059889310910819 ], [ 3.127968147952243, 42.059889649914126 ], [ 3.127966784834912, 42.059214157527187 ], [ 3.128268932965716, 42.059213818531838 ], [ 3.128269388400407, 42.059438982682032 ], [ 3.128571537532984, 42.059438642888658 ], [ 3.128572907070385, 42.06011413523305 ] ] ], [ [ [ 3.104698015878607, 42.057211391627334 ], [ 3.104696899486223, 42.056535898364473 ], [ 3.104394763795931, 42.056536175289871 ], [ 3.104394392740832, 42.056311010834008 ], [ 3.104092258113557, 42.0563112869619 ], [ 3.104092628101412, 42.056536451419916 ], [ 3.103790492402688, 42.056536726754587 ], [ 3.103791230256434, 42.056987055603308 ], [ 3.104093368089694, 42.056986780264317 ], [ 3.104093738090195, 42.057211944695752 ], [ 3.104698015878607, 42.057211391627334 ] ] ] ] } },
{ "type": "Feature", "properties": { "GRID_CODE": 2, "CODI_FINAL": "2004170107", "MUNICIPI": "Girona", "DATA_INCEN": "14/11/04" }, "geometry": { "type": "MultiPolygon", "coordinates": [ [ [ [ 2.835754750671019, 41.97118813049952 ], [ 2.835759935805608, 41.96916162489881 ], [ 2.835458214075831, 41.969161194581048 ], [ 2.8354593683671, 41.968710859927299 ], [ 2.834855929177399, 41.968709996926528 ], [ 2.83485650843818, 41.96848482957062 ], [ 2.834253071460282, 41.968483963405042 ], [ 2.834252490074517, 41.968709130754128 ], [ 2.833649050937879, 41.968708261409937 ], [ 2.833647300365734, 41.969383763338413 ], [ 2.83334557761986, 41.969383327466652 ], [ 2.833344993019893, 41.969608494769986 ], [ 2.833043269218161, 41.969608058101834 ], [ 2.833042683549078, 41.969833225347841 ], [ 2.832740958691499, 41.969832787883291 ], [ 2.83274037195304, 41.970057955162012 ], [ 2.833645549733562, 41.970059265187047 ], [ 2.833643799041361, 41.970734766955886 ], [ 2.833342069920065, 41.970734331063525 ], [ 2.833341485280006, 41.970959498313654 ], [ 2.832738024932247, 41.970958624143144 ], [ 2.832736851381677, 41.971408958557973 ], [ 2.832435119092601, 41.971408520276363 ], [ 2.832433943389775, 41.971858854693842 ], [ 2.832132208982097, 41.97185841561231 ], [ 2.832130442189527, 41.972533917116635 ], [ 2.831828704660995, 41.972533477186751 ], [ 2.831828114593576, 41.972758644348581 ], [ 2.831224637370747, 41.972757762192778 ], [ 2.831224045231612, 41.972982929293849 ], [ 2.830620565910424, 41.972982043958929 ], [ 2.830619971638935, 41.973207211089218 ], [ 2.831525193849255, 41.973208537912512 ], [ 2.831525784932545, 41.972983370771786 ], [ 2.832129264294197, 41.972984251393484 ], [ 2.832129853245287, 41.972759084236962 ], [ 2.832431591903719, 41.972759523332336 ], [ 2.83243217978525, 41.97253435620852 ], [ 2.833035654996981, 41.972535231968209 ], [ 2.833036240746398, 41.972310064828655 ], [ 2.833337977299544, 41.972310501538026 ], [ 2.83333856197971, 41.972085334341124 ], [ 2.834243768430812, 41.972086639700763 ], [ 2.834244349916263, 41.971861472484704 ], [ 2.834847818831799, 41.971862338752615 ], [ 2.834848398185164, 41.971637171565924 ], [ 2.835451865001876, 41.971638034655001 ], [ 2.835452442223436, 41.971412867407608 ], [ 2.835150709874425, 41.971412436262959 ], [ 2.835151288152024, 41.971187269010109 ], [ 2.835754750671019, 41.97118813049952 ] ] ], [ [ [ 2.836951952629726, 41.975017686129284 ], [ 2.8369525246361, 41.974792518998058 ], [ 2.836650776373435, 41.974792091813107 ], [ 2.836651349436091, 41.974566924676381 ], [ 2.836349602182558, 41.974566496656585 ], [ 2.836350750413708, 41.974116162408293 ], [ 2.836049005292352, 41.974115733602169 ], [ 2.836049580460925, 41.973890566445569 ], [ 2.835747836408915, 41.973890136849739 ], [ 2.835748412633684, 41.973664969687654 ], [ 2.834541440802961, 41.973663243432391 ], [ 2.834542021272179, 41.973438076275023 ], [ 2.833636795611862, 41.973436773232841 ], [ 2.833637379262685, 41.973211606076845 ], [ 2.832732156910998, 41.973210295907577 ], [ 2.832730983226167, 41.973660630190061 ], [ 2.831524011662528, 41.973658872122286 ], [ 2.831522829448657, 41.974109206341623 ], [ 2.830014104503337, 41.974106990889425 ], [ 2.830013508072298, 41.974332157968362 ], [ 2.830315254122667, 41.97433260263945 ], [ 2.830314658747735, 41.974557769667989 ], [ 2.830012911634561, 41.974557324993384 ], [ 2.830011718738515, 41.975007659061866 ], [ 2.831822214152321, 41.975010315344839 ], [ 2.831821624071186, 41.975235482364177 ], [ 2.832425124762548, 41.975236361424002 ], [ 2.832426300666846, 41.974786027317613 ], [ 2.83272804889694, 41.974786465650986 ], [ 2.832728635776248, 41.97456129855852 ], [ 2.833935624451945, 41.974563043947221 ], [ 2.833935041823912, 41.974788211053415 ], [ 2.834236790087414, 41.974788645421334 ], [ 2.834237953211077, 41.974338311238249 ], [ 2.834841445506897, 41.974339177536123 ], [ 2.834840866073946, 41.974564344661424 ], [ 2.835444360461393, 41.974565207838694 ], [ 2.835442628499905, 41.975240709136713 ], [ 2.836649630168232, 41.975242426014837 ], [ 2.83665020324399, 41.975017258895853 ], [ 2.836951952629726, 41.975017686129284 ] ] ], [ [ [ 2.831222268773359, 41.973658430633911 ], [ 2.831222860932798, 41.973433263559457 ], [ 2.830921119113285, 41.973432821236479 ], [ 2.830920525890957, 41.9736579883525 ], [ 2.831222268773359, 41.973658430633911 ] ] ] ] } },
{ "type": "Feature", "properties": { "GRID_CODE": 2, "CODI_FINAL": "2004080112", "MUNICIPI": "Santa Coloma de Gramenet", "DATA_INCEN": "08/08/04" }, "geometry": { "type": "Polygon", "coordinates": [ [ [ 2.203571214030545, 41.471516765155926 ], [ 2.203579475241687, 41.470841266963198 ], [ 2.203280103311196, 41.470839195446594 ], [ 2.203288367347009, 41.470163697266898 ], [ 2.202988998494996, 41.47016162501977 ], [ 2.202991754146791, 41.469936458943174 ], [ 2.20269238636175, 41.469934385933328 ], [ 2.20269514301785, 41.469709219864079 ], [ 2.202395776299792, 41.469707146091551 ], [ 2.202406806812512, 41.468806481835273 ], [ 2.200610632078073, 41.468794023188615 ], [ 2.20060786829822, 41.469019189179463 ], [ 2.200308504906737, 41.469017110002994 ], [ 2.200302975182097, 41.469467441879956 ], [ 2.200602340644239, 41.469469521134215 ], [ 2.200596812865105, 41.469919853007909 ], [ 2.199998077828638, 41.469915693745023 ], [ 2.200000843805464, 41.469690527822898 ], [ 2.199701477429923, 41.469688447039708 ], [ 2.199704244410921, 41.469463281124952 ], [ 2.199404879042576, 41.469461199578753 ], [ 2.199402111025956, 41.469686365477116 ], [ 2.198803378312466, 41.469682200014894 ], [ 2.198800608193094, 41.469907365871492 ], [ 2.198501240848517, 41.469905281910442 ], [ 2.198498469662014, 41.470130447741639 ], [ 2.198199101372613, 41.470128363030639 ], [ 2.198196329118945, 41.470353528836426 ], [ 2.197597590443658, 41.470349357043638 ], [ 2.197594816087133, 41.470574522807603 ], [ 2.197295445761703, 41.470572435681227 ], [ 2.197289894882648, 41.4710227671493 ], [ 2.197589267280001, 41.471024854263511 ], [ 2.197586492828838, 41.471250020000447 ], [ 2.197287119395771, 41.471247932869844 ], [ 2.197284343877347, 41.471473098581377 ], [ 2.196984969440138, 41.471471010655264 ], [ 2.196987745994274, 41.471245844960166 ], [ 2.196688372684215, 41.471243756271875 ], [ 2.196693927769167, 41.470793424887539 ], [ 2.196394556502202, 41.470791335452674 ], [ 2.196397335032982, 41.470566169763465 ], [ 2.195798594665207, 41.470561988589516 ], [ 2.195801375235723, 41.47033682292421 ], [ 2.195202637125609, 41.470332638667529 ], [ 2.195199854483766, 41.470557804299894 ], [ 2.195499224588611, 41.470559896834416 ], [ 2.195490879520981, 41.471235393681496 ], [ 2.195191506368953, 41.471233301097961 ], [ 2.1951859408005, 41.471683632281717 ], [ 2.194886565548804, 41.471681538885768 ], [ 2.19488099778286, 41.47213186995554 ], [ 2.194581620491351, 41.472129775747568 ], [ 2.194576050526706, 41.472580106793401 ], [ 2.19517480922456, 41.472584294495803 ], [ 2.195172026266297, 41.472809460038171 ], [ 2.195471406728423, 41.472811552737426 ], [ 2.195468624774307, 41.473036718287304 ], [ 2.196067387865021, 41.473040901381452 ], [ 2.196064607950883, 41.473266066955254 ], [ 2.19696275587154, 41.473272335802186 ], [ 2.196965532678258, 41.473047170179051 ], [ 2.1981630595573, 41.473055517713689 ], [ 2.198160286894367, 41.473280683357473 ], [ 2.198759052624383, 41.47328485250577 ], [ 2.198756282001563, 41.473510018173371 ], [ 2.199355049869347, 41.473514184237622 ], [ 2.199357818421079, 41.473289018492181 ], [ 2.199956584403588, 41.473293181362585 ], [ 2.199959350852218, 41.473068015575379 ], [ 2.200258732854841, 41.473070095825562 ], [ 2.200261498236215, 41.472844930012975 ], [ 2.200860260203774, 41.472849088187907 ], [ 2.200863023482127, 41.472623922333604 ], [ 2.201162403507471, 41.472626000213786 ], [ 2.201165165718627, 41.472400834334124 ], [ 2.201464544739602, 41.472402911418847 ], [ 2.201467305883584, 41.472177745513868 ], [ 2.201766683899625, 41.472179821848208 ], [ 2.201769443976457, 41.471954655917884 ], [ 2.202667575047387, 41.471960880061943 ], [ 2.202670331985604, 41.471735714073617 ], [ 2.203269084158071, 41.471739859575287 ], [ 2.203271838992924, 41.471514693590386 ], [ 2.203571214030545, 41.471516765155926 ] ] ] } },
{ "type": "Feature", "properties": { "GRID_CODE": 2, "CODI_FINAL": "2004430090", "MUNICIPI": "Pontils", "DATA_INCEN": "10/10/04" }, "geometry": { "type": "Polygon", "coordinates": [ [ [ 1.410873754414635, 41.451388591950675 ], [ 1.410901216244659, 41.450263082595114 ], [ 1.410302834378973, 41.45025481666277 ], [ 1.410324810987441, 41.4493544092416 ], [ 1.409726437637604, 41.449346140503401 ], [ 1.409737429700149, 41.448895936888832 ], [ 1.409438245156809, 41.448891801372739 ], [ 1.409443742127195, 41.448666699606335 ], [ 1.409144558679677, 41.448662563345046 ], [ 1.409150056620932, 41.448437461601749 ], [ 1.407953327705399, 41.448420909046177 ], [ 1.407958829718555, 41.448195807378667 ], [ 1.407659648649083, 41.448191667338854 ], [ 1.407665151633023, 41.447966565694479 ], [ 1.407365971659377, 41.447962424909534 ], [ 1.407376979564971, 41.447512221703462 ], [ 1.407077801721544, 41.447508080160958 ], [ 1.407083306583325, 41.447282978598437 ], [ 1.406484953209431, 41.447274693291341 ], [ 1.406495966879431, 41.446824490223364 ], [ 1.405299269087694, 41.44680791058191 ], [ 1.405293758150465, 41.447033012012682 ], [ 1.404994582811683, 41.447028865091525 ], [ 1.404989070778579, 41.447253966480233 ], [ 1.404390718280066, 41.447245670330446 ], [ 1.40439623237967, 41.447020569006995 ], [ 1.404097057227736, 41.447016419797812 ], [ 1.404113602249172, 41.446341115913796 ], [ 1.403814430320513, 41.446336965980684 ], [ 1.403819946234786, 41.446111864729794 ], [ 1.403221604570977, 41.446103562640062 ], [ 1.403216086529374, 41.446328663869807 ], [ 1.402916914787685, 41.446324511648697 ], [ 1.402900357367572, 41.446999815140764 ], [ 1.403199532208927, 41.447003967459885 ], [ 1.403194013976322, 41.44722906865271 ], [ 1.402894838101723, 41.447224916300918 ], [ 1.40288931877427, 41.447450017406595 ], [ 1.403188495681022, 41.447454169836078 ], [ 1.40317194041998, 41.448129473284553 ], [ 1.403770300743171, 41.448137775917999 ], [ 1.403775817160007, 41.447912674697626 ], [ 1.40467335495407, 41.447925122761177 ], [ 1.404662328197681, 41.448375325387538 ], [ 1.403764784203809, 41.448362877128091 ], [ 1.4037592676616, 41.448587978329599 ], [ 1.403460085462976, 41.448583827292218 ], [ 1.403454567824748, 41.448808928451626 ], [ 1.404651301251627, 41.448825527931952 ], [ 1.404640274054959, 41.449275730438607 ], [ 1.405238645337052, 41.449284025666209 ], [ 1.405244156900551, 41.449058924329854 ], [ 1.405842526306624, 41.449067216380406 ], [ 1.405831507251552, 41.449517419129158 ], [ 1.406130694145707, 41.449521564030974 ], [ 1.406125185557077, 41.449746665446327 ], [ 1.406723561540095, 41.449754952981003 ], [ 1.40671254830867, 41.450205155913793 ], [ 1.407310928675598, 41.450213440467778 ], [ 1.407305424032864, 41.450438541985214 ], [ 1.409399764609516, 41.450467513698399 ], [ 1.409405262017179, 41.450242411998069 ], [ 1.40910607133599, 41.450238275508966 ], [ 1.409117068031825, 41.449788072100041 ], [ 1.409715445325237, 41.449796344080248 ], [ 1.409704452702099, 41.450246547663532 ], [ 1.410003643509318, 41.450250682552053 ], [ 1.40999814816741, 41.450475784362489 ], [ 1.409698956326763, 41.450471649441432 ], [ 1.40968796338981, 41.450921852923898 ], [ 1.410286351267328, 41.450930122118336 ], [ 1.410269867592643, 41.451605427533977 ], [ 1.410569064665659, 41.451609561061247 ], [ 1.410574558252838, 41.451384459232933 ], [ 1.410873754414635, 41.451388591950675 ] ], [ [ 1.40524966840142, 41.448833822984028 ], [ 1.404950484795208, 41.448829675846852 ], [ 1.404955997266781, 41.448604574524218 ], [ 1.405255179838556, 41.448608721673779 ], [ 1.40524966840142, 41.448833822984028 ] ] ] } },
{ "type": "Feature", "properties": { "GRID_CODE": 2, "CODI_FINAL": "2004430113", "MUNICIPI": "Ulldecona", "DATA_INCEN": "15/11/04" }, "geometry": { "type": "Polygon", "coordinates": [ [ [ 0.525111690700943, 40.608084929972847 ], [ 0.52512829767223, 40.607634907623215 ], [ 0.524833059163629, 40.607628578952138 ], [ 0.524841363497835, 40.607403567789483 ], [ 0.524546126071343, 40.607397238414528 ], [ 0.524554431300129, 40.607172227291656 ], [ 0.524259195014773, 40.607165897214102 ], [ 0.524275807167688, 40.60671587503775 ], [ 0.523980572893683, 40.606709544305069 ], [ 0.523997186648097, 40.606259522187891 ], [ 0.523701954444467, 40.606253190801375 ], [ 0.523710262169278, 40.606028179777482 ], [ 0.523415031106752, 40.606021847688396 ], [ 0.523431648251512, 40.605571825710044 ], [ 0.523136419200249, 40.605565492965894 ], [ 0.523177965360114, 40.604440438136457 ], [ 0.522882741402781, 40.604434104889869 ], [ 0.522891051341851, 40.604209093934379 ], [ 0.522595828407477, 40.604202759982748 ], [ 0.522612449980503, 40.603752738141232 ], [ 0.522317229116268, 40.603746403535872 ], [ 0.522325540750192, 40.603521392649824 ], [ 0.522030320967946, 40.603515057340765 ], [ 0.522022008345877, 40.603740068176783 ], [ 0.521431567145667, 40.603727395198604 ], [ 0.521398307756183, 40.60462743799404 ], [ 0.521103083373724, 40.604621100174789 ], [ 0.521094767317825, 40.60484611080966 ], [ 0.520799541982005, 40.604839772185294 ], [ 0.520807859026099, 40.604614761600466 ], [ 0.520512634772379, 40.604608422272392 ], [ 0.520529270553575, 40.604158401217276 ], [ 0.519938826341254, 40.60414572045633 ], [ 0.519947146066484, 40.6039207100361 ], [ 0.519651925060671, 40.603914368551941 ], [ 0.519676886640561, 40.60323933729024 ], [ 0.519972104683622, 40.603245678579171 ], [ 0.519980424034826, 40.603020668073114 ], [ 0.520866075704128, 40.603039687266048 ], [ 0.520857759317269, 40.603264697922292 ], [ 0.521152977735946, 40.603271036196276 ], [ 0.521161293134687, 40.603046025489974 ], [ 0.521456510659131, 40.603052362960184 ], [ 0.521464824975891, 40.602827352193621 ], [ 0.521169608439554, 40.602821014773475 ], [ 0.521186238766016, 40.602370993354846 ], [ 0.521481453326159, 40.602377330674926 ], [ 0.521523022622507, 40.601252276588362 ], [ 0.520932603476591, 40.601239601694985 ], [ 0.520924287840787, 40.601464612432849 ], [ 0.520038656920962, 40.60144559429127 ], [ 0.520046975520857, 40.601220583703565 ], [ 0.518570930766937, 40.60118887197676 ], [ 0.518562607226948, 40.601413882314027 ], [ 0.517676978504283, 40.601394846037714 ], [ 0.517668651906246, 40.601619856214441 ], [ 0.516783021122879, 40.601600813050887 ], [ 0.516791350684988, 40.601375803024538 ], [ 0.516200932569586, 40.601363103913179 ], [ 0.516192601031434, 40.601588113839249 ], [ 0.515602181316218, 40.601575411612863 ], [ 0.515610514830406, 40.60135040178713 ], [ 0.515315306160967, 40.601344049594836 ], [ 0.515306971599717, 40.601569059369155 ], [ 0.51501176203635, 40.601562706373031 ], [ 0.515003426452029, 40.601787716088232 ], [ 0.514117795185386, 40.601768652423438 ], [ 0.514126133733781, 40.601543642858758 ], [ 0.513535715395092, 40.601530930082127 ], [ 0.51355239616151, 40.601080911122928 ], [ 0.514438017912229, 40.601099978856851 ], [ 0.514446355190234, 40.600874969211361 ], [ 0.514741561660426, 40.600881323565559 ], [ 0.514774905879407, 40.599981284680773 ], [ 0.515070108490171, 40.599987638125633 ], [ 0.515078443321728, 40.599762628328726 ], [ 0.515373645040315, 40.5997689809248 ], [ 0.515381978789843, 40.599543971067519 ], [ 0.514791577481644, 40.599531265223376 ], [ 0.514799913112922, 40.599306255456241 ], [ 0.514504713558355, 40.599299901453257 ], [ 0.514513050083436, 40.599074891726076 ], [ 0.51421785161088, 40.59906853701969 ], [ 0.514226189029738, 40.59884352733247 ], [ 0.513340597199563, 40.59882445884346 ], [ 0.513348937487929, 40.598599449296621 ], [ 0.51187295788752, 40.598567653659735 ], [ 0.511856267339525, 40.599017672196005 ], [ 0.511561069714474, 40.59901131070712 ], [ 0.511552723310443, 40.599236319932203 ], [ 0.511847921923383, 40.599242681471324 ], [ 0.511839576353997, 40.599467690735153 ], [ 0.511544376812188, 40.599461329147069 ], [ 0.511477601376603, 40.601261402451982 ], [ 0.511772808881064, 40.60126776444325 ], [ 0.511747769523455, 40.601942791932139 ], [ 0.511452559054958, 40.601936429790122 ], [ 0.511444211425937, 40.602161438882405 ], [ 0.511149000063654, 40.602155075936487 ], [ 0.51114065135235, 40.60238008496831 ], [ 0.511435863702677, 40.602386447964491 ], [ 0.511419167916062, 40.602836466051706 ], [ 0.511123953648647, 40.602830102956318 ], [ 0.511107255507238, 40.60328012094719 ], [ 0.510812039357914, 40.603273756997567 ], [ 0.510803689128198, 40.603498765926787 ], [ 0.511098906324668, 40.603505129927925 ], [ 0.511090557047842, 40.603730138898463 ], [ 0.512271430669572, 40.603755587565495 ], [ 0.512263085250973, 40.603980596726785 ], [ 0.513148744465218, 40.603999675464472 ], [ 0.513132059274268, 40.604449694057699 ], [ 0.513427281177025, 40.604456052229871 ], [ 0.51341893936939, 40.604681061560122 ], [ 0.513714162354486, 40.604687419028721 ], [ 0.513705821499903, 40.604912428400233 ], [ 0.514886718275456, 40.604937850936537 ], [ 0.514878381279471, 40.605162860498574 ], [ 0.515173606711644, 40.605169214298741 ], [ 0.515165270609732, 40.605394223900738 ], [ 0.51546049712422, 40.605400576997283 ], [ 0.515468832237916, 40.605175567345093 ], [ 0.516354509322247, 40.60519462196028 ], [ 0.516346177173177, 40.605419631762928 ], [ 0.516641404063996, 40.605425981844327 ], [ 0.516624741460111, 40.605876001519292 ], [ 0.516919970421442, 40.605882350947176 ], [ 0.51691163996666, 40.606107360819479 ], [ 0.517206870010272, 40.606113709543727 ], [ 0.517198540390662, 40.606338719454655 ], [ 0.517789002736515, 40.606351414741958 ], [ 0.517780675058447, 40.60657642474424 ], [ 0.518371139756905, 40.606589117116499 ], [ 0.518362813961389, 40.606814127208793 ], [ 0.518953280953359, 40.606826816664714 ], [ 0.518944957040442, 40.607051826847012 ], [ 0.519830661286631, 40.607070855529358 ], [ 0.519822340185625, 40.607295865850446 ], [ 0.520117576110569, 40.607302207286963 ], [ 0.520092615387709, 40.607977238298012 ], [ 0.520387854371596, 40.607983579130902 ], [ 0.520379534930584, 40.608208589512593 ], [ 0.521560495697983, 40.608233945549493 ], [ 0.521568811185544, 40.608008934967586 ], [ 0.522159290186186, 40.608021608340891 ], [ 0.522142663070673, 40.608471629694641 ], [ 0.522437904629487, 40.60847796534928 ], [ 0.522429591920995, 40.608702976015891 ], [ 0.523020077413379, 40.608715645211134 ], [ 0.523011766587846, 40.608940655967587 ], [ 0.524192742594675, 40.608965985465169 ], [ 0.524201049468243, 40.608740974463714 ], [ 0.524496292731197, 40.608747304892461 ], [ 0.524504598522583, 40.608522293830809 ], [ 0.524799840890919, 40.60852862345569 ], [ 0.524816450215618, 40.608078601201797 ], [ 0.525111690700943, 40.608084929972847 ] ], [ [ 0.513772545757464, 40.603112353188529 ], [ 0.512886897835467, 40.603093279575788 ], [ 0.512895240901042, 40.602868270273198 ], [ 0.512600026162529, 40.602861910946352 ], [ 0.512608370121991, 40.602636901683766 ], [ 0.512903583931477, 40.602643260961685 ], [ 0.51291192680868, 40.602418251638674 ], [ 0.513502352675024, 40.602430967831694 ], [ 0.513494011773936, 40.602655977255118 ], [ 0.513789225865945, 40.602662334271898 ], [ 0.513772545757464, 40.603112353188529 ] ], [ [ 0.521356731478931, 40.605752491316622 ], [ 0.520471043671851, 40.605733474844122 ], [ 0.520479362079773, 40.605508464350166 ], [ 0.52018413396712, 40.60550212406806 ], [ 0.520192453269357, 40.605277113613994 ], [ 0.521373362271457, 40.605302470018202 ], [ 0.521356731478931, 40.605752491316622 ] ] ] } },
{ "type": "Feature", "properties": { "GRID_CODE": 2, "CODI_FINAL": "2004080134", "MUNICIPI": "Sant Vicenç de Castellet", "DATA_INCEN": "20/08/04" }, "geometry": { "type": "Polygon", "coordinates": [ [ [ 1.864914769689858, 41.674046966466022 ], [ 1.864911859066013, 41.674054737430971 ], [ 1.864852816062069, 41.67421794821017 ], [ 1.864582290548999, 41.674220477071216 ], [ 1.864417422264846, 41.674130452428635 ], [ 1.864029828174971, 41.674480210228296 ], [ 1.863819516403932, 41.674608127270133 ], [ 1.863744507479656, 41.674929773505845 ], [ 1.863929631421752, 41.675051198014685 ], [ 1.8639843747967, 41.67509333724319 ], [ 1.864133366250886, 41.675297601192426 ], [ 1.864246782042112, 41.675158326973843 ], [ 1.864344136424573, 41.675143689137926 ], [ 1.864560378617227, 41.675073027476948 ], [ 1.864692312987717, 41.675063930598689 ], [ 1.864879813030301, 41.675050182316191 ], [ 1.864990853125078, 41.675046078626814 ], [ 1.865065669800582, 41.675130013856354 ], [ 1.865153533764539, 41.675260875979014 ], [ 1.86529450200471, 41.675132272235999 ], [ 1.865385378138148, 41.675091570602525 ], [ 1.86556658257412, 41.675041360497225 ], [ 1.865698334288078, 41.675042660255606 ], [ 1.865912020538986, 41.67511756515642 ], [ 1.865974338109684, 41.675123379561235 ], [ 1.866380084287583, 41.674924588309672 ], [ 1.867001983292567, 41.67505551288405 ], [ 1.86716722207361, 41.675124738279202 ], [ 1.867285105403063, 41.675125899588203 ], [ 1.867474802520665, 41.675382558181951 ], [ 1.868018609281509, 41.675616704034702 ], [ 1.868085767819318, 41.675742160288543 ], [ 1.869290440633496, 41.675863208377734 ], [ 1.869530598462785, 41.676011164020338 ], [ 1.869480420704225, 41.676104267045424 ], [ 1.869755524809673, 41.676236966402293 ], [ 1.87005388748547, 41.67622949913774 ], [ 1.870291203241623, 41.676143434387328 ], [ 1.87040306275384, 41.6760925353461 ], [ 1.870549685040832, 41.676036777858513 ], [ 1.870688918467681, 41.676006946602662 ], [ 1.870857433459109, 41.675889006160318 ], [ 1.871109523759222, 41.675751086812355 ], [ 1.871318644922138, 41.675690742108351 ], [ 1.871466173280504, 41.675582994356496 ], [ 1.871751390108278, 41.675533795269281 ], [ 1.87182866636627, 41.675477355695733 ], [ 1.87195575328137, 41.675348607555826 ], [ 1.871997177910442, 41.675359413528312 ], [ 1.872026639172183, 41.675260906365025 ], [ 1.872083293310313, 41.67519386472329 ], [ 1.872160568869984, 41.675137424914709 ], [ 1.872643886164025, 41.675261759832743 ], [ 1.872631287010346, 41.675188839127323 ], [ 1.872665958676794, 41.675189179053483 ], [ 1.872908207067771, 41.675217552794038 ], [ 1.872990875203452, 41.675249561860269 ], [ 1.873195460147604, 41.674852482287889 ], [ 1.873330180545038, 41.67488240127949 ], [ 1.873448380830545, 41.674865360072452 ], [ 1.873464085557204, 41.674959110316053 ], [ 1.873700531582272, 41.674922428051367 ], [ 1.873882091681431, 41.674851409097869 ], [ 1.874015292472411, 41.674769516721263 ], [ 1.874079421784338, 41.67467134848544 ], [ 1.874217628453783, 41.674501108294251 ], [ 1.874334560248533, 41.674556850946793 ], [ 1.874720312217724, 41.674309736262337 ], [ 1.874730957309896, 41.674096648638688 ], [ 1.874642622739197, 41.673991788163363 ], [ 1.87449206172441, 41.673875918959737 ], [ 1.874396793654266, 41.67377099042757 ], [ 1.874071792572811, 41.673715810570222 ], [ 1.873947067932348, 41.673709389435473 ], [ 1.873878179034607, 41.673682715799359 ], [ 1.87385189157427, 41.67359926154937 ], [ 1.873840650003363, 41.673448357243487 ], [ 1.87355933970375, 41.673274008415 ], [ 1.8732819745256, 41.673271290970007 ], [ 1.872851877261608, 41.673277475431149 ], [ 1.872539297407321, 41.67330560980443 ], [ 1.872282099662696, 41.673339486287013 ], [ 1.872186654574724, 41.673244953788434 ], [ 1.872273945685122, 41.673011818898871 ], [ 1.872212173747973, 41.67297481446159 ], [ 1.872121486233416, 41.673005123777926 ], [ 1.87205853503794, 41.67303570509668 ], [ 1.871648697112141, 41.673073282585456 ], [ 1.871517766013011, 41.67302519951172 ], [ 1.871336571685946, 41.673075419146755 ], [ 1.871295693315652, 41.67303341949674 ], [ 1.87126020576687, 41.673079869352947 ], [ 1.871038859274481, 41.67304649756813 ], [ 1.870998889165942, 41.672952508728102 ], [ 1.870915770907187, 41.672946492807718 ], [ 1.87070756660745, 41.672954847831434 ], [ 1.870477651527479, 41.673014987216632 ], [ 1.870428476908962, 41.673050902766136 ], [ 1.870308961747097, 41.673143325059456 ], [ 1.869877683654275, 41.673217084184387 ], [ 1.869781696886943, 41.673153743170779 ], [ 1.86966118057471, 41.673303352741669 ], [ 1.869567854729048, 41.673484428287843 ], [ 1.869656180299731, 41.673589292562255 ], [ 1.869592318191289, 41.673671861561218 ], [ 1.869508926381324, 41.673681441330359 ], [ 1.869369788415771, 41.673706072318964 ], [ 1.869300628641384, 41.673694992677191 ], [ 1.868975814552434, 41.673629400655827 ], [ 1.868824081937409, 41.673581109912377 ], [ 1.868641792082548, 41.673693712095414 ], [ 1.868604755271764, 41.673828542460235 ], [ 1.86854737075021, 41.673937173599839 ], [ 1.868531955263207, 41.674025418493486 ], [ 1.868481140603682, 41.674154913437171 ], [ 1.868368099742199, 41.674273396383676 ], [ 1.868218566616161, 41.674495516006743 ], [ 1.868087271122519, 41.674468224640748 ], [ 1.86808142940805, 41.674405769555932 ], [ 1.867987172670662, 41.674243647915716 ], [ 1.867795017963506, 41.67412736048594 ], [ 1.867251680001499, 41.673867219176017 ], [ 1.867078143299616, 41.673875909119772 ], [ 1.866445127274908, 41.673984066099059 ], [ 1.866252064266871, 41.673919765122832 ], [ 1.865939843681734, 41.673927085870929 ], [ 1.86584167046492, 41.673988515175722 ], [ 1.865577441377865, 41.674027507073745 ], [ 1.86559094478822, 41.674048439485453 ], [ 1.865473154746557, 41.67404207756536 ], [ 1.865354452107082, 41.674087704500309 ], [ 1.865166954946724, 41.674101453595618 ], [ 1.864919669273084, 41.674044414932744 ], [ 1.864914769689858, 41.674046966466022 ] ] ] } }
]
}
