{"type": "FeatureCollection", "features": [{"type": "Feature", "geometry": {"type": "Polygon", "coordinates": [[[1.9631365367732947, 41.44745933167395], [1.9631379707593473, 41.44736927108527], [1.9632576681427234, 41.44737034995503], [1.9632605357643358, 41.44719022876653], [1.963140838711897, 41.447189149903565], [1.9631422726783943, 41.44709908931052], [1.963022575797942, 41.447098010326435], [1.963025444042315, 41.44691788914279], [1.9631451405918345, 41.44691896812008], [1.9631480084792017, 41.446738846923814], [1.963028312260612, 41.4467377679533], [1.9630369167590507, 41.44619740434996], [1.9632763072172048, 41.446199562125706], [1.96328060838567, 41.445929380284], [1.9634003031281468, 41.44593045897492], [1.963401736672477, 41.445840398354726], [1.963162347524954, 41.44583824085517], [1.9631637813936806, 41.445748180240294], [1.96280469821765, 41.445744943067304], [1.9628061325762258, 41.445654882461156], [1.96268643836271, 41.445653803157875], [1.9626878728802206, 41.44556374255368], [1.9625681788386802, 41.44556266312929], [1.9625696135151238, 41.44547260252702], [1.9626893073912102, 41.44547368194802], [1.9626907418956787, 41.445383621340916], [1.9624513544809343, 41.445381462381185], [1.962452789309787, 41.44529140177942], [1.9620937087329449, 41.44528816241621], [1.9620922734077346, 41.445378223007786], [1.9618528860582225, 41.44537606280297], [1.961854321714337, 41.445286002218204], [1.9613755477554382, 41.44528168032807], [1.9613741114375152, 41.44537174089924], [1.9608953369212703, 41.44536741700336], [1.960892462942213, 41.44554753811414], [1.960413687206855, 41.445543212198906], [1.9604108118780335, 41.44572333327661], [1.9601714233877439, 41.44572116955832], [1.9601671093527608, 41.445991351143554], [1.9600474146210516, 41.44599026908742], [1.96004597643086, 41.44608032960951], [1.9599262815402312, 41.44607924742545], [1.9599219664340526, 41.44634942897279], [1.960161357214604, 41.4463515932368], [1.9601599191637222, 41.44644165375648], [1.9602796147292643, 41.44644273570511], [1.9602781768373077, 41.44653279622675], [1.960397872574847, 41.446533878054275], [1.9603935593561495, 41.446804059620625], [1.9608723443572114, 41.44680838572647], [1.9608694701691225, 41.446988506790646], [1.9611088633707114, 41.4469906691101], [1.961107426597801, 41.44708072964681], [1.9612271233738585, 41.44708181062317], [1.9612285599813029, 41.44699175008305], [1.961348256598425, 41.44699283093148], [1.9613496930338736, 41.44690277038651], [1.9612299965822173, 41.44690168954147], [1.961232869764455, 41.44672156845396], [1.9615919581462247, 41.4467248105951], [1.9615905220547631, 41.44681487114978], [1.9620693073170332, 41.44681919227502], [1.9620678718809037, 41.446909252841856], [1.9621875683782506, 41.44691033281528], [1.9621861331010617, 41.44700039338405], [1.962305829770399, 41.447001473236355], [1.9623043946521526, 41.44709153380706], [1.9624240914934798, 41.44709261353825], [1.9624226565341774, 41.44718267411092], [1.9625423535474944, 41.447183753720985], [1.9625394839402581, 41.44736387486873], [1.96301827338249, 41.447368192091005], [1.9630168392309675, 41.44745825267628], [1.9631365367732947, 41.44745933167395]], [[1.9620721781697172, 41.446639071137], [1.9623115701781493, 41.44664123093894], [1.9623101350859968, 41.446731291515476], [1.9620707427466377, 41.44672913170673], [1.9620721781697172, 41.446639071137]], [[1.9627989607181473, 41.44610518547729], [1.9629186557654683, 41.446106264673055], [1.9629172215397512, 41.44619632527532], [1.9627975263269712, 41.44619524607615], [1.9627989607181473, 41.44610518547729]]]}, "properties": {"area_ha": 4.17, "dnbr_threshold_core": 0.35, "dnbr_threshold_grow": 0.22, "dnbr_mean": 0.3863, "dnbr_max": 0.6624, "severity": "moderada", "severity_method": "dnbr_mean", "forest_mask": "esa_worldcover_2021_10_20", "part": 0, "fire_id": "558908", "burn_year": 2026, "source": "sentinel", "aoi_source": "effis", "dnbr_threshold": 0.35, "buffer_m": 1200.0, "post_windows": 2, "post_window_dates": [{"start": "2026-07-12", "end": "2026-08-04"}, {"start": "2026-08-04", "end": "2026-09-03"}], "pre_window": {"start": "2026-04-21", "end": "2026-06-28"}, "fire_date": "2026-07-05"}}]}
