{"type": "FeatureCollection", "features": [{"type": "Feature", "geometry": {"type": "Polygon", "coordinates": [[[0.8761682810943151, 41.42513823827951], [0.8762878748980678, 41.425140446876746], [0.8763025462246774, 41.42469037826673], [0.8760633602798629, 41.42468596101754], [0.8760750984206944, 41.42432590615661], [0.876314283046047, 41.42433032335023], [0.8763172172180681, 41.424240309617154], [0.8765564015668714, 41.424244726300024], [0.8765652030133882, 41.42397468504958], [0.8764456113271113, 41.42397247679109], [0.8764426773600034, 41.42406249053588], [0.8762034936975748, 41.42405807363237], [0.8762210992794315, 41.423517991223285], [0.8761015084577704, 41.423515782626886], [0.876107377208274, 41.42333575515842], [0.8762269677000877, 41.423337963740906], [0.8762299018904228, 41.423247949997354], [0.876110311563532, 41.42324574142181], [0.876116180234061, 41.42306571394383], [0.875877000279953, 41.423061296447905], [0.8758799349250644, 41.42297128272044], [0.8757603451329254, 41.42296907379312], [0.8757632799296259, 41.42287906007102], [0.8756436903157374, 41.42287685102643], [0.8756495601989817, 41.42269682359138], [0.8751712031960989, 41.42268798622655], [0.8751770743453485, 41.42250795884076], [0.8750574854577947, 41.42250574920294], [0.8750662925764034, 41.422235708133236], [0.8751858809692136, 41.4222379177502], [0.875191751985119, 41.42205789034857], [0.8749525758724844, 41.42205347101823], [0.874955511690259, 41.42196345732894], [0.8748359238188566, 41.42196124748442], [0.874832987836171, 41.42205126116676], [0.8747133998131937, 41.42204905119107], [0.8747104636522597, 41.42213906486487], [0.8744712873164933, 41.42213464452699], [0.874468350812396, 41.4222246581853], [0.874707527477988, 41.42222907853709], [0.8747016550894342, 41.42240910587676], [0.8748212437720638, 41.422411315880254], [0.8748183077226956, 41.42250132955467], [0.8749378965835773, 41.4225035394409], [0.8749320247746623, 41.42268356679889], [0.8750516139787127, 41.42268577657482], [0.875048678219169, 41.4227757902584], [0.875168267601472, 41.42277799991707], [0.8751594607375832, 41.42304804097911], [0.8748006911464105, 41.423041411567894], [0.8747889464954769, 41.4234014662117], [0.8746693559987405, 41.423399256131745], [0.8746634832634023, 41.423579283430236], [0.8747830740899852, 41.42358149352411], [0.8747742653817162, 41.42385153448083], [0.8748938567164143, 41.42385374447134], [0.8748586226620891, 41.424933908239105], [0.8749782159892986, 41.424936118188825], [0.8749694076704293, 41.425206159115994], [0.8748498138484091, 41.425203949145406], [0.8748527501329737, 41.425113935511554], [0.8747331564892283, 41.42511172542372], [0.8747302200397264, 41.42520173905061], [0.8746106262443827, 41.42519952883159], [0.8746164994599227, 41.42501950159012], [0.874377312569003, 41.425015080807235], [0.8743831863909265, 41.42483505358724], [0.8740244071442179, 41.424828421523024], [0.874030281902381, 41.42464839433841], [0.8737910964643577, 41.424643972369], [0.8737881587620812, 41.42473398594819], [0.8736685658981524, 41.4247317747702], [0.8736715037653623, 41.424641761197975], [0.8734323184074075, 41.42463733848328], [0.8734352565911366, 41.424547324923374], [0.8729568866951215, 41.424538478031224], [0.8729510089948567, 41.42471850509377], [0.8727118234672145, 41.42471408087457], [0.8727088842671908, 41.42480409438955], [0.872469698463087, 41.42479966965958], [0.8724667589198437, 41.42488968315905], [0.8722275728392835, 41.424885257918284], [0.8722158132132959, 41.42524531184468], [0.8723354069066412, 41.425247524555004], [0.8723295273433955, 41.42542755152263], [0.8724491213799715, 41.42542976412267], [0.8724461817432569, 41.42551977761106], [0.8728049644279194, 41.425526414686736], [0.8728079035698161, 41.425436401177464], [0.8737646566634594, 41.42545409452464], [0.8737617188410799, 41.42554410808956], [0.8738813132027854, 41.42554631920593], [0.8738842508602254, 41.42545630563405], [0.8740038450703357, 41.425458516619244], [0.8740009075778361, 41.42554853019807], [0.8743596907830457, 41.4255551624292], [0.8743567537720253, 41.425645176027324], [0.8744763483653872, 41.425647386529555], [0.8744734115059671, 41.42573740013303], [0.8747126010625953, 41.425741820778725], [0.8747096645197194, 41.425831834394536], [0.8749488544595905, 41.42583625455725], [0.8749459182332622, 41.425926268185385], [0.8755438941410584, 41.42593731645307], [0.8755585710157627, 41.4254872481228], [0.8757977598228001, 41.42549166649082], [0.8758036298195846, 41.425311639119826], [0.8760428180201911, 41.425316056963176], [0.8760457526687074, 41.42522604326141], [0.8761653466240681, 41.425228251989815], [0.8761682810943151, 41.42513823827951]], [[0.8755879237651417, 41.42458711134348], [0.8755908589667462, 41.42449709765683], [0.8759496367543936, 41.42450372479321], [0.8759467020475877, 41.42459373850071], [0.8755879237651417, 41.42458711134348]], [[0.8753810284229538, 41.423592542130294], [0.8753898345373327, 41.42332250105505], [0.8756290153743198, 41.423326919586344], [0.8756202102494836, 41.42359696070329], [0.8753810284229538, 41.423592542130294]]]}, "properties": {"area_ha": 5.47, "dnbr_threshold_core": 0.35, "dnbr_threshold_grow": 0.22, "dnbr_mean": 0.4743, "dnbr_max": 0.9438, "severity": "alta", "severity_method": "dnbr_mean", "forest_mask": "esa_worldcover_2021_10_20", "part": 29, "fire_id": "527106", "burn_year": 2026, "source": "sentinel", "aoi_source": "effis", "dnbr_threshold": 0.35, "buffer_m": 1200.0, "post_windows": 2, "post_window_dates": [{"start": "2026-06-21", "end": "2026-07-14"}, {"start": "2026-07-14", "end": "2026-08-13"}], "pre_window": {"start": "2026-03-31", "end": "2026-06-07"}, "fire_date": "2026-06-14"}}, {"type": "Feature", "geometry": {"type": "Polygon", "coordinates": [[[0.8717452863044168, 41.428659183211145], [0.8716256863963512, 41.428656969739365], [0.871616863034445, 41.428927009903354], [0.8714972626448401, 41.42892479628645], [0.8714884386677832, 41.4291948364153], [0.871368837796634, 41.42919262265326], [0.8713658962792559, 41.429282636019416], [0.8716050983648566, 41.42928706343317], [0.8716021571640572, 41.42937707681166], [0.8713629547485153, 41.42937264938398], [0.8713600132044121, 41.42946266274696], [0.8715992159498972, 41.42946709018856], [0.8715962747223766, 41.42955710356389], [0.8717158762801331, 41.4295593171053], [0.871704111896337, 41.429919370618585], [0.8718237141273515, 41.429921584063614], [0.8718148911941498, 41.43019162420284], [0.8716952884682049, 41.43018941073692], [0.8716923472987727, 41.43027942410653], [0.8714531415570075, 41.43027499678806], [0.8714502000442562, 41.43036501014215], [0.8713305970284383, 41.43036279628958], [0.8713276553373446, 41.43045280963514], [0.8709688458751327, 41.43044616731112], [0.8709629614629724, 41.430626193955675], [0.8710825649336398, 41.430628408201855], [0.8710796228724929, 41.430718421528724], [0.871797244967026, 41.43073170443849], [0.8717943038824112, 41.43082171780556], [0.8719139077765822, 41.430823931195974], [0.8719109668435912, 41.43091394456842], [0.871791362784436, 41.430911731171044], [0.8717884216730998, 41.431001744534946], [0.8719080258972394, 41.43100395793928], [0.8719050849375282, 41.431093971308556], [0.872024689340013, 41.43109618459562], [0.87201586687568, 41.43136622471481], [0.8718962619782349, 41.43136401140686], [0.8718992029780263, 41.43127399804235], [0.8717795982589287, 41.431271784617124], [0.8717737159160102, 41.43145181133065], [0.8718933209650835, 41.431454024769806], [0.8718903799385719, 41.431544038131165], [0.8716511695238082, 41.43153961111468], [0.8716482281539568, 41.43162962446052], [0.8712894121370567, 41.431622982983086], [0.8712864702588732, 41.43171299630644], [0.8711668647816431, 41.431710782225174], [0.8711639227251037, 41.43180079553998], [0.8712835283673246, 41.43180300962821], [0.8712776445441349, 41.43198303626703], [0.8713972505297035, 41.43198525024495], [0.8713913669830441, 41.43216527689134], [0.8712717606674881, 41.4321630628995], [0.8712658767373834, 41.43234308952562], [0.8711462701052013, 41.4323408753956], [0.8711403857916449, 41.432520902001464], [0.8710207788428354, 41.432518687733264], [0.8710090093953405, 41.43287874089811], [0.8712482246263152, 41.43288316936598], [0.8712511666782385, 41.43279315606321], [0.8714903816326744, 41.43279758402016], [0.8714933233412341, 41.432707570701886], [0.8718521453781121, 41.432714211684534], [0.8718492041645504, 41.4328042250237], [0.8719688117018989, 41.432806438443045], [0.8719658706399765, 41.43289645178759], [0.8720854783556865, 41.432898665089645], [0.8720707736706772, 41.43334873182343], [0.8721903822247604, 41.433350945036054], [0.872187441412683, 41.43344095838501], [0.8723070501451309, 41.433443171480334], [0.8723041094847003, 41.43353318483468], [0.8724237183955128, 41.433535397812705], [0.8724207778867299, 41.43362541117243], [0.8725403869759067, 41.433627624033164], [0.8725374466187734, 41.43371763739826], [0.8726570558863155, 41.4337198501417], [0.8726599960784416, 41.43362983676965], [0.8727796051943324, 41.433632049381885], [0.8727766651672142, 41.433722062760886], [0.8728962744614684, 41.43372427525583], [0.8728874547950035, 41.43399431540425], [0.8730070645976412, 41.433996527795806], [0.8730041248471195, 41.434086541182396], [0.8731237348281224, 41.43408875345667], [0.8731149159914657, 41.43435879362783], [0.8735933580291592, 41.434367641565814], [0.8735904190502879, 41.43445765498086], [0.8737100297581046, 41.434459866661676], [0.8737129685719629, 41.43436985323966], [0.8739521896976198, 41.4343742762146], [0.8739551281680997, 41.43428426277709], [0.8740747385859383, 41.43428647407122], [0.8740776768780567, 41.43419646062516], [0.8741972871442316, 41.43419867178808], [0.8742031633584006, 41.43401864487733], [0.8740835534222495, 41.434016433728324], [0.8740894299130505, 41.43383640682514], [0.8739698203202682, 41.4338341955658], [0.873975697087695, 41.433654168670195], [0.8736168693794937, 41.433647534188374], [0.8736256859155817, 41.433377493895705], [0.8731472511383037, 41.433368646263865], [0.8731443116462689, 41.4334586596685], [0.8730247028203255, 41.43345644744296], [0.8730335217513843, 41.43318640724514], [0.8729139134338095, 41.43318419491621], [0.8729109736384735, 41.43327420831012], [0.8727913651692492, 41.43327199584998], [0.8727943051295896, 41.43318198246304], [0.8726746968387247, 41.433179769885605], [0.8726864572065378, 41.43281971634986], [0.8728060648373945, 41.43282192889945], [0.8728031249304763, 41.432911942292726], [0.8730423405622566, 41.43291636703307], [0.8730452801391728, 41.432826353625885], [0.8732844954943669, 41.432830777855315], [0.8732874347279291, 41.43274076443261], [0.8734070422605544, 41.432742976353985], [0.8734099813157643, 41.43265296292275], [0.8732903739481389, 41.43265075100833], [0.8732991915286559, 41.432380710726], [0.8731795846693766, 41.4323784987082], [0.8731825240011746, 41.43228848528454], [0.8730629173202445, 41.43228627314945], [0.8730717357305093, 41.43201623288986], [0.8729521295579178, 41.432014020651394], [0.8729609483429823, 41.431743980398416], [0.8732001597115622, 41.431748404709325], [0.8731913419164544, 41.43201844500407], [0.8734305543284002, 41.43202286885974], [0.8734276153666486, 41.432112882302064], [0.8737864345796802, 41.432119517174606], [0.8737834960995635, 41.432209530636214], [0.8740227093049873, 41.43221395327725], [0.8740197711415143, 41.432303966751185], [0.8746178052136212, 41.43231502121418], [0.8746266171890629, 41.43204498068329], [0.8745070108429387, 41.43204277006006], [0.8745099483063934, 41.431952756553535], [0.8743903421386077, 41.431950545813], [0.8743874045101593, 41.43204055931256], [0.874028585591892, 41.432033926324614], [0.8740432760755787, 41.43158385891531], [0.874162881543359, 41.431586070000755], [0.874165819435065, 41.43149605650719], [0.8742854247512007, 41.431498267461436], [0.8742913001645971, 41.431318240455646], [0.8741716951784403, 41.4313160295153], [0.8741687573134258, 41.43140604301203], [0.8740491521756262, 41.431403831940486], [0.874046214132276, 41.4314938454287], [0.873926608842833, 41.43149163422595], [0.8739324852461647, 41.43131160726188], [0.8736932753672791, 41.43130718451148], [0.8736991523771716, 41.431127157568895], [0.8734599432116316, 41.431122734349344], [0.873462882026527, 41.4310327208896], [0.8733432776287681, 41.431030509100424], [0.8733462165952992, 41.43094049564603], [0.8734658208280729, 41.43094270742826], [0.8734687596162688, 41.43085269396534], [0.8735883636974074, 41.430854905616364], [0.8735913023072693, 41.43076489214491], [0.8734716983911143, 41.43076268050083], [0.8734863920650957, 41.43031261315454], [0.8737255982609364, 41.430317036248866], [0.8737285366257241, 41.43022702276095], [0.8740873455246546, 41.430233656449765], [0.8740902833811584, 41.430143642939385], [0.8742098862091815, 41.43014585391356], [0.8742069485176576, 41.430235867430895], [0.8746853606231112, 41.430244710112994], [0.8746941716779052, 41.4299746694728], [0.8744549665883641, 41.42997024842195], [0.8744579039098989, 41.42988023488596], [0.8743383015501193, 41.42987802418113], [0.8743412390232882, 41.429788010650505], [0.8742216368418287, 41.429785799828394], [0.8742245744666283, 41.42969578630314], [0.8741049724634891, 41.42969357536374], [0.8741079102399191, 41.42960356184386], [0.873868706603627, 41.42959913960627], [0.8738716446966595, 41.429509126098715], [0.8737520430635062, 41.42950691480052], [0.8737608577574404, 41.429236874289224], [0.8738804588956762, 41.42923908556656], [0.8738863349616218, 41.429059058537185], [0.873766734153326, 41.42905684727378], [0.8737755486470525, 41.42878680673871], [0.8738951489604426, 41.428789017981266], [0.8739010248929261, 41.42860899093605], [0.8740206248897285, 41.42861120204046], [0.8740265004388967, 41.428431174975], [0.8745048992398301, 41.428440018094655], [0.874516647538617, 41.42807996383346], [0.874397048478222, 41.42807775326772], [0.8743999856845249, 41.427987739705415], [0.8742803868024326, 41.42798552902239], [0.8742774494311683, 41.42807554257774], [0.8740382513770936, 41.42807112082509], [0.8740353136625615, 41.42816113436494], [0.8739157144905787, 41.428158923295314], [0.8739127765977396, 41.42824893682663], [0.8735539786669817, 41.42824230285151], [0.8735481018514851, 41.42842232986764], [0.8733089026378649, 41.428417906568555], [0.8733147801132153, 41.42823787958026], [0.8730755816128463, 41.42823345581209], [0.8730814596946453, 41.42805342884526], [0.8735598554290867, 41.42806227582902], [0.8735657321378001, 41.4278822488002], [0.8741637254565656, 41.42789330466516], [0.8741696004622976, 41.42771327756045], [0.8739304037545911, 41.42770885561498], [0.8739333415673574, 41.427618842074146], [0.8736941452429474, 41.42761441964568], [0.873697083372283, 41.427524406117186], [0.8735774853950554, 41.427522194723565], [0.8735833619435981, 41.42734216767575], [0.8737029595909139, 41.42734437905546], [0.8737088357561589, 41.42716435198737], [0.8738284330869117, 41.427166563228944], [0.8738343088688653, 41.42698653614063], [0.8740735029105958, 41.42699095822327], [0.8740852529947493, 41.42663090397197], [0.8742048493758263, 41.42663311479913], [0.8742077866985561, 41.426543101225406], [0.8744469791708414, 41.426547522493145], [0.8744411051718373, 41.42672754966685], [0.8746802983572862, 41.42673197046551], [0.8746773616676735, 41.42682198406391], [0.8745577649033277, 41.42681977371973], [0.8745401434957863, 41.42735985523507], [0.8746597412498537, 41.427362065620954], [0.8746568044668587, 41.42745207920825], [0.8745372065478352, 41.42744986881541], [0.8745342695865431, 41.427539882394164], [0.8747734657678444, 41.42754430306954], [0.8747793390172613, 41.42736427588262], [0.8748989367980087, 41.42736648602006], [0.8748960003449263, 41.42745649962126], [0.8750155983039696, 41.42745870964142], [0.8750214708668832, 41.42727868242352], [0.8756194592125967, 41.4272897305914], [0.8756223946492704, 41.427199716945324], [0.8757419921934644, 41.42720192619927], [0.8757449274518488, 41.42711191254466], [0.8758645248444218, 41.42711412166743], [0.8758703949912844, 41.42693409433955], [0.875750797928618, 41.42693188523068], [0.875756668352054, 41.42675185791036], [0.8756370716326256, 41.42674964869118], [0.875642942332628, 41.42656962137843], [0.8755233459564342, 41.42656741204892], [0.8755292169329993, 41.42638738474373], [0.875290024880412, 41.42638296573982], [0.8752929606785874, 41.426292952098756], [0.875173364837245, 41.42629074241741], [0.8751704288741211, 41.426380756051536], [0.8750508328811679, 41.426378546239015], [0.8750537690092385, 41.426288532611856], [0.8749341731945701, 41.42628632268207], [0.8749371094742503, 41.42619630906028], [0.874697918214822, 41.426191888841934], [0.8747008548110555, 41.42610187523246], [0.8745812593662964, 41.42609966494391], [0.8745871328486337, 41.425919637734125], [0.8736303724099803, 41.425901951065036], [0.8736098057513592, 41.42653204588212], [0.8737294019141079, 41.42653425719922], [0.8737264639315826, 41.42662427074513], [0.8739656566270154, 41.42662869302059], [0.8739627189610433, 41.42671870657882], [0.8737235259357106, 41.42671428428947], [0.8737147118680181, 41.426984324912965], [0.8732363239980989, 41.42697547876007], [0.8732275078308516, 41.427245519285826], [0.8733471052731692, 41.42724773103126], [0.8733441666890086, 41.42733774454364], [0.8734637643096298, 41.42733995617181], [0.8734608258770763, 41.42742996968955], [0.8732216303192727, 41.427425546295076], [0.8732157527542955, 41.42760557329799], [0.8728569585279758, 41.42759893723283], [0.8728657763400213, 41.427328896788715], [0.872746178786152, 41.427326684539416], [0.8727549969728926, 41.42705664410191], [0.8723962058759839, 41.427050006671294], [0.8723903261084575, 41.42723003358944], [0.8721511314508112, 41.42722560798672], [0.8721481912171077, 41.42731562142951], [0.872028593743365, 41.42731340843485], [0.8720256533313501, 41.42740342186907], [0.8721452509700482, 41.4274056348707], [0.8721217285127377, 41.42812574234324], [0.8720021295543754, 41.428123529285934], [0.871996248476557, 41.42830355612429], [0.8722354470664856, 41.42830798214254], [0.8722325068374659, 41.42839799557326], [0.8721129073708599, 41.4283957826193], [0.8721099669635196, 41.42848579604149], [0.8717511681489571, 41.42847915641331], [0.8717452863044168, 41.428659183211145]], [[0.8722413274844569, 41.428127955276324], [0.8722383872821494, 41.42821796871023], [0.8721187881454688, 41.42821575577018], [0.8721217285127377, 41.42812574234324], [0.8722413274844569, 41.428127955276324]], [[0.8732374659414195, 41.43427099240295], [0.8732404053886264, 41.43418097900561], [0.8733600155613479, 41.434183191038315], [0.8733570762791538, 41.43427320444262], [0.8732374659414195, 41.43427099240295]], [[0.8737247236938883, 41.43400979953579], [0.8737276624409942, 41.43391978610586], [0.8738472721720881, 41.433921997620686], [0.873844333589993, 41.43401201105756], [0.8737247236938883, 41.43400979953579]], [[0.8724501823734564, 41.43272527750394], [0.872461943794134, 41.4323652239922], [0.8727011573657947, 41.43236964939452], [0.8726893972651009, 41.43272970296196], [0.8724501823734564, 41.43272527750394]], [[0.8728913163287677, 41.43021153980532], [0.8728942558350585, 41.43012152636451], [0.8727746531538787, 41.430119314023706], [0.8727805324563551, 41.429939287151264], [0.872660930118484, 41.429937074700135], [0.8726638699146669, 41.42984706126851], [0.873022676473414, 41.42985369822828], [0.8730109191882789, 41.43021375202885], [0.8728913163287677, 41.43021153980532]], [[0.8731334612374773, 41.4301259506734], [0.8731364004004586, 41.4300359372171], [0.8733756055263288, 41.43004036101511], [0.8733726666933026, 41.43013037448533], [0.8731334612374773, 41.4301259506734]], [[0.8738510777651487, 41.43013922061832], [0.8738540159382627, 41.43004920712028], [0.8739736185746158, 41.43005141833598], [0.8739706805664803, 41.43014143184097], [0.8738510777651487, 41.43013922061832]], [[0.8734952081092887, 41.430042572727764], [0.8735010854053377, 41.42986254576864], [0.8737402899513972, 41.429866968793405], [0.8737344133152565, 41.430046995780344], [0.8734952081092887, 41.430042572727764]]]}, "properties": {"area_ha": 14.29, "dnbr_threshold_core": 0.35, "dnbr_threshold_grow": 0.22, "dnbr_mean": 0.4342, "dnbr_max": 0.7865, "severity": "moderada", "severity_method": "dnbr_mean", "forest_mask": "esa_worldcover_2021_10_20", "part": 35, "fire_id": "527106", "burn_year": 2026, "source": "sentinel", "aoi_source": "effis", "dnbr_threshold": 0.35, "buffer_m": 1200.0, "post_windows": 2, "post_window_dates": [{"start": "2026-06-21", "end": "2026-07-14"}, {"start": "2026-07-14", "end": "2026-08-13"}], "pre_window": {"start": "2026-03-31", "end": "2026-06-07"}, "fire_date": "2026-06-14"}}]}
