{"type": "FeatureCollection", "features": [{"type": "Feature", "geometry": {"type": "Polygon", "coordinates": [[[1.9384203310554935, 41.39940470494189], [1.9384232624267512, 41.39922458367974], [1.938662478550221, 41.39922679063991], [1.9386639438957347, 41.399136729999725], [1.9387835518023953, 41.39913783328988], [1.938785016976189, 41.39904777264475], [1.9389046247244457, 41.39904887580712], [1.938906089726521, 41.398958815157066], [1.9391453049128815, 41.39896102110197], [1.9391482342368218, 41.39878089978359], [1.9392678415098656, 41.39878200256264], [1.9392693059967936, 41.398691941897795], [1.9393889131114332, 41.39869304454908], [1.939390377426649, 41.39860298387929], [1.939868805291505, 41.3986073932275], [1.9398717325815182, 41.39842727185582], [1.9399913392342467, 41.39842837387518], [1.9399928027042213, 41.39833831318368], [1.9401124091985438, 41.39833941507527], [1.940115335788433, 41.398159293680976], [1.9404741543209618, 41.39816259858911], [1.940475617110771, 41.39807253787938], [1.9405952231365213, 41.39807363926336], [1.9405966857546304, 41.397983578548704], [1.940835897495962, 41.39798578093682], [1.9408388220520338, 41.39780565948926], [1.9410780331597346, 41.39780786136632], [1.9410794950977015, 41.39771780063343], [1.9411991004964653, 41.39771890138204], [1.9411976387235497, 41.3978089621184], [1.9413172442940074, 41.397810062746174], [1.9413187059018722, 41.39772000200636], [1.9415579167326078, 41.39772220288209], [1.9415593780037301, 41.39763214213388], [1.9417985885309246, 41.3976343425055], [1.9418015103930522, 41.397454220990845], [1.9420407202866024, 41.39745642085141], [1.9420421808776116, 41.39736636008498], [1.9421617856692939, 41.397367459825354], [1.9421603252433328, 41.39745752059525], [1.9429975601262164, 41.39746521532175], [1.9430004786608273, 41.39728509373207], [1.9432396880268608, 41.397287291092844], [1.9432411469541253, 41.3971972302889], [1.9434803560165812, 41.397199427145566], [1.9434818146071233, 41.397109366333254], [1.9437210233659972, 41.397111562685815], [1.9437239398670176, 41.396931441042994], [1.9439631479922128, 41.39693363688454], [1.943966063806553, 41.396753515222066], [1.944922893931554, 41.39676229356115], [1.9449214373480475, 41.39685235442076], [1.9452802492492818, 41.3968556442574], [1.9452817053376563, 41.39676558338745], [1.9454013091529239, 41.396766679747614], [1.9454027650696388, 41.39667661887275], [1.9451635577758062, 41.39667442603503], [1.9451664702495586, 41.396494304294734], [1.9452860735630824, 41.396495400768835], [1.9452875296249916, 41.39640533989306], [1.9456463391101328, 41.396408628559286], [1.9456492502238636, 41.396228506782656], [1.9457688530687263, 41.39622960274924], [1.9457703084506317, 41.396139541855284], [1.9458899111370682, 41.396140637694124], [1.9458928215509637, 41.395960515894956], [1.9461320262835218, 41.395962707185966], [1.946133481150478, 41.395872646277304], [1.9463726855794048, 41.395874837064255], [1.9463770491503967, 41.39560465430881], [1.946496650879668, 41.39560574950551], [1.9464981052250792, 41.39551568858067], [1.9466177067959252, 41.39551678364963], [1.9466191609696955, 41.39542672271988], [1.9467387623821153, 41.39542781766111], [1.9467402163842453, 41.39533775672646], [1.94685981763824, 41.395338851539954], [1.946862725292617, 41.39515872965939], [1.9467431243686852, 41.39515763485281], [1.9467445783509951, 41.39506757391379], [1.9466249775987006, 41.395066478986365], [1.9466322482362906, 41.39461617428669], [1.9465126483157433, 41.394615079252205], [1.9465170111140853, 41.39434489642527], [1.9466366105395576, 41.39434599144941], [1.9466380646274324, 41.39425593050074], [1.9465184653669838, 41.394254835480034], [1.946521373852956, 41.394074713585226], [1.9466409727833607, 41.39407580859903], [1.946642426851414, 41.393985747645985], [1.9467620256234044, 41.39398684253206], [1.946760571720372, 41.394076903488546], [1.9468801706639898, 41.39407799825378], [1.946883078133406, 41.39389787633246], [1.9470026767535873, 41.39389897096652], [1.9470055838665432, 41.393718849032474], [1.94712518216329, 41.39371994353536], [1.947129542288136, 41.39344976061303], [1.947009944486442, 41.39344866612049], [1.9470128515333518, 41.39326854417188], [1.9468932540682935, 41.39326744956195], [1.9468947077468566, 41.3931773885889], [1.9466555131665857, 41.39317519900306], [1.9466526051427953, 41.393355320933914], [1.9465330075325395, 41.39335422594769], [1.9465300991522894, 41.39353434786581], [1.9466496970925773, 41.39353544285893], [1.9466482430575585, 41.39362550381925], [1.946528644952253, 41.39362440882268], [1.946527190745609, 41.393714469778104], [1.9461683959742861, 41.393711184032355], [1.9461654865510591, 41.393891305918146], [1.945447895206671, 41.39388473102966], [1.9454449837767573, 41.39406485286822], [1.945205786054787, 41.39406266023066], [1.9452028739383267, 41.39424278204959], [1.9444852789509617, 41.39423620111265], [1.9444838218926697, 41.394326261999225], [1.9443642225862536, 41.39432516473795], [1.9443627653563176, 41.39441522561961], [1.9440039669817304, 41.394411933079724], [1.9440025092500999, 41.39450199394954], [1.9437633100367775, 41.39449979829461], [1.9437618519684732, 41.39458985915607], [1.9435226524516014, 41.39458766299709], [1.9435197356350136, 41.39476778470184], [1.942802135263153, 41.39476119320053], [1.9428006758547571, 41.39485125402996], [1.9426810756509587, 41.39485015500794], [1.9426781564842168, 41.39503027665553], [1.9427977570180717, 41.39503137568446], [1.9427948381548605, 41.39521149733314], [1.9425556364336656, 41.39520929913714], [1.9425541766620515, 41.39529935995238], [1.9424345756463728, 41.39529826066449], [1.9424331157030943, 41.395388321474805], [1.9421939133615762, 41.395386122519234], [1.9421924530816004, 41.39547618332118], [1.9420728517557615, 41.3954750836535], [1.9420713913041177, 41.395565144450515], [1.9419517898198828, 41.39556404465509], [1.9419503291965696, 41.39565410544718], [1.9415915242885884, 41.39565080530477], [1.9415886020318438, 41.39583092686382], [1.941349398132913, 41.39582872613358], [1.9413479366645114, 41.39591878690399], [1.9412283345599712, 41.39591768634896], [1.9412268729198918, 41.39600774711446], [1.9411072706569579, 41.396006646431665], [1.9411058088452, 41.39609670719225], [1.9409862064238712, 41.39609560638171], [1.9409847444404338, 41.396185667137345], [1.9408651418607097, 41.39618456619906], [1.940862217543829, 41.396364687699055], [1.940742614640671, 41.39636358662953], [1.9407411523072253, 41.39645364737388], [1.9406215492456729, 41.396452546176604], [1.9406171617103418, 41.39672272839051], [1.9403779546169269, 41.39672052560227], [1.940375028899973, 41.396900647057045], [1.9396574057987652, 41.39689403566763], [1.9396544780746898, 41.39707415707496], [1.9395348739176759, 41.39707305473475], [1.9395334098806152, 41.39716311543277], [1.9392942012564547, 41.39716091037252], [1.9392927368826494, 41.39725097106213], [1.9390535279550127, 41.39724876549775], [1.9390520632444601, 41.39733882617896], [1.9389324586255774, 41.39733772320685], [1.9389280639588395, 41.39760790523134], [1.9388084588514691, 41.39760680212452], [1.938806993784194, 41.39769686279296], [1.9386873885184308, 41.397695759558374], [1.9386844580338076, 41.39787588088393], [1.9388040636296728, 41.39787698412547], [1.9388025985424255, 41.397967044789546], [1.9389222043099996, 41.397968147910255], [1.938913414637044, 41.39850851188491], [1.938674201127898, 41.39850630547753], [1.9386712705234286, 41.39868642677686], [1.938073235216521, 41.39868090854835], [1.9380703029348287, 41.398861029807136], [1.9379506955633128, 41.39885992578157], [1.9379477629248518, 41.399040047027555], [1.9381869783347871, 41.39904225496828], [1.9381855123356853, 41.39913231559604], [1.9383051202157071, 41.39913341938342], [1.9383021885276444, 41.399313540641515], [1.9379433639171872, 41.399310228885625], [1.937941897567973, 41.39940028950207], [1.9384203310554935, 41.39940470494189]]]}, "properties": {"area_ha": 15.55, "dnbr_threshold_core": 0.35, "dnbr_threshold_grow": 0.22, "dnbr_mean": 0.5535, "dnbr_max": 0.9551, "severity": "alta", "severity_method": "dnbr_mean", "forest_mask": "esa_worldcover_2021_10_20", "part": 0, "fire_id": "gencat_080689_2026-07-22", "burn_year": 2026, "source": "sentinel", "aoi_source": "gencat", "dnbr_threshold": 0.35, "buffer_m": 800.0, "post_windows": 2, "post_window_dates": [{"start": "2026-07-29", "end": "2026-08-21"}, {"start": "2026-08-21", "end": "2026-09-20"}], "pre_window": {"start": "2026-05-08", "end": "2026-07-15"}, "fire_date": "2026-07-22"}}]}
