{"type": "FeatureCollection", "features": [{"type": "Feature", "geometry": {"type": "Polygon", "coordinates": [[[3.0869151570367928, 42.33702063378245], [3.0869152810556013, 42.33711069504559], [3.086915405074978, 42.33720075630731], [3.0869155290949224, 42.3372908175676], [3.086915653115435, 42.33738087882648], [3.0869157771365154, 42.33747094008393], [3.086794386521579, 42.33747103203272], [3.086794510370013, 42.33756109328904], [3.0867946342190145, 42.33765115454395], [3.086794758068583, 42.337741215797436], [3.0867948819187188, 42.337831277049496], [3.0869162732265156, 42.337831185099546], [3.086916397250435, 42.33792124634992], [3.0869165212749228, 42.33801130759884], [3.0870379129285865, 42.33801121551981], [3.087038037126861, 42.338101276767034], [3.0871594289531745, 42.3381011845592], [3.087159304581682, 42.338011123312256], [3.087280696234207, 42.33801103097621], [3.0872805716900658, 42.337920969728145], [3.087401963168803, 42.33792087726387], [3.087401838452015, 42.33783081601467], [3.0874017137357983, 42.33774075476406], [3.087523104867531, 42.33774066217185], [3.0876444959986924, 42.337740569451135], [3.0877658871292812, 42.3377404766019], [3.087887278259296, 42.337740383624165], [3.0880086693887367, 42.337740290517914], [3.088130060517603, 42.33774019728315], [3.0881299347626645, 42.337650136032856], [3.088129809008302, 42.33756007478116], [3.088129683254515, 42.337470013528026], [3.088129557501304, 42.33737995227348], [3.088250947936737, 42.337379858911376], [3.08825082201089, 42.3372897976557], [3.088250696085619, 42.337199736398595], [3.0883720861740516, 42.33719964290859], [3.088371960076147, 42.33710958165035], [3.0883718339788193, 42.33701952039071], [3.0882504442368073, 42.337019613880145], [3.0882503183132664, 42.33692955261879], [3.088128928743887, 42.336929645979424], [3.0880075391739314, 42.33692973921156], [3.087886149603401, 42.336929832315185], [3.0877647600322966, 42.33692992529029], [3.087643370460618, 42.3369300181369], [3.087521980888367, 42.33693011085501], [3.087521856004653, 42.336840049590485], [3.0874004666050388, 42.33684014217978], [3.087400341895103, 42.336750080913546], [3.0872789526681252, 42.33675017337404], [3.087278828131968, 42.336660112106095], [3.0872787035963807, 42.336570050836734], [3.087278579061364, 42.336479989565944], [3.087157190353434, 42.33648008189707], [3.0871573147152453, 42.33657014316815], [3.0870359258335403, 42.33657023537108], [3.087035801644934, 42.3364801740997], [3.0869144129358657, 42.33648026617382], [3.0869145369512667, 42.336570327445486], [3.086914660967236, 42.336660388715714], [3.0869147849837737, 42.336750449984535], [3.0869149090008787, 42.33684051125193], [3.0869150330185517, 42.3369305725179], [3.0869151570367928, 42.33702063378245]]]}, "properties": {"area_ha": 1.3, "dnbr_threshold_core": 0.35, "dnbr_threshold_grow": 0.22, "forest_mask": "esa_worldcover_2021_10_20", "part": 24, "fire_id": "272942", "burn_year": 2025, "source": "sentinel", "aoi_source": "effis", "dnbr_threshold": 0.35, "buffer_m": 1200.0, "post_windows": 2, "post_window_dates": [{"start": "2025-07-03", "end": "2025-07-26"}, {"start": "2025-07-26", "end": "2025-08-25"}], "pre_window": {"start": "2025-04-12", "end": "2025-06-19"}, "fire_date": "2025-06-26", "severity": "moderada", "severity_method": "threshold_proxy"}}, {"type": "Feature", "geometry": {"type": "Polygon", "coordinates": [[[3.0884939813521504, 42.337559794307566], [3.088494107626157, 42.337649855558396], [3.0884942339007417, 42.33773991680781], [3.0883728427736057, 42.3377400104281], [3.0883729688755523, 42.33783007167638], [3.0883730949780768, 42.337920132923244], [3.0884944864516455, 42.337920039302375], [3.0886158779246364, 42.33791994555298], [3.0886160043741735, 42.33801000679782], [3.08861613082429, 42.338100068041264], [3.0884947390048625, 42.33810016179124], [3.088494865282338, 42.33819022303356], [3.088616257274985, 42.338190129283284], [3.0886163837262592, 42.338280190523875], [3.0886165101781122, 42.33837025176305], [3.088737902516621, 42.33837015788367], [3.0887377758915466, 42.338280096644795], [3.088859168056255, 42.3382800026372], [3.08885904125854, 42.33818994139719], [3.0888589144614063, 42.33809988015577], [3.088980306279094, 42.33809978602025], [3.0891016980962007, 42.33809969175622], [3.089223089912725, 42.33809959736367], [3.0893444817286655, 42.33809950284263], [3.0893443542392385, 42.33800944160097], [3.0892229625965153, 42.338009536121724], [3.0892228352808897, 42.33791947487835], [3.0892227079658467, 42.33782941363355], [3.0892225806513864, 42.337739352387324], [3.0892224533375092, 42.337649291139684], [3.0892223260242155, 42.33755922989062], [3.089222198711504, 42.33746916864015], [3.089222071399376, 42.33737910738825], [3.089221944087831, 42.33728904613493], [3.0891005538302454, 42.33728914052481], [3.089100426692495, 42.33719907926978], [3.0892218167768686, 42.33719898488019], [3.0893432068606597, 42.33719889036211], [3.089464596943867, 42.33719879571551], [3.0894644692870665, 42.33710873445994], [3.089464341630851, 42.33701867320295], [3.0894642139752193, 42.33692861194455], [3.0895856035382128, 42.336928517170335], [3.089706993100621, 42.33692842226761], [3.0897071211026703, 42.337018483525426], [3.089707249105306, 42.33710854478182], [3.0897073771085277, 42.33719860603679], [3.0897075051123357, 42.33728866729034], [3.0898288953669986, 42.337288572257926], [3.0899502856210743, 42.337288477097], [3.089950413971893, 42.33737853834853], [3.0900718043985935, 42.3373784430588], [3.090071932923213, 42.33746850430862], [3.089950542323299, 42.337468599598644], [3.089950670675293, 42.33755866084733], [3.089950799027875, 42.33764872209461], [3.0899509273810444, 42.33773878334047], [3.090072318500601, 42.33773868804954], [3.090072189974217, 42.33764862680398], [3.09019358091997, 42.337648531384836], [3.0901934522209595, 42.33755847013817], [3.0903148429929086, 42.33755837459082], [3.0903147141212735, 42.337468313343024], [3.090314585250228, 42.33737825209381], [3.0904359756751605, 42.337378156418545], [3.0905573660995023, 42.33737806061477], [3.090678756523252, 42.337377964682496], [3.0906788859139365, 42.337468025930804], [3.090679015305213, 42.33755808717769], [3.090800406074797, 42.337557991116306], [3.0908005356398807, 42.33764805236148], [3.0909219265820864, 42.337647956171274], [3.0910433175236975, 42.33764785985257], [3.091043187612185, 42.33755779860798], [3.091043057701267, 42.337467737362005], [3.0910429277909444, 42.3373776761146], [3.091164318212319, 42.337377579668285], [3.0912857086330985, 42.33737748309345], [3.091285578376946, 42.337287421845225], [3.0912854481213903, 42.33719736059558], [3.091164058047034, 42.33719745716981], [3.0910426679720824, 42.33719755361551], [3.0910427978812156, 42.33728761486576], [3.090921407632458, 42.33728771118327], [3.090800017383106, 42.33728780737226], [3.0906786271331605, 42.337287903432745], [3.090557236882623, 42.33728799936473], [3.090557107666335, 42.33719793811328], [3.0906784977436614, 42.337197842181595], [3.0906783683547547, 42.33710778092902], [3.090556978450639, 42.3371078768604], [3.0904355885459314, 42.33710797266327], [3.090314198640633, 42.33710806833763], [3.0903140697719484, 42.337018007082726], [3.09019268003927, 42.337018102628285], [3.090192551344384, 42.336928041371664], [3.090071161784325, 42.336928136788416], [3.0899497722236777, 42.33692823207666], [3.089949643875798, 42.33683817081803], [3.089828254487771, 42.33683826597746], [3.0898281263136864, 42.336748204717104], [3.08970673709828, 42.33674829974773], [3.0897066090979886, 42.33665823848566], [3.089585220055203, 42.33665833338749], [3.089585347882288, 42.33674839464986], [3.08946395866571, 42.33674848942348], [3.0894640863201723, 42.33683855068473], [3.089342696929803, 42.33683864533014], [3.0892213075388493, 42.33683873984704], [3.0892214348474796, 42.33692880110745], [3.089100045282735, 42.33692889549614], [3.0891001724187395, 42.33701895675544], [3.0889787826802038, 42.33701905101592], [3.0888573929410863, 42.337019145147885], [3.088857519731253, 42.33710920640637], [3.0888576465220003, 42.33719926766341], [3.0887362564358822, 42.337199361667466], [3.0887363830539987, 42.337289422923384], [3.0886149927940894, 42.33728951679922], [3.088615119239573, 42.33737957805402], [3.088615245685636, 42.3374696393074], [3.088615372132278, 42.337559700559346], [3.0884939813521504, 42.337559794307566]], [[3.088979036607538, 42.337199173530855], [3.08897890964358, 42.33710911227409], [3.089100299555326, 42.33710901801332], [3.089100426692495, 42.33719907926978], [3.088979036607538, 42.337199173530855]]]}, "properties": {"area_ha": 1.36, "dnbr_threshold_core": 0.35, "dnbr_threshold_grow": 0.22, "forest_mask": "esa_worldcover_2021_10_20", "part": 30, "fire_id": "272942", "burn_year": 2025, "source": "sentinel", "aoi_source": "effis", "dnbr_threshold": 0.35, "buffer_m": 1200.0, "post_windows": 2, "post_window_dates": [{"start": "2025-07-03", "end": "2025-07-26"}, {"start": "2025-07-26", "end": "2025-08-25"}], "pre_window": {"start": "2025-04-12", "end": "2025-06-19"}, "fire_date": "2025-06-26", "severity": "moderada", "severity_method": "threshold_proxy"}}, {"type": "Feature", "geometry": {"type": "MultiPolygon", "coordinates": [[[[3.089462299210889, 42.335577692898056], [3.0894624268577533, 42.33566775417776], [3.089341039719019, 42.33566784881931], [3.089341167193269, 42.33575791009789], [3.0894625545052015, 42.33575781545605], [3.08958394181655, 42.33575772068569], [3.0897053291273124, 42.33575762578685], [3.089826716437489, 42.335757530759494], [3.0899481037470786, 42.33575743560364], [3.090069491056081, 42.33575734031928], [3.0901908783644942, 42.33575724490643], [3.090312265672319, 42.33575714936507], [3.0904336529795535, 42.33575705369521], [3.090433782013176, 42.33584711496969], [3.090555169493018, 42.335847019171034], [3.090676556972269, 42.335846923243864], [3.090797944450927, 42.3358468271882], [3.0907978148977087, 42.33575676591462], [3.0907976853450827, 42.33566670463963], [3.0909190724767512, 42.33566660845606], [3.0910404596078256, 42.33566651214399], [3.0910403297093993, 42.335576450868174], [3.091108755984706, 42.33557639650444], [3.0909611137179467, 42.335380821632135], [3.090746663991765, 42.33515460496013], [3.090502169997631, 42.33494583837991], [3.0902301936384853, 42.3347567091884], [3.0900679324776297, 42.33466507200106], [3.090067948933662, 42.33467660490402], [3.0900680774406277, 42.33476666619642], [3.0899466920367593, 42.334766761477496], [3.089946820371123, 42.33485682276879], [3.089946948706074, 42.33494688405867], [3.089825562955237, 42.334946979211836], [3.0898256911175843, 42.335037040500595], [3.0898258192805184, 42.335127101787926], [3.0897044331827104, 42.33512719681318], [3.089704561173038, 42.3352172580994], [3.089704689163952, 42.335307319384185], [3.089704817155452, 42.335397380667565], [3.0898262037728417, 42.33539728564141], [3.0898263319381236, 42.33548734692307], [3.089704945147538, 42.33548744194952], [3.0895835583563667, 42.335487536847474], [3.08946217156461, 42.335487631616935], [3.089462043918915, 42.335397570334386], [3.0893406572997697, 42.335397664975055], [3.089340529827854, 42.33530760369078], [3.089219143381319, 42.33530769820264], [3.089219016083182, 42.33521763691667], [3.0893404023565223, 42.3352175424051], [3.0893402748857737, 42.33512748111799], [3.0892188887856267, 42.33512757562926], [3.0892187614886546, 42.335037514340435], [3.089097375561117, 42.33503760872292], [3.0890975026848966, 42.33512767001204], [3.0890976298092583, 42.335217731299736], [3.089097756934202, 42.335307792586], [3.0889763704865025, 42.335307886840866], [3.0889764974388343, 42.33539794812604], [3.0890978840597283, 42.335397853870866], [3.0890980111858366, 42.335487915154296], [3.089098138312527, 42.33557797643631], [3.0892195252792307, 42.33557788205206], [3.0893409122453517, 42.335577787539314], [3.089462299210889, 42.335577692898056]], [[3.0901904923063546, 42.335487061072676], [3.090190620991812, 42.33557712235202], [3.0900692340297935, 42.335577217764275], [3.090069105517532, 42.33548715648465], [3.09006897700586, 42.33539709520359], [3.0901903636214865, 42.33539699979193], [3.0901904923063546, 42.335487061072676]], [[3.0900693625426428, 42.33566727904249], [3.0899479754068384, 42.335667374326555], [3.0899478470671866, 42.335577313048034], [3.0900692340297935, 42.335577217764275], [3.0900693625426428, 42.33566727904249]]], [[[3.0911618467383053, 42.33566641570343], [3.091169087804375, 42.335666409942824], [3.09116182874288, 42.33565395571479], [3.0911618467383053, 42.33566641570343]]], [[[3.091283624606229, 42.33593650295146], [3.091321643178153, 42.33593647266553], [3.0912912298476605, 42.33587596662737], [3.0912835179236433, 42.33586273543207], [3.091283624606229, 42.33593650295146]]]]}, "properties": {"area_ha": 1.101, "dnbr_threshold_core": 0.35, "dnbr_threshold_grow": 0.22, "forest_mask": "esa_worldcover_2021_10_20", "part": 38, "fire_id": "272942", "burn_year": 2025, "source": "sentinel", "aoi_source": "effis", "dnbr_threshold": 0.35, "buffer_m": 1200.0, "post_windows": 2, "post_window_dates": [{"start": "2025-07-03", "end": "2025-07-26"}, {"start": "2025-07-26", "end": "2025-08-25"}], "pre_window": {"start": "2025-04-12", "end": "2025-06-19"}, "fire_date": "2025-06-26", "severity": "moderada", "severity_method": "threshold_proxy"}}, {"type": "Feature", "geometry": {"type": "Polygon", "coordinates": [[[3.0893456291597845, 42.33891005395369], [3.08934575665505, 42.33900011518116], [3.0894671502026365, 42.33900002052862], [3.089467277871713, 42.33909008175438], [3.0895886715919425, 42.339089986973036], [3.0895887994348317, 42.33918004819705], [3.0895889272783066, 42.33927010941966], [3.0895890551223664, 42.33936017064085], [3.0895891829670123, 42.33945023186062], [3.089589310812243, 42.339540293078976], [3.0894679162258654, 42.3395403878618], [3.089346521638903, 42.33954048251612], [3.0893466491382555, 42.33963054373364], [3.08946804389845, 42.33963044907903], [3.0894681715716183, 42.339720510294825], [3.0895895665044613, 42.3397204155114], [3.0897109614367184, 42.33972032059946], [3.089711089456939, 42.33981038181325], [3.089711217477746, 42.33990044302561], [3.089589822199021, 42.339900537938156], [3.089589950047179, 42.33999059914941], [3.089590053604655, 42.34006354872508], [3.089711370226899, 42.34000789978024], [3.0897113454991394, 42.339990504236575], [3.089749357991423, 42.33999047447632], [3.0897677914207704, 42.339982018908785], [3.089832681723452, 42.33994880011255], [3.089832612755885, 42.33990034798455], [3.0898324845618435, 42.339810286772476], [3.089953879666161, 42.3398101916032], [3.0899539887166547, 42.33988670035153], [3.090027996207929, 42.33984881426269], [3.090310033198763, 42.339688833583544], [3.0904391587529116, 42.33959953666514], [3.090439072900451, 42.339539626000615], [3.0903176783181876, 42.33953972168308], [3.090196283735334, 42.339539817237025], [3.090196155023947, 42.33944975602016], [3.0901960263131496, 42.33935969480189], [3.090317420549541, 42.339359599248546], [3.0904388147853425, 42.33935950356668], [3.090560209020553, 42.3393594077563], [3.0905600797906554, 42.339269346537506], [3.09055995056135, 42.33917928531729], [3.090438556672598, 42.33917938112707], [3.090317162783255, 42.33917947680833], [3.0903170339009973, 42.3390894155861], [3.0903169050193298, 42.338999354362436], [3.090195511475852, 42.33899944991458], [3.0900741179317848, 42.33899954533821], [3.0900739893971605, 42.33890948411254], [3.0900738608631246, 42.33881942288544], [3.0901952540607396, 42.338819327462424], [3.0903166472577652, 42.33881923191087], [3.0904380404542007, 42.33881913623081], [3.0904381695079137, 42.338909197457], [3.090559562876984, 42.33890910164812], [3.0905594336500455, 42.33881904042222], [3.090559304423698, 42.33872897919491], [3.0906806974457264, 42.33872888325811], [3.090680568046747, 42.33863882202969], [3.090559175197943, 42.33863891796617], [3.0905590459727796, 42.33854885673601], [3.0904376532966076, 42.3385489525437], [3.0904375242452584, 42.33845889131182], [3.0903161317417176, 42.33845898699068], [3.0903160028641814, 42.33836892575708], [3.0901946105332723, 42.33836902130714], [3.090194739237587, 42.33845908254102], [3.0900733467328667, 42.33845917796286], [3.090073218201774, 42.338369116728664], [3.0899518258696865, 42.33836921202169], [3.0898304335370117, 42.3383693071862], [3.0898305617216617, 42.33845936842099], [3.089709169215178, 42.33845946345728], [3.0897092972271922, 42.338549524690954], [3.0897094252397928, 42.33863958592321], [3.089709553252979, 42.33872964715404], [3.0895881602262394, 42.338729742062704], [3.0894667671989144, 42.33872983684287], [3.0893453741710046, 42.338729931494505], [3.0893452466774907, 42.33863987026279], [3.089223853822222, 42.338639964785614], [3.0892237265025146, 42.33854990355218], [3.0891023338198855, 42.338549997946195], [3.088980941136674, 42.338550092211705], [3.0889810681099346, 42.338640153445745], [3.0889811950837767, 42.33873021467835], [3.0891025881134353, 42.33873012041225], [3.0892239811425117, 42.338730026017636], [3.0892241084633842, 42.338820087248244], [3.0893455016651026, 42.338819992724815], [3.0893456291597845, 42.33891005395369]]]}, "properties": {"area_ha": 1.157, "dnbr_threshold_core": 0.35, "dnbr_threshold_grow": 0.22, "forest_mask": "esa_worldcover_2021_10_20", "part": 43, "fire_id": "272942", "burn_year": 2025, "source": "sentinel", "aoi_source": "effis", "dnbr_threshold": 0.35, "buffer_m": 1200.0, "post_windows": 2, "post_window_dates": [{"start": "2025-07-03", "end": "2025-07-26"}, {"start": "2025-07-26", "end": "2025-08-25"}], "pre_window": {"start": "2025-04-12", "end": "2025-06-19"}, "fire_date": "2025-06-26", "severity": "moderada", "severity_method": "threshold_proxy"}}]}
