{"type": "FeatureCollection", "features": [{"type": "Feature", "geometry": {"type": "Polygon", "coordinates": [[[1.7487526856810374, 41.51468266829624], [1.748872498020603, 41.51468397193339], [1.7488742323809379, 41.514593919140104], [1.7491138567517643, 41.51459652603186], [1.749117324784846, 41.51441642042449], [1.7493569485232874, 41.51441902680071], [1.7493586821960387, 41.51432897398661], [1.7497181173648877, 41.514332882602794], [1.749719850531815, 41.514242829774915], [1.7500792852736597, 41.51424673725578], [1.750081017934767, 41.514156684414154], [1.7507998866353047, 41.514164495982236], [1.7508016182926596, 41.514074443114545], [1.7515204862808205, 41.514082250166005], [1.7515239475801703, 41.51390214437709], [1.751164514546531, 41.513898241437424], [1.7511662456823314, 41.51380818855303], [1.751046434852839, 41.51380688732769], [1.751048166146743, 41.513716834445916], [1.7508085448433306, 41.513714231629066], [1.7508102764613114, 41.51362417875401], [1.750690465987392, 41.51362287716252], [1.7506921977634722, 41.513532824290074], [1.7500931463418947, 41.51352631448141], [1.750096611530161, 41.513346208773065], [1.7502164214667753, 41.51334751097616], [1.7502181538831179, 41.51325745811568], [1.7500983441124753, 41.513256155916686], [1.7501000766869113, 41.513166103058836], [1.749620838347024, 41.513160893031475], [1.7496191051087042, 41.51325094587294], [1.749139866231046, 41.513245733832775], [1.7491381323209576, 41.51333578665637], [1.7488985125974927, 41.513333179879425], [1.7488950440897695, 41.51351328550579], [1.7490148542795045, 41.51351458896485], [1.7490131201797867, 41.51360464177993], [1.7491329305433811, 41.5136059451183], [1.7491311966017526, 41.513695997936], [1.749370817684546, 41.51369860424662], [1.749365616808203, 41.513968762715464], [1.7488863726824444, 41.51396354954589], [1.748884638377319, 41.51405360234949], [1.7486450160298035, 41.51405099500783], [1.7486415467319765, 41.514231100594195], [1.7484019237521005, 41.51422849273701], [1.7483949837339383, 41.51458870385923], [1.7481553594577768, 41.5145860954701], [1.7481518887374228, 41.51476620100596], [1.747912263828896, 41.514763592101296], [1.7479087924130372, 41.514943697614825], [1.7481484179855011, 41.51494630653592], [1.7481501533654078, 41.51485625377169], [1.7483897786374694, 41.51485886218542], [1.7483932487096723, 41.5146787566361], [1.7486328733493601, 41.51468136453431], [1.7486363427260725, 41.51450125896269], [1.748756154725785, 41.514502562716416], [1.7487526856810374, 41.51468266829624]], [[1.7498500599447315, 41.51370381537055], [1.7498465940295271, 41.513883921050706], [1.749726783120706, 41.51388261844869], [1.7497285162482246, 41.51379256561345], [1.7496087055132608, 41.513791262890756], [1.7496104387988736, 41.513701210058144], [1.7497302493678621, 41.51370251277674], [1.7497319824796174, 41.51361245993855], [1.7499716033092878, 41.5136150649932], [1.7499698705294815, 41.51370511783959], [1.7498500599447315, 41.51370381537055]]]}, "properties": {"area_ha": 1.98, "dnbr_threshold_core": 0.35, "dnbr_threshold_grow": 0.22, "dnbr_mean": 0.4739, "dnbr_max": 0.7853, "severity": "alta", "severity_method": "dnbr_mean", "forest_mask": "esa_worldcover_2021_10_20", "part": 0, "fire_id": "561278", "burn_year": 2026, "source": "sentinel", "aoi_source": "effis", "dnbr_threshold": 0.35, "buffer_m": 1200.0, "post_windows": 2, "post_window_dates": [{"start": "2026-07-12", "end": "2026-08-04"}, {"start": "2026-08-04", "end": "2026-09-03"}], "pre_window": {"start": "2026-04-21", "end": "2026-06-28"}, "fire_date": "2026-07-05"}}]}
