{"type": "FeatureCollection", "features": [{"type": "Feature", "geometry": {"type": "Polygon", "coordinates": [[[0.7042576187724026, 42.82375787880787], [0.7043798581388028, 42.8237603308125], [0.7045020975205077, 42.82376278268675], [0.7044987667352965, 42.82385276397027], [0.7046210063092979, 42.82385521572181], [0.7046176756857737, 42.823945197011355], [0.7047399154520706, 42.823947648640186], [0.704736584990234, 42.824037629935766], [0.704858824948826, 42.8240400814419], [0.7049810649227213, 42.82404253281763], [0.7049843950305725, 42.82395255150669], [0.7051066348427768, 42.82395500274438], [0.7051033049119174, 42.82404498406298], [0.7052255449164163, 42.82404743517795], [0.7052288746702826, 42.823957453851676], [0.7053511145130882, 42.82395990482859], [0.705473354371193, 42.82396235567513], [0.7054700249713125, 42.82405233701674], [0.705592265021708, 42.824054787740565], [0.7057145050874024, 42.824057238334], [0.7057111760262105, 42.824147219689316], [0.7057078469497213, 42.824237201043005], [0.7058300873847012, 42.82423965152139], [0.7059523278349772, 42.824242101869395], [0.705948999097182, 42.82433208323679], [0.7059456703440908, 42.82442206460256], [0.7060679111636542, 42.82442451483551], [0.7060645825722652, 42.82451449620733], [0.7059423415757036, 42.824512045966706], [0.7059390127920213, 42.8246020273292], [0.706061253965581, 42.82460447757749], [0.7060579253436017, 42.82469445894604], [0.7059356839930435, 42.824692008690086], [0.7058134426577813, 42.824689558303746], [0.7056912013378162, 42.82468710778702], [0.7056945304907921, 42.82459712644147], [0.7055722893631232, 42.824594675802025], [0.7055689600331485, 42.824684657139905], [0.7054467187437791, 42.82468220636241], [0.7053244774697092, 42.82467975545453], [0.7052022362109394, 42.824677304416255], [0.7051989063346688, 42.82476728572951], [0.7050766649142003, 42.82476483455318], [0.704954423509034, 42.824762383246465], [0.7049577537393033, 42.824672401948554], [0.7048355125264384, 42.824669950519116], [0.7047132713288764, 42.82466749895931], [0.70471660189784, 42.82457751767511], [0.70459436089258, 42.824575065992576], [0.7044721199026251, 42.82457261417967], [0.7043498789279763, 42.82457016223637], [0.704353210012626, 42.824480180973566], [0.7042309692302802, 42.82447772890755], [0.7042276379686334, 42.824567710162675], [0.7041053970245982, 42.82456525795861], [0.7041020655706464, 42.824655239204446], [0.704224306691679, 42.824657691416185], [0.7042209753994179, 42.82474767266807], [0.7040987341013861, 42.824745220448655], [0.7040954026168182, 42.824835201691215], [0.7042176440918491, 42.824837653918316], [0.7042143127689731, 42.82492763516693], [0.704210981430789, 42.825017616413916], [0.7043332232751283, 42.82502006852597], [0.7043298920986389, 42.82511004977899], [0.7043265609068419, 42.8252000310304], [0.704323229699738, 42.825290012280185], [0.7043198984773275, 42.82537999352832], [0.7041976559249763, 42.82537754138558], [0.7041943245102534, 42.82546752262443], [0.70431656723961, 42.82546997477483], [0.7043132359865841, 42.82555995601973], [0.7043099047182514, 42.825649937263], [0.704432147816928, 42.82565238929836], [0.7044288167102954, 42.825742370547665], [0.7044254855883557, 42.82583235179534], [0.70442215445111, 42.82592233304139], [0.7045443980961188, 42.825924784969374], [0.7046666417564323, 42.82592723676698], [0.7046699725396597, 42.8258372555056], [0.7046733033075826, 42.825747274242566], [0.7047955466291834, 42.82574972589445], [0.704917789966089, 42.82575217741592], [0.7050400333182988, 42.825754628807005], [0.7051622766858109, 42.825757080067696], [0.7051656067303961, 42.825667098772364], [0.7052878499362016, 42.825669549895004], [0.7054100931573085, 42.825672000887245], [0.7054067634667393, 42.82576198219791], [0.705529006880154, 42.825764433067434], [0.7056512503088683, 42.82576688380657], [0.7057734937528816, 42.8257693344153], [0.705895737212192, 42.825771784893654], [0.7058924082143595, 42.825861766233366], [0.7057701645780396, 42.82585931574736], [0.7057668353878996, 42.82594929707778], [0.7057635061824628, 42.826039278406554], [0.7058857501728034, 42.82604172890791], [0.7058824211290792, 42.82613171024275], [0.7057601769617263, 42.826129259733726], [0.7056379328096711, 42.82612680909432], [0.7056346033966248, 42.826216790412175], [0.7056312739682795, 42.82630677172841], [0.705509029477498, 42.826304320943265], [0.7055056998568394, 42.82639430225021], [0.705502370220881, 42.826484283555516], [0.7053801253913705, 42.82648183262464], [0.7052578805771612, 42.826479381563374], [0.7052545505718714, 42.82656936285173], [0.705132305595948, 42.826566911652385], [0.705010060635327, 42.826564460322665], [0.70488781569001, 42.82656200886255], [0.7048911462263456, 42.82647202759721], [0.7047689014733469, 42.826469576014375], [0.7046466567356546, 42.826467124301125], [0.7046433258452883, 42.82655710555113], [0.7046399949396168, 42.82664708679948], [0.7046366640186392, 42.82673706804622], [0.7046333330823552, 42.82682704929132], [0.7047555785281138, 42.82682950103524], [0.704752247753542, 42.82691948228639], [0.7048744933916238, 42.8269219339076], [0.704871162778766, 42.827011915164796], [0.7048678321506047, 42.82710189642034], [0.7048645015071373, 42.82719187767428], [0.7048611708483654, 42.82728185892659], [0.7049834172098339, 42.82728431044808], [0.7051056635866072, 42.82728676183916], [0.7051089938913355, 42.827196780571505], [0.7051123241807603, 42.82710679930224], [0.7052345702187933, 42.827109250547586], [0.7053568162721284, 42.82711170166254], [0.7054790623407652, 42.827114152647084], [0.7054823920838256, 42.827024171353195], [0.7056046379907418, 42.82702662219968], [0.7057268839129586, 42.82702907291577], [0.7057302132866802, 42.82693909160489], [0.7057335426451017, 42.826849110292386], [0.7056112970769236, 42.82684665959163], [0.7056146265970644, 42.82675667828516], [0.7056179561019064, 42.826666696977064], [0.7054957109030638, 42.82666424616124], [0.7053734657195214, 42.82666179521503], [0.7053767955630967, 42.82657181392066], [0.7054990405696223, 42.8265742648592], [0.7056212855914487, 42.82657671566734], [0.7057435306285739, 42.8265791663451], [0.7057402013160485, 42.82666914766249], [0.7058624465454891, 42.826671598217516], [0.7058657756809984, 42.826581616892454], [0.7059880207487201, 42.82658406730942], [0.7061102658317392, 42.826586517595985], [0.7061069370502635, 42.82667649893638], [0.7062291823255952, 42.82667894910023], [0.7063514276162222, 42.82668139913366], [0.7064736729221439, 42.82668384903671], [0.706477001172568, 42.82659386767333], [0.7065992463167662, 42.826596317438316], [0.7067214914762568, 42.82659876707291], [0.7067248193573556, 42.826508785692546], [0.706728147223162, 42.82641880431057], [0.7066059024177028, 42.826416354691304], [0.7066092304452319, 42.82632637331537], [0.7067314750736762, 42.826328822926975], [0.7067348029088982, 42.82623884154173], [0.7068570473756205, 42.82624129101527], [0.7069792918576335, 42.82624374035842], [0.7069826193235379, 42.82615375895624], [0.707104863643827, 42.82615620816132], [0.707108190917429, 42.82606622674984], [0.7069859467741526, 42.826063777552406], [0.7069892742094764, 42.82597379614697], [0.7069926016295109, 42.825883814739896], [0.7069959290342557, 42.82579383333119], [0.7071181726464991, 42.825796282505635], [0.7071214998589448, 42.82570630108764], [0.7069992564237106, 42.82570385192086], [0.7070025837978764, 42.8256138705089], [0.7068803405549394, 42.8256114212194], [0.7068836680908233, 42.82552143981348], [0.7067614250401846, 42.82551899040125], [0.7067647527377845, 42.82542900900137], [0.7066425098794433, 42.82542655946642], [0.706645837738759, 42.825336578072566], [0.706649165582782, 42.825246596677076], [0.7065269230937439, 42.82524414702707], [0.7064046806199978, 42.825241697246675], [0.706408008802738, 42.82515171586489], [0.7062857665212895, 42.82514926596177], [0.7062824381615451, 42.82523924733588], [0.7062791097865073, 42.82532922870838], [0.7061568671663441, 42.825326778659516], [0.706153538599006, 42.82541676002271], [0.7060312958171318, 42.825414309835814], [0.7060346245614748, 42.82532432848029], [0.7060379532905227, 42.825234347123136], [0.7059157108779542, 42.82523189682118], [0.7059190397687097, 42.82514191547007], [0.7060412820042744, 42.82514436576436], [0.7060446107027308, 42.825054384403956], [0.7060479393858916, 42.82496440304191], [0.7061701812827462, 42.82496685319049], [0.7061668527765873, 42.825056834560186], [0.7062890948657395, 42.82505928458603], [0.7062924231948954, 42.82496930320866], [0.7064146651223386, 42.824971753096456], [0.7065369070650748, 42.824974202853866], [0.706659149023103, 42.82497665248087], [0.7066624768059601, 42.82488667107889], [0.7065402350249337, 42.824884221459534], [0.7065435629695008, 42.82479424006358], [0.7065468908987759, 42.824704258665996], [0.7066691323258014, 42.82470670827002], [0.7066724600627861, 42.82461672686314], [0.7066757877844787, 42.82452674545464], [0.7067980288727973, 42.82452919491294], [0.7067947013281031, 42.824619176329115], [0.7069169426087105, 42.824621625664705], [0.7069136152257255, 42.82471160708691], [0.7067913737681186, 42.824709157743655], [0.7067880461928436, 42.824799139156575], [0.7069102878274508, 42.82480158850748], [0.7070325294773477, 42.82480403772801], [0.7071547711425336, 42.82480648681815], [0.7072770128230071, 42.8248089357779], [0.7072736859404466, 42.82489891721983], [0.7073959278132089, 42.82490136605686], [0.7075181697012575, 42.824903814763495], [0.7075148431574141, 42.82499379621913], [0.7076370852377503, 42.82499624480305], [0.707759327333372, 42.824998693256575], [0.7078815694442773, 42.82500114157971], [0.7078848954571126, 42.8249111601011], [0.708007137406299, 42.82491360828619], [0.708129379370767, 42.824916056340896], [0.7081260537119369, 42.825006037834825], [0.7081227280378254, 42.825096019327134], [0.7081194023484313, 42.82518600081782], [0.7082416448591918, 42.825188448765104], [0.7083638873852334, 42.825190896582015], [0.7083605620345688, 42.82528087808639], [0.7082383193315223, 42.825278430261825], [0.7082349937885704, 42.82536841175691], [0.7083572366686228, 42.825370859589135], [0.7083539112873982, 42.82546084109025], [0.7084761543597382, 42.82546328879974], [0.7084794795639565, 42.82537330729097], [0.70860172247457, 42.82537575486241], [0.7087239654004618, 42.82537820230346], [0.7087272902353875, 42.825288220777736], [0.7087306150550362, 42.82519823925038], [0.7088528576421937, 42.82520068654572], [0.7089751002446277, 42.82520313371069], [0.7090973428623388, 42.82520558074524], [0.7092195854953242, 42.82520802764943], [0.7093418281435844, 42.825210474423216], [0.7094640708071182, 42.82521292106662], [0.7094673945494585, 42.825122939491706], [0.7095896370512594, 42.825125385997055], [0.709592960601323, 42.82503540441285], [0.7097152029413919, 42.82503785078017], [0.7098374452967315, 42.82504029701708], [0.7099596876673417, 42.82504274312362], [0.7100819300532214, 42.82504518909976], [0.7102041724543688, 42.82504763494551], [0.7102008497893296, 42.825137616567986], [0.7103230923827508, 42.825140062291], [0.7104453349914382, 42.825142507883626], [0.7105675776153931, 42.82514495334587], [0.7106898202546127, 42.82514739867772], [0.7108120629090974, 42.825149843879174], [0.7108087411138202, 42.82523982553827], [0.7108054193032791, 42.82532980719575], [0.7108020974774738, 42.8254197888516], [0.7107987756364046, 42.82550977050581], [0.7109210190141823, 42.82551221560748], [0.710924340678243, 42.825422233945616], [0.7110465838942756, 42.82542467890924], [0.7110499053660649, 42.8253346972381], [0.7111721484203516, 42.82533714206368], [0.7111754696998717, 42.82524716038326], [0.7111787909641298, 42.82515717870122], [0.7110565482638567, 42.82515473389093], [0.7110598696898591, 42.8250647522149], [0.7109376271818534, 42.82506230728187], [0.7108153846891107, 42.82505986221845], [0.7106931422116318, 42.82505741702464], [0.7106964641533855, 42.82496743536995], [0.7105742218681748, 42.82496499005339], [0.7105775439716687, 42.824875008404724], [0.7104553018787277, 42.82487256296543], [0.7103330598010527, 42.82487011739576], [0.7103363822432857, 42.82478013576076], [0.7102141403578802, 42.82477769006835], [0.7100918984877422, 42.82477524424555], [0.7100952212687123, 42.82468526262423], [0.710098544034414, 42.82459528100129], [0.7099763025335472, 42.824592835063406], [0.709854061047949, 42.824590388995134], [0.7098507379282455, 42.824680370602785], [0.7098474147932717, 42.82477035220881], [0.7097251729689413, 42.82476790599485], [0.7096029311598815, 42.8247654596505], [0.7094806893660927, 42.82476301317577], [0.7093584475875774, 42.824760566570646], [0.7093551237293256, 42.82485054814442], [0.7093517998558004, 42.82494052971656], [0.7092295577385537, 42.82493808296574], [0.7091073156365806, 42.82493563608454], [0.7091039913937752, 42.82502561763974], [0.7089817491300742, 42.82502317062047], [0.7088595068816486, 42.825020723470836], [0.7088628314784609, 42.82493074193095], [0.7088661560599961, 42.82484076038944], [0.7088694806262561, 42.82475077884629], [0.7089917223436734, 42.82475322597296], [0.7089950467176549, 42.82466324442053], [0.7091172882733477, 42.824665691409145], [0.7091206124550539, 42.82457570984744], [0.7092428538490207, 42.82457815669803], [0.7092461778384525, 42.82448817512704], [0.7091239366214851, 42.8244857282841], [0.7091272607726413, 42.82439574671914], [0.7091305849085237, 42.82430576515252], [0.7090083440608262, 42.82430331819454], [0.7090116683584311, 42.82421333663397], [0.7088894277030066, 42.82421088955323], [0.7088927521623318, 42.82412090799868], [0.7087705116991786, 42.82411846079524], [0.7087738363202232, 42.82402847924672], [0.708651596049342, 42.82402603192054], [0.7085293557937379, 42.82402358446397], [0.7085326807534941, 42.82393360292916], [0.7084104406901628, 42.82393115534987], [0.7084071155534127, 42.82402113687703], [0.7084037904013832, 42.82411111840255], [0.7082815499993425, 42.82410867067756], [0.7081593096125813, 42.82410622282218], [0.7081626351185998, 42.824016241311966], [0.7080403949241143, 42.824013793333876], [0.7080437205918461, 42.82392381182969], [0.7079214805896347, 42.823921363728864], [0.7079248064190785, 42.8238313822307], [0.7078025666091429, 42.82382893400716], [0.7076803268144906, 42.82382648565323], [0.7075580870351216, 42.82382403716891], [0.7075614133802589, 42.823734055692114], [0.707439173793166, 42.82373160708507], [0.7073169342213592, 42.82372915834765], [0.7073136075222388, 42.82381913980913], [0.7073102808078323, 42.82390912126898], [0.7074325207336233, 42.82391157002172], [0.7074291941809241, 42.824001551487605], [0.7074258676129391, 42.82409153295185], [0.7075481079080036, 42.824093981589535], [0.7075447815017276, 42.824183963059824], [0.7076670219890714, 42.82418641157478], [0.7076636957445072, 42.8242763930511], [0.7076603694846583, 42.824366374525795], [0.7077826103412788, 42.82436882292569], [0.7077792842431432, 42.82445880440642], [0.7079015252920449, 42.8244612526836], [0.7078981993556247, 42.82455123417034], [0.7080204405968088, 42.8245536823248], [0.7080171148221043, 42.82464366381759], [0.7078948734039215, 42.824641215655475], [0.7077726320010214, 42.824638767362984], [0.7077759581297239, 42.824548785885526], [0.707653716919107, 42.824546337470295], [0.7075314757237745, 42.82454388892469], [0.7075281492410734, 42.824633870386826], [0.7074059078840272, 42.82463142170318], [0.7072836665422668, 42.82462897288914], [0.7071614252157931, 42.82462652394471], [0.7071647522294914, 42.82453654250555], [0.7072869933789654, 42.824538991442324], [0.7072903202003781, 42.82444900999387], [0.7071680792279016, 42.82444656106477], [0.7071714062110248, 42.82435657962235], [0.7070491654308335, 42.82435413057052], [0.7070524925756649, 42.824264149134144], [0.7069302519877576, 42.8242616999596], [0.7068080114151399, 42.82425925065467], [0.7068113388986739, 42.824169269232], [0.7066890985183415, 42.82416681980433], [0.7065668581532996, 42.82416437024631], [0.7065701859755331, 42.824074388837325], [0.7064479458027768, 42.82407193915657], [0.706325705645313, 42.824069489345426], [0.7062034655031414, 42.824067039403914], [0.7062067938410637, 42.823977058016304], [0.7060845538911796, 42.82397460795207], [0.70596231395659, 42.823972157757446], [0.7058400740372953, 42.82396970743245], [0.7058434028909016, 42.8238797260662], [0.7057211631638953, 42.823877275618486], [0.7055989234521862, 42.82387482504038], [0.7056022526444791, 42.82378484368785], [0.7054800131250593, 42.82378239298703], [0.7053577736209371, 42.82377994215584], [0.7052355341321146, 42.82377749119425], [0.7051132946585921, 42.82377504010229], [0.7049910552003701, 42.82377258887995], [0.7048688157574502, 42.82377013752722], [0.7047465763298326, 42.823767686044114], [0.7047499067457592, 42.82367770474364], [0.7046276675104345, 42.82367525313782], [0.7045054282904137, 42.823672801401614], [0.7043831890856979, 42.82367034953504], [0.704260949896288, 42.82366789753808], [0.7041387107221837, 42.82366544541074], [0.7041420420077514, 42.82357546414699], [0.7040198030259431, 42.82357301189694], [0.7040164715633871, 42.823662993153015], [0.7040131400855231, 42.82375297440745], [0.7041353794213095, 42.823755426672854], [0.7042576187724026, 42.82375787880787]], [[0.7050633445481024, 42.825124759759184], [0.7051855866765758, 42.82512721096618], [0.7051822567237996, 42.82521719227129], [0.7050600144183232, 42.82521474105661], [0.7050633445481024, 42.825124759759184]], [[0.7051889166140511, 42.82503722965946], [0.7053111585808223, 42.8250396807284], [0.70530782882035, 42.8251296620428], [0.7051855866765758, 42.82512721096618], [0.7051889166140511, 42.82503722965946]], [[0.7044621270878323, 42.82484255798133], [0.7043398855821874, 42.82484010601501], [0.7043432167127565, 42.824750124757095], [0.7044654580414021, 42.82475257671574], [0.7044621270878323, 42.82484255798133]], [[0.7061202520843892, 42.82631657356504], [0.706123580804681, 42.826226592218134], [0.7061269095096763, 42.826136610869604], [0.706249153722919, 42.826139060987444], [0.7062524822356075, 42.826049079629605], [0.7063747262871329, 42.82605152960939], [0.7063713979514561, 42.82614151097489], [0.7064936421952874, 42.82614396083195], [0.706615886454412, 42.82614641055861], [0.7066125584574682, 42.826236391937805], [0.7064903140213307, 42.82623394220349], [0.7063680696004864, 42.826231492338756], [0.7063647412342222, 42.82632147370099], [0.706361412852664, 42.8264114550616], [0.7062391680930854, 42.826409005051154], [0.7061169233488015, 42.826406554910314], [0.7061202520843892, 42.82631657356504]], [[0.7061435528052225, 42.82568670410251], [0.7061468814184456, 42.82559672274421], [0.7062691245696279, 42.82559917281605], [0.7063913677361047, 42.82560162275749], [0.7063946959800181, 42.82551164138223], [0.7065169389847813, 42.82551409118563], [0.7066391820048369, 42.82551654085864], [0.7066358541149379, 42.82560652224923], [0.7066325262097471, 42.8256965036382], [0.7066291982892647, 42.82578648502554], [0.7066258703534902, 42.825876466411245], [0.7067481140968728, 42.82587891598452], [0.7067447863228162, 42.82596889737626], [0.7066225424024235, 42.82596644779533], [0.7065002984973221, 42.82596399808399], [0.7063780546075145, 42.82596154824227], [0.7063813829126027, 42.82587156687352], [0.7062591392150989, 42.825869116909075], [0.7062624676819036, 42.82577913554635], [0.7061402241767036, 42.82577668545918], [0.7061435528052225, 42.82568670410251]], [[0.7059980075324159, 42.826314123301465], [0.7058757629957394, 42.82631167290751], [0.7058790920700575, 42.826221691575945], [0.7060013364297214, 42.826224141962236], [0.7059980075324159, 42.826314123301465]]]}, "properties": {"area_ha": 6.65, "dnbr_threshold_core": 0.35, "dnbr_threshold_grow": 0.22, "forest_mask": "esa_worldcover_2021_10_20", "part": 0, "fire_id": "257762", "burn_year": 2025, "source": "sentinel", "aoi_source": "effis", "dnbr_threshold": 0.35, "buffer_m": 1200.0, "post_windows": 2, "post_window_dates": [{"start": "2025-02-26", "end": "2025-03-21"}, {"start": "2025-03-21", "end": "2025-04-20"}], "pre_window": {"start": "2024-12-06", "end": "2025-02-12"}, "fire_date": "2025-02-19"}}, {"type": "Feature", "geometry": {"type": "Polygon", "coordinates": [[[0.7142315465897414, 42.82530823845482], [0.7141093033311676, 42.82530579689664], [0.7139870600878363, 42.825303355208085], [0.7139903772809241, 42.8252133733502], [0.7139936944587697, 42.82512339149069], [0.7138714515846964, 42.82512094968702], [0.7137492087258676, 42.825118507752954], [0.7137458911940073, 42.825208489597195], [0.7136236481734138, 42.8252060475251], [0.7136269658822821, 42.825116065688505], [0.7136302835759041, 42.8250260838503], [0.7137525262424832, 42.825028525907115], [0.7137558437438549, 42.82493854405963], [0.7136336012542821, 42.824936102010454], [0.7135113587799544, 42.82493365983089], [0.7135080409245707, 42.825023641663094], [0.7133857982884831, 42.8250211993455], [0.713263555667642, 42.825018756897514], [0.713141313062048, 42.82501631431915], [0.7130190704717029, 42.82501387161039], [0.7130157518930486, 42.82510385341039], [0.7128935091409464, 42.82510141056359], [0.7128901903700364, 42.82519139235433], [0.7127679474561771, 42.8251889493695], [0.7127646284930097, 42.82527893115095], [0.7126423854173942, 42.825276488028095], [0.712645704557569, 42.82518650625428], [0.712523461674212, 42.82518406300868], [0.7125267809761423, 42.82509408124087], [0.7124045382850442, 42.82509163787251], [0.7124012188061078, 42.82518161963267], [0.7123978993119182, 42.8252716013912], [0.7123945798024747, 42.825361583148094], [0.7125168230245948, 42.82536402653938], [0.7125135036769072, 42.8254540083023], [0.712391260277778, 42.82545156490337], [0.7122690168939031, 42.82544912137404], [0.7122656971769439, 42.825539103120036], [0.7121434536313135, 42.825536659452666], [0.712140133722089, 42.825626641189395], [0.7121368137976093, 42.82571662292449], [0.7122590576972612, 42.82571906660715], [0.7123813016121674, 42.82572151015942], [0.7123846211826251, 42.825631528409026], [0.7123879407378285, 42.82554154665701], [0.7125101843139672, 42.825543990063586], [0.7126324279053581, 42.825546433339774], [0.7126357470912887, 42.825456451570844], [0.7127579905209223, 42.825458894708994], [0.7128802339658061, 42.82546133771677], [0.7130024774259408, 42.82546378059413], [0.7129991587710408, 42.825553762385994], [0.7131214024234351, 42.82555620514061], [0.7132436460910779, 42.825558647764844], [0.7133658897739688, 42.825561090258674], [0.7133625716348525, 42.82565107207184], [0.7134848155100018, 42.82565351444293], [0.7136070594003975, 42.825655956683626], [0.7137293033060388, 42.82565839879393], [0.7137326209141217, 42.825568416957836], [0.7138548646579961, 42.8255708589301], [0.7139771084171144, 42.82557330077197], [0.7139737911630546, 42.82566328262334], [0.713970473893752, 42.82575326447309], [0.7139671566092051, 42.82584324632123], [0.7139638393094158, 42.82593322816771], [0.7139605219943824, 42.826023210012586], [0.7139572046641066, 42.826113191855825], [0.7140794495005499, 42.82611563361315], [0.7142016943522366, 42.82611807524007], [0.7141983773607491, 42.82620805709697], [0.7143206224046942, 42.826210498601135], [0.7144428674638802, 42.826212939974916], [0.7145651125383069, 42.8262153812183], [0.7146873576279725, 42.82621782233128], [0.7146906739113925, 42.82612784044384], [0.7145684289987435, 42.82612539933849], [0.7145717454439401, 42.82603541745706], [0.7145750618738979, 42.82594543557399], [0.7146973064325157, 42.82594787666406], [0.7148195510063725, 42.82595031762373], [0.7149417955954661, 42.82595275845301], [0.715064040199797, 42.825955199151906], [0.7150673559064564, 42.82586521723667], [0.7151896003490091, 42.825867657797524], [0.7151929158634193, 42.82577767587301], [0.7153151601441926, 42.82578011629584], [0.7153184754663544, 42.82569013436208], [0.7153217907732814, 42.825600152426674], [0.7153251060649742, 42.825510170489665], [0.7152028623152386, 42.82550773008975], [0.7150806185807373, 42.82550528955943], [0.7150839342112185, 42.82541530763606], [0.7150872498264638, 42.82532532571105], [0.7149650064612193, 42.825322885065624], [0.7148427631112105, 42.8253204442898], [0.7147205197764391, 42.825318003383586], [0.7147238359074756, 42.825228021479866], [0.7147271520232741, 42.82513803957453], [0.7147304681238349, 42.82504805766756], [0.714733784209158, 42.824958075758964], [0.714611541597655, 42.824955634752904], [0.7146082253353256, 42.82504561665387], [0.7144859825620549, 42.82504317550979], [0.7143637398040232, 42.825040734235316], [0.714360423172441, 42.82513071611937], [0.7144826661074796, 42.82513315740148], [0.7144793496376651, 42.82522313929155], [0.7144760331526114, 42.82531312117998], [0.7143537898635556, 42.8253106798826], [0.7143571065256187, 42.82522069800179], [0.7142348634288124, 42.825218256581664], [0.7142315465897414, 42.82530823845482]], [[0.7131379946604004, 42.8251062961268], [0.7131346762435045, 42.82519627793281], [0.7131313578113601, 42.8252862597372], [0.7130091146899935, 42.82528381700551], [0.7130124332991452, 42.82519383520877], [0.7130157518930486, 42.82510385341039], [0.7131379946604004, 42.8251062961268]], [[0.7145850110723357, 42.82567548991503], [0.7145816946880956, 42.82576547180298], [0.7144594504987457, 42.82576303059779], [0.714456133922253, 42.825853012476465], [0.7143338895711281, 42.82585057113325], [0.7143372063246346, 42.8257605892622], [0.7142149621657651, 42.82575814779623], [0.7142182790810432, 42.8256681659312], [0.7143405230629005, 42.82567060738953], [0.714343839785925, 42.825580625515244], [0.7144660836060109, 42.82558306683554], [0.7144627670599983, 42.82567304871748], [0.7145850110723357, 42.82567548991503]], [[0.7144528173305199, 42.82594299435352], [0.7144495007235468, 42.82603297622895], [0.7143272560183932, 42.826030534870455], [0.7143305728023817, 42.82594055300266], [0.7144528173305199, 42.82594299435352]]]}, "properties": {"area_ha": 1.56, "dnbr_threshold_core": 0.35, "dnbr_threshold_grow": 0.22, "forest_mask": "esa_worldcover_2021_10_20", "part": 11, "fire_id": "257762", "burn_year": 2025, "source": "sentinel", "aoi_source": "effis", "dnbr_threshold": 0.35, "buffer_m": 1200.0, "post_windows": 2, "post_window_dates": [{"start": "2025-02-26", "end": "2025-03-21"}, {"start": "2025-03-21", "end": "2025-04-20"}], "pre_window": {"start": "2024-12-06", "end": "2025-02-12"}, "fire_date": "2025-02-19"}}]}
