{"type": "FeatureCollection", "features": [{"type": "Feature", "geometry": {"type": "Polygon", "coordinates": [[[1.1766912939590248, 41.60304707137511], [1.1766887587810617, 41.603137098597294], [1.177048589649435, 41.603142806605945], [1.1770511243277562, 41.60305277936581], [1.1774109548002702, 41.60305848623096], [1.1774134889674193, 41.60296845897135], [1.177293545631598, 41.60296655681401], [1.1773087513916487, 41.602426393259854], [1.177188809066623, 41.60242449101334], [1.1771913434861527, 41.6023344637549], [1.1770714013391983, 41.6023325613893], [1.177073935913739, 41.60224253413531], [1.1769539939448563, 41.60224063165062], [1.176959063392423, 41.60206057714997], [1.176719180155412, 41.60205677182936], [1.176721715194975, 41.60196674458869], [1.1763618909255722, 41.60196103568778], [1.1763593553863947, 41.60205106291051], [1.176239413819792, 41.60204915968744], [1.1762368781025403, 41.60213918690265], [1.1761169363809347, 41.60213728354854], [1.176111864578743, 41.60231733796236], [1.1759919225355946, 41.602315434471215], [1.1759893864506523, 41.602405461669825], [1.1757495020658877, 41.6024016543004], [1.175746965636324, 41.60249168148551], [1.1753871386461003, 41.60248596947545], [1.1753896755752882, 41.602395942308306], [1.1752697334348372, 41.602394038060815], [1.175272270519024, 41.602304010898116], [1.1750323866058314, 41.602300202039935], [1.1750349240115552, 41.602210174887674], [1.1749149822388136, 41.602208270276975], [1.1749175197995336, 41.602118243129155], [1.1750374614057357, 41.602120147733864], [1.1750425361594656, 41.60194009342161], [1.174922594886339, 41.60193818882888], [1.1749251324124248, 41.60184816167646], [1.1748051913173787, 41.60184625696465], [1.174795040477617, 41.60220636554122], [1.1745551569898598, 41.60220255569455], [1.1745526189179767, 41.602292582822855], [1.1743127351433282, 41.60228877246396], [1.1743101967268181, 41.602378799578766], [1.174430138774909, 41.60238070482673], [1.174425062240327, 41.60256075906366], [1.1745450046330477, 41.60256266419855], [1.17453992838536, 41.60274271844131], [1.174300042945294, 41.602738908022516], [1.174297504471042, 41.6028289351296], [1.1741775616017878, 41.60282702972661], [1.1741801002425842, 41.602737002625524], [1.174060157551423, 41.60273509710348], [1.1740576187440825, 41.60282512419858], [1.1739376758979285, 41.60282321854548], [1.1739351369124935, 41.60291324563305], [1.1741750229494419, 41.602917056826186], [1.1741724842855465, 41.60300708392419], [1.1742924274878905, 41.603008989339145], [1.1742898889789912, 41.603099016441604], [1.1747696625700341, 41.603106636874784], [1.1747671247157745, 41.60319666399966], [1.1759665611669616, 41.603215706388], [1.1759690973557464, 41.60312567920326], [1.176208984451373, 41.60312948616819], [1.1762115202955254, 41.60303945896994], [1.1764514071042051, 41.60304326542265], [1.1764488715931467, 41.60313329263287], [1.1765688151813367, 41.603135195677616], [1.1765713505258477, 41.60304516846141], [1.1766912939590248, 41.60304707137511]]]}, "properties": {"area_ha": 2.54, "dnbr_threshold_core": 0.35, "dnbr_threshold_grow": 0.22, "dnbr_mean": 0.5831, "dnbr_max": 0.8802, "severity": "alta", "severity_method": "dnbr_mean", "forest_mask": "esa_worldcover_2021_10_20", "part": 1, "fire_id": "561275", "burn_year": 2026, "source": "sentinel", "aoi_source": "effis", "dnbr_threshold": 0.35, "buffer_m": 1200.0, "post_windows": 2, "post_window_dates": [{"start": "2026-07-15", "end": "2026-08-07"}, {"start": "2026-08-07", "end": "2026-09-06"}], "pre_window": {"start": "2026-04-24", "end": "2026-07-01"}, "fire_date": "2026-07-08"}}, {"type": "Feature", "geometry": {"type": "Polygon", "coordinates": [[[1.17562012944415, 41.606993038775464], [1.1756226664507576, 41.606903011667434], [1.1753827654561435, 41.60689920319916], [1.1753802281163772, 41.60698923029522], [1.1751403268347793, 41.606985421314654], [1.1751377891503092, 41.607075448397204], [1.1748978875817342, 41.60707163890432], [1.1748953495525565, 41.607161665973365], [1.1750153004976516, 41.60716357078832], [1.1750127626235085, 41.60725359786179], [1.1748928115118327, 41.60725169304085], [1.1748826592334625, 41.60761180129538], [1.1744028522369059, 41.60760418066494], [1.1744053909901562, 41.60751415362758], [1.174165487894346, 41.60751034257384], [1.1741680269692123, 41.60742031554692], [1.1739281242527755, 41.60741650400484], [1.1739255848447425, 41.60750653101977], [1.1738056333372708, 41.607504625055114], [1.173803093751101, 41.607594652062524], [1.173443238798262, 41.607588933400066], [1.1734406987007837, 41.60767896038796], [1.1733207469063651, 41.60767705391099], [1.1733182066307453, 41.60776708089136], [1.1731982546812993, 41.607765174283294], [1.173193173762216, 41.60794522822739], [1.1727133647473305, 41.607937600496385], [1.1727108236041024, 41.60802762744214], [1.1728307760070709, 41.60802953456852], [1.1728282350188695, 41.60811956151872], [1.1737878559914388, 41.60813481407461], [1.1737954749232644, 41.6078647330755], [1.1739154270970762, 41.60786663906412], [1.173917966551323, 41.60777661205535], [1.174997535136174, 41.6077937602703], [1.1750000730795966, 41.60770373320605], [1.1757197849896186, 41.60771515968465], [1.1757400801253504, 41.60699494282798], [1.17562012944415, 41.606993038775464]]]}, "properties": {"area_ha": 1.16, "dnbr_threshold_core": 0.35, "dnbr_threshold_grow": 0.22, "dnbr_mean": 0.4037, "dnbr_max": 0.6739, "severity": "moderada", "severity_method": "dnbr_mean", "forest_mask": "esa_worldcover_2021_10_20", "part": 5, "fire_id": "561275", "burn_year": 2026, "source": "sentinel", "aoi_source": "effis", "dnbr_threshold": 0.35, "buffer_m": 1200.0, "post_windows": 2, "post_window_dates": [{"start": "2026-07-15", "end": "2026-08-07"}, {"start": "2026-08-07", "end": "2026-09-06"}], "pre_window": {"start": "2026-04-24", "end": "2026-07-01"}, "fire_date": "2026-07-08"}}, {"type": "Feature", "geometry": {"type": "Polygon", "coordinates": [[[1.1803867755554205, 41.603916246279596], [1.18039183575801, 41.60373619148782], [1.1805117807257517, 41.60373809044126], [1.1805168405491915, 41.60355803563139], [1.1806367851953363, 41.60355993444781], [1.1806418446396325, 41.60337987961983], [1.18088173330024, 41.60338367685361], [1.1808918507183286, 41.60302356713141], [1.1807719070484701, 41.603021668600924], [1.1807794954908528, 41.602751586310994], [1.1808994386610696, 41.60275348482358], [1.1809146142358653, 41.60221332016632], [1.1810345564183256, 41.602215218518026], [1.1810472015815243, 41.60176508123144], [1.1812870843155647, 41.60176887749999], [1.1812971989067316, 41.60140876759526], [1.1815370803544967, 41.601412563315854], [1.1815471934293351, 41.60105245333873], [1.1816671335043372, 41.601054350987575], [1.1816696615777602, 41.600964323483474], [1.1817896014977316, 41.60096622100131], [1.1817946572770122, 41.60078616597656], [1.181914596875423, 41.60078806335739], [1.1819171245812827, 41.60069803583674], [1.182037064024665, 41.60069993308656], [1.182049701548837, 41.600249795430386], [1.1822895788048202, 41.600253589495225], [1.1822946330679005, 41.60007353439811], [1.1824145713800884, 41.600075431231026], [1.1824170983278597, 41.59998540367419], [1.1825370364850198, 41.59998730037609], [1.182542090013029, 41.599807245245884], [1.182662027848639, 41.5998091418108], [1.1826645544288792, 41.59971911423744], [1.182784492109462, 41.599721010671345], [1.1827895449024186, 41.59954095550805], [1.182909482261454, 41.59954285180498], [1.1829145346753989, 41.5993627966236], [1.1830344717128884, 41.59936469278356], [1.1830395237478284, 41.5991846375841], [1.1831594604637743, 41.599186533607096], [1.1831670379304482, 41.59891645077846], [1.1832869741583387, 41.598918346658515], [1.183294551022055, 41.59864826379815], [1.1834144867618945, 41.598650159535275], [1.1834170121936411, 41.59856013190611], [1.183177141058476, 41.598556340318716], [1.1831796668117565, 41.598466312699934], [1.1830597314279203, 41.59846441672463], [1.18306478323303, 41.59828436149436], [1.1829448481937053, 41.59828246540593], [1.1829499002858679, 41.59810241018141], [1.182710030907728, 41.59809861765327], [1.1827125572695858, 41.59800859005063], [1.1828324917864024, 41.59801048637127], [1.1828350179702602, 41.59792045876112], [1.182954952332063, 41.59792235495076], [1.182957478337923, 41.5978323273331], [1.1828375441426264, 41.59783043114944], [1.1828400703035, 41.59774040353622], [1.1826002022803943, 41.59773661080568], [1.182597675786511, 41.59782663840698], [1.1824777416256944, 41.59782474184819], [1.1824802682860824, 41.59773471425286], [1.1823603343032647, 41.59773281757499], [1.1823628611186623, 41.597642789984086], [1.1820030597386957, 41.59763709921811], [1.1820005324237854, 41.59772712679113], [1.1818805984869534, 41.5977252296131], [1.1818780709940424, 41.59781525717862], [1.1816382028218648, 41.597811462435494], [1.1816457862651275, 41.59754137977009], [1.1814059191379704, 41.59753758456261], [1.1814033910020436, 41.597627612107345], [1.181283457289214, 41.59762571431007], [1.1812784006498498, 41.59780576938298], [1.181398334695687, 41.59780766719219], [1.181395806525256, 41.59789769473232], [1.1815157407490995, 41.59789959242244], [1.1815132127336736, 41.59798961996699], [1.1817530815488748, 41.59799341498405], [1.1817505538549609, 41.598083442538986], [1.1818704884463165, 41.59808533986593], [1.1818629057951047, 41.598355422539385], [1.1819828408974844, 41.59835731975917], [1.1819777860722032, 41.59853737487903], [1.182097721519102, 41.5985392719857], [1.1820951942557252, 41.59862929954929], [1.1819752586423158, 41.59862740243665], [1.1819600938215253, 41.59916756775002], [1.181720220631034, 41.59916377307804], [1.181702525485664, 41.599793965790035], [1.1815825877420363, 41.5997920682247], [1.1815800596516033, 41.59988209574286], [1.1813401838658089, 41.599878300225136], [1.1813376554308295, 41.59996832772982], [1.1812177173886633, 41.59996642977741], [1.181212660151149, 41.60014648477022], [1.180972783435235, 41.600142688466384], [1.1809525513605883, 41.60086290828055], [1.1807126720262613, 41.600859111381], [1.1807050838092388, 41.60112919375007], [1.180585143659743, 41.60112729509481], [1.1805826140645206, 41.60121732254211], [1.1804626737600001, 41.60121542375583], [1.1804525545978921, 41.60157553350578], [1.1803326136387429, 41.60157363457056], [1.1803149034961762, 41.60220382653187], [1.180194961382766, 41.602201927429796], [1.1801899009053567, 41.60238198225007], [1.1800699584703747, 41.602380083011], [1.1800497147679125, 41.60310030218272], [1.1798098272677555, 41.60309650323385], [1.1798022346900792, 41.603366585362004], [1.1790825694680762, 41.60335518540631], [1.1790851013381178, 41.60326515806764], [1.1787252693822603, 41.60325945641933], [1.178720204631357, 41.603439511059264], [1.1788401489382234, 41.60344141174572], [1.1788376167120411, 41.603531439069364], [1.1789575611969796, 41.603533339636726], [1.1789524970431593, 41.60371339429133], [1.178712607418593, 41.603709593007636], [1.1787100749912955, 41.60379962032068], [1.1788300199643724, 41.60380152103103], [1.1788224231130189, 41.60407160297882], [1.1787024776402761, 41.60406970225055], [1.178692347677615, 41.604429811468805], [1.1789322399670847, 41.60443361284809], [1.1789297077807348, 41.60452364016075], [1.17904965410931, 41.604525540668774], [1.1790521861291, 41.60443551335014], [1.1801317021055258, 41.60445261224035], [1.1801418240733923, 41.60409250273537], [1.1800218784739624, 41.60409060338285], [1.1800244091037047, 41.60400057600872], [1.1801443545365777, 41.60400247535527], [1.1801468849882502, 41.60391244797364], [1.1803867755554205, 41.603916246279596]]]}, "properties": {"area_ha": 7.06, "dnbr_threshold_core": 0.35, "dnbr_threshold_grow": 0.22, "dnbr_mean": 0.6299, "dnbr_max": 0.8891, "severity": "alta", "severity_method": "dnbr_mean", "forest_mask": "esa_worldcover_2021_10_20", "part": 50, "fire_id": "561275", "burn_year": 2026, "source": "sentinel", "aoi_source": "effis", "dnbr_threshold": 0.35, "buffer_m": 1200.0, "post_windows": 2, "post_window_dates": [{"start": "2026-07-15", "end": "2026-08-07"}, {"start": "2026-08-07", "end": "2026-09-06"}], "pre_window": {"start": "2026-04-24", "end": "2026-07-01"}, "fire_date": "2026-07-08"}}, {"type": "Feature", "geometry": {"type": "Polygon", "coordinates": [[[1.1851632204160225, 41.60903554666165], [1.1851682682469233, 41.60885549155347], [1.1850483134910184, 41.60885359726929], [1.185055885651041, 41.60858351461332], [1.1848159771732703, 41.60857972570542], [1.1848185015368358, 41.608489698162266], [1.1846985474817737, 41.608487803526636], [1.184703596507641, 41.608307748447615], [1.184463689098355, 41.608303958824926], [1.1844662139272473, 41.60821393129501], [1.184706121003346, 41.60821772090579], [1.184708645487565, 41.60812769336243], [1.1845886921103659, 41.60812579862554], [1.1845912167496915, 41.6080357710866], [1.1843513103629373, 41.60803198124947], [1.1843538353239593, 41.6079419537209], [1.1841139293163394, 41.60793816339534], [1.184111404022134, 41.608028190911995], [1.1838714977272877, 41.608024400074164], [1.1838740233546758, 41.60793437256943], [1.1836341174389753, 41.60793058124318], [1.1836391693256385, 41.60775052625292], [1.1824396437685838, 41.60773156223573], [1.1824446989410404, 41.60755150735855], [1.1819648903728694, 41.607543918297004], [1.1819623621260413, 41.6076339457125], [1.181362600841707, 41.60762445654134], [1.1813651299214696, 41.60753442915567], [1.1812451778657052, 41.607532530952156], [1.181250236323884, 41.60735247618812], [1.1811302846127991, 41.60735057787145], [1.181135343358117, 41.60717052311319], [1.1808954406368068, 41.60716672612849], [1.1808979703253701, 41.60707669875898], [1.1807780191485608, 41.60707480008498], [1.1807805489921972, 41.606984772719905], [1.1806605979934799, 41.60698287392679], [1.1806555379615329, 41.60716292864345], [1.1804156353323023, 41.607159130658076], [1.1804181656871968, 41.607069103312455], [1.1802982145564316, 41.60706720413811], [1.1803007450663958, 41.606977176796924], [1.1801807941137257, 41.60697527750349], [1.1801858554322762, 41.6067952228284], [1.180065904824281, 41.60679332342182], [1.1800709664299358, 41.606613268752525], [1.1799510161666125, 41.60661136923281], [1.1799586089884706, 41.60634128723523], [1.1798386592363932, 41.606339387608344], [1.179841190320558, 41.60624936027871], [1.179121493049398, 41.60623795992657], [1.1791240251214956, 41.60614793263124], [1.178884126456408, 41.606144131525184], [1.1788866588501323, 41.606054104240265], [1.178526811438635, 41.60604840166103], [1.1785293443205553, 41.6059583743925], [1.1782894464369857, 41.60595457205957], [1.1782919796405271, 41.60586454480144], [1.1780520821362, 41.60586074198017], [1.1780546156613583, 41.60577071473246], [1.1778147185362786, 41.60576691142283], [1.1778121846779797, 41.6058569386586], [1.1776922359661615, 41.60585503681019], [1.1776947699910312, 41.60576500958041], [1.1775748214573118, 41.60576310761292], [1.1775773556372224, 41.60567308038758], [1.177457407281603, 41.60567117830099], [1.177459941616553, 41.60558115108009], [1.1772200452730424, 41.60557734654365], [1.177222579929599, 41.605487319333164], [1.1771026319417084, 41.605485416883305], [1.1771051667533015, 41.60539538967724], [1.1768652711452525, 41.60539158441428], [1.1768602008442646, 41.6055716388009], [1.1767402527244057, 41.60556973596984], [1.1767377173900424, 41.605659763154854], [1.1766177691151494, 41.60565786019273], [1.1766203046160812, 41.6055678330137], [1.1762604603603237, 41.60556212339485], [1.1762579243596862, 41.60565215055592], [1.1763778725999707, 41.605654053893254], [1.1763728008972214, 41.60583410822277], [1.1764927494821824, 41.605836011446996], [1.1764902137800728, 41.60592603861543], [1.17661016254314, 41.60592794172057], [1.176605091437456, 41.60610799606477], [1.176725040545203, 41.60610989905679], [1.1767225051416303, 41.60619992623256], [1.177082353033799, 41.60620563447614], [1.1770798181184137, 41.606295661668305], [1.1775596161357245, 41.60630327093258], [1.1775621503848135, 41.60621324371649], [1.1778020491295016, 41.60621704758621], [1.1777995152135616, 41.60630707481426], [1.1780394143375126, 41.606310878195615], [1.1780343471373504, 41.60649093267101], [1.1785141468561742, 41.60649853798061], [1.1785116139051104, 41.6065885652399], [1.1786315640302052, 41.60659046626058], [1.1786264984266628, 41.6067705207865], [1.1788663993777342, 41.606774322476525], [1.1788613343944174, 41.60695437702018], [1.179101236057897, 41.60695817823379], [1.1790987038821181, 41.60704820551525], [1.1800583123294417, 41.607063405414195], [1.1800557814747996, 41.6071534327419], [1.1801757327491207, 41.607155332172375], [1.1801732020495475, 41.607245359504525], [1.1802931535019654, 41.60724725881588], [1.180283031254875, 41.60760736815293], [1.1804029833851464, 41.60760926736309], [1.1804004529611785, 41.607699294699465], [1.180520405269549, 41.60770119379051], [1.1805178750006564, 41.607791221131315], [1.1806378274871274, 41.607793120103246], [1.180635297373311, 41.60788314744849], [1.1807552500378822, 41.60788504630131], [1.1807577799851097, 41.6077950189501], [1.1808777324946027, 41.607796917671855], [1.180875202713964, 41.60788694502904], [1.1809951554015548, 41.60788884363169], [1.180997685015605, 41.607798816268534], [1.181597447793234, 41.60780830737564], [1.1815949190121293, 41.607898334768635], [1.1814749662670008, 41.607896436791414], [1.1814673793548858, 41.60816651894322], [1.1815873325997863, 41.608168416938334], [1.1815797460838955, 41.608438499094184], [1.1816996998400804, 41.60844039698211], [1.1817022285236225, 41.608350369592394], [1.1820620893614209, 41.608356062487765], [1.1820646175336784, 41.60826603507862], [1.1824244779752182, 41.608271726830296], [1.1824219503027407, 41.60836175425735], [1.1825419039728489, 41.60836365126368], [1.1825444314787328, 41.608273623830684], [1.183024245607776, 41.608281210581346], [1.1830217187682666, 41.6083712380382], [1.183141672495864, 41.60837313441912], [1.1831391458114524, 41.608463161880394], [1.1833790536343223, 41.60846695427887], [1.183381579985544, 41.60837692680566], [1.1837414413062683, 41.60838261444734], [1.183743967146214, 41.60829258695472], [1.1838639207761792, 41.60829448257914], [1.183861395102828, 41.60838451007771], [1.1841013027304192, 41.608388300963206], [1.1840987773787666, 41.608478328472174], [1.1843386853855058, 41.60848211886922], [1.1843361603555556, 41.60857214638855], [1.184456114542754, 41.608574041405404], [1.1844510647815834, 41.60875409645136], [1.1845710193134635, 41.60875599135503], [1.1845634450853482, 41.60902607393028], [1.184683400128512, 41.609027968726735], [1.1846808755294347, 41.609117996254696], [1.184800830750685, 41.60911989093202], [1.1847882084160142, 41.60957002857849], [1.1849081644817663, 41.609571923160495], [1.1849056401469802, 41.609661950691134], [1.1853854651912508, 41.60966952779206], [1.1853804178200762, 41.609849582896345], [1.185620331077534, 41.60985337072005], [1.1856228544356484, 41.60976334315678], [1.1858627674058142, 41.60976713046821], [1.185877905314152, 41.60922696498474], [1.1856379943432416, 41.60922317774476], [1.185645564142054, 41.60895309501796], [1.185525609173622, 41.608951201228194], [1.185523085752231, 41.60904122879938], [1.1851632204160225, 41.60903554666165]]]}, "properties": {"area_ha": 5.59, "dnbr_threshold_core": 0.35, "dnbr_threshold_grow": 0.22, "dnbr_mean": 0.5172, "dnbr_max": 0.869, "severity": "alta", "severity_method": "dnbr_mean", "forest_mask": "esa_worldcover_2021_10_20", "part": 64, "fire_id": "561275", "burn_year": 2026, "source": "sentinel", "aoi_source": "effis", "dnbr_threshold": 0.35, "buffer_m": 1200.0, "post_windows": 2, "post_window_dates": [{"start": "2026-07-15", "end": "2026-08-07"}, {"start": "2026-08-07", "end": "2026-09-06"}], "pre_window": {"start": "2026-04-24", "end": "2026-07-01"}, "fire_date": "2026-07-08"}}, {"type": "Feature", "geometry": {"type": "Polygon", "coordinates": [[[1.181733677186282, 41.61150322528118], [1.1817311482666588, 41.611593252622946], [1.181851107877118, 41.6115951504695], [1.18184857911261, 41.61168517781568], [1.1819685389011962, 41.61168707554312], [1.1819710674990827, 41.61159704819097], [1.1822109867775241, 41.61160084325859], [1.182208458512881, 41.61169087062265], [1.1824483781705775, 41.61169466520179], [1.1824433222732713, 41.61187471994918], [1.182563282452618, 41.611876617063025], [1.1825658102403993, 41.61178658968414], [1.182685770264624, 41.61178848666691], [1.1826832426434655, 41.61187851405177], [1.1831630835218514, 41.61188610075569], [1.1831605565556897, 41.611976128162844], [1.1836403982845274, 41.61198371288896], [1.1836378719733684, 41.61207374031842], [1.1837578326009408, 41.612075636193154], [1.1837553064449131, 41.612165663627046], [1.1838752672506048, 41.61216755938263], [1.183862637131206, 41.612617696558736], [1.185062254151533, 41.61263664753167], [1.1850572053559478, 41.612816702510486], [1.1852971295643908, 41.61282049122761], [1.1853021776934494, 41.612640436224986], [1.1851822159167487, 41.612638541940875], [1.1851847401306828, 41.612548514443205], [1.184584932252619, 41.61253904117589], [1.1845874572882162, 41.61244901370645], [1.1843475345506638, 41.6124452235357], [1.1843500599080299, 41.612355196076635], [1.184110137549694, 41.61235140541738], [1.184127817062298, 41.611721213244266], [1.1831681374196834, 41.61170604593675], [1.1831706643513533, 41.61161601852497], [1.182930744888899, 41.61161222545899], [1.1829332721423151, 41.61152219805758], [1.1824534340218777, 41.611514610448246], [1.182468601299744, 41.61097444615063], [1.1823486427980956, 41.610972548971326], [1.1823511708041012, 41.610882521588955], [1.1821112541685406, 41.61087872686698], [1.1821137824962733, 41.61078869949501], [1.1818738662399553, 41.61078490428458], [1.1818713375789935, 41.61087493164462], [1.1816314210354655, 41.61087113592185], [1.1816288920297682, 41.61096116326842], [1.1810291000392488, 41.610951671742434], [1.1810316298780201, 41.610861644425704], [1.180791713495608, 41.61085784695156], [1.1807942436560976, 41.61076781964522], [1.1806742856487717, 41.61076592072647], [1.1806793462684417, 41.61058586612112], [1.1801995156871725, 41.61057826924289], [1.1802045775936811, 41.61039821467915], [1.1800846203103723, 41.610396315158795], [1.180087151412964, 41.61030628788057], [1.1798472372141133, 41.61030248847652], [1.179849768638407, 41.61021246120872], [1.1797298117228658, 41.61021056132501], [1.1797272801319636, 41.610300588586846], [1.179607323061332, 41.61029868857208], [1.1796098548188432, 41.610208661316214], [1.1781703728692534, 41.61018585145325], [1.1781729066145374, 41.61009582426756], [1.1780529500269248, 41.610093922638505], [1.1780554839272874, 41.61000389545723], [1.1776956147334452, 41.60999818983744], [1.1776981491220953, 41.60990816267259], [1.1774582367170647, 41.60990435831254], [1.1774607714273935, 41.6098143311581], [1.1772208594017006, 41.609810526309644], [1.1772183243581622, 41.60990055345212], [1.1768584559063138, 41.60989484522331], [1.1768559203514264, 41.6099848723463], [1.176735964057276, 41.609982969347186], [1.176733428324246, 41.61007299646268], [1.1763735590112039, 41.610067286696825], [1.17637609524405, 41.6099772595993], [1.1762561389960522, 41.60997535609981], [1.1762586753839641, 41.60988532900673], [1.1760187632557977, 41.609881521644446], [1.1760212999653779, 41.609791494561804], [1.1759013440852104, 41.60978959069901], [1.175906417802953, 41.60960953654104], [1.1763862400600458, 41.609617151193795], [1.1763913123988108, 41.60943709698178], [1.17651126765873, 41.60943900032027], [1.1765138036442038, 41.60934897320598], [1.1763938485508845, 41.609347069873465], [1.1763989208204164, 41.609167015652226], [1.1762789660718342, 41.60916511220659], [1.176281502355891, 41.60907508509962], [1.176041593226541, 41.60907127784507], [1.176044129832252, 41.60898125074854], [1.1754443580438398, 41.60897173045301], [1.1754468954709907, 41.608881703384874], [1.175206987169624, 41.60887789440301], [1.175204449409281, 41.60896792145917], [1.1749645408209066, 41.60896411196498], [1.1749670789144413, 41.60887408492079], [1.1746072166182757, 41.60886836975929], [1.1746122937702703, 41.60868831570223], [1.174372386296951, 41.608684504993086], [1.17436984739354, 41.608774532010415], [1.173890031919147, 41.6087669090671], [1.1738925714889326, 41.608676882073745], [1.1737726178158125, 41.60867497603118], [1.1737776972539071, 41.608494922051825], [1.173537790608701, 41.60849110961542], [1.173540330643598, 41.60840108263541], [1.1733004243777987, 41.60839726971065], [1.1733029647343214, 41.6083072427411], [1.17270320010505, 41.60829770827017], [1.1727082824493131, 41.608117654386355], [1.1724683773448854, 41.60811383974637], [1.172460752811613, 41.6083839205338], [1.1723407997769755, 41.60838201300818], [1.1723382580761685, 41.60847203992823], [1.172458211277397, 41.60847394745984], [1.1724556697316169, 41.60856397438436], [1.1726955765019453, 41.60856778908431], [1.1726930352777862, 41.608657816019274], [1.1729329424275465, 41.608661630230856], [1.1729278606109186, 41.608841684120144], [1.1731677684732928, 41.60884549785537], [1.1731652278808284, 41.60893552480969], [1.1732851819959498, 41.60893743149566], [1.1732877224218194, 41.60884740453535], [1.173407676381904, 41.60884931109024], [1.1734051361226285, 41.608939338056544], [1.1736450444106592, 41.60894315080304], [1.173647584336744, 41.60885312382476], [1.1741274003850872, 41.60886074779273], [1.1741121646535702, 41.609400909783155], [1.1739922096245696, 41.609399003942855], [1.1739871306217722, 41.609579057915354], [1.1738671752711258, 41.60957715193797], [1.1738620958889083, 41.60975720589231], [1.1739820515727588, 41.60975911188168], [1.1739795120309207, 41.60984913886254], [1.1742194237664885, 41.60985295047797], [1.1742219629751203, 41.60976292348514], [1.1745818301653064, 41.609768639952144], [1.1745792914564839, 41.60985866696295], [1.1746992473762508, 41.60986057220775], [1.1747017859184703, 41.60977054519096], [1.175061653247256, 41.60977626015685], [1.1750489629197325, 41.61022639531524], [1.1751689195521153, 41.61022830008361], [1.1751663816185751, 41.61031832711667], [1.1752863384291121, 41.61032023176594], [1.175281262860608, 41.610500285839365], [1.1755211771827523, 41.610504094786585], [1.1755161022345033, 41.61068414887781], [1.1758759748039656, 41.61068986139633], [1.1758734378123574, 41.610779888457586], [1.1771929732884108, 41.610800824792214], [1.1771955084472894, 41.61071079766514], [1.177435423805142, 41.610714602633216], [1.1774328889794876, 41.61080462977224], [1.1776728047166958, 41.61080843425188], [1.1776702702127344, 41.610898461401334], [1.1777902282652488, 41.610900363459486], [1.1777876939163698, 41.61099039061338], [1.1783874851849578, 41.61099989905756], [1.1783824181187597, 41.61117995342051], [1.1788622526740422, 41.611187557971896], [1.1788597197901196, 41.61127758517496], [1.1794595140765922, 41.61128708807932], [1.1794569820142329, 41.611377115310724], [1.1796969001427053, 41.61138091560873], [1.1796943684020629, 41.61147094285052], [1.1800542461810168, 41.61147664237718], [1.1800669022697834, 41.61102650606315], [1.1799469438317007, 41.6110246063759], [1.1799444124703644, 41.61111463363581], [1.1795845367253754, 41.61110893380553], [1.179589600436222, 41.61092887932], [1.180789183323607, 41.61094787425635], [1.1807841229450695, 41.611127928861315], [1.1810240403271746, 41.611131726371276], [1.181021510453872, 41.61122175368339], [1.1816213049436382, 41.61123124529889], [1.181618775891915, 41.611321272639294], [1.1813788577282474, 41.611317476356454], [1.18137632833178, 41.611407503683395], [1.1816162468286855, 41.61141129997816], [1.1816137177539492, 41.61150132731548], [1.181733677186282, 41.61150322528118]], [[1.179229725794599, 41.610923178399666], [1.179109767603766, 41.61092127784269], [1.1791047025599988, 41.611101332280434], [1.1788647855464425, 41.61109753076728], [1.1788749169208002, 41.61073742193344], [1.1789948747553614, 41.61073932272867], [1.1789974074035288, 41.61064929551038], [1.1792373227739932, 41.61065309671357], [1.1792347904590499, 41.610743123943806], [1.1793547483281768, 41.61074502436373], [1.1793471518140595, 41.61101510606313], [1.1792271934450906, 41.611013205625284], [1.179229725794599, 41.610923178399666]], [[1.1772031138547205, 41.610440716274674], [1.1770831566929265, 41.61043881362094], [1.1770856919722774, 41.610348786493674], [1.177325605974181, 41.610352591664096], [1.1773230710280482, 41.61044261880331], [1.1774430282129096, 41.610444521206844], [1.1774404934218532, 41.61053454835051], [1.1772005787304445, 41.61053074340636], [1.1772031138547205, 41.610440716274674]]]}, "properties": {"area_ha": 8.36, "dnbr_threshold_core": 0.35, "dnbr_threshold_grow": 0.22, "dnbr_mean": 0.5495, "dnbr_max": 0.8911, "severity": "alta", "severity_method": "dnbr_mean", "forest_mask": "esa_worldcover_2021_10_20", "part": 69, "fire_id": "561275", "burn_year": 2026, "source": "sentinel", "aoi_source": "effis", "dnbr_threshold": 0.35, "buffer_m": 1200.0, "post_windows": 2, "post_window_dates": [{"start": "2026-07-15", "end": "2026-08-07"}, {"start": "2026-08-07", "end": "2026-09-06"}], "pre_window": {"start": "2026-04-24", "end": "2026-07-01"}, "fire_date": "2026-07-08"}}, {"type": "Feature", "geometry": {"type": "Polygon", "coordinates": [[[1.1793041029421327, 41.61254556876441], [1.1793091676881224, 41.61236551435208], [1.179189206819844, 41.61236361382461], [1.1791917393421827, 41.6122735866221], [1.1789518179734446, 41.6122697852038], [1.1789543508175109, 41.61217975801171], [1.178714429828118, 41.61217595610494], [1.178711896650802, 41.61226598328509], [1.1784719753742618, 41.612262180865955], [1.1784694418521682, 41.6123522080326], [1.1782295202884852, 41.612348405101095], [1.1782320541438294, 41.612258377946404], [1.178112093545906, 41.612256476298974], [1.1781146275563463, 41.61216644914872], [1.1778747067283364, 41.61216264549051], [1.177872172384647, 41.6122526726288], [1.1766725672703209, 41.61223364677169], [1.1766751032802536, 41.612143619693214], [1.1764351827290724, 41.61213981303251], [1.1764275736649126, 41.612409894227454], [1.1763076129067578, 41.61240799069149], [1.1763050763623322, 41.6124980177474], [1.1761851154490923, 41.61249611408034], [1.1761775052466867, 41.61276619522087], [1.176057543845105, 41.61276429141077], [1.176055006921257, 41.612854318448555], [1.175815083819466, 41.612850510441056], [1.175812546550817, 41.612940537465306], [1.175692584850607, 41.61293863326792], [1.1756900474037835, 41.613028660284655], [1.175929971149007, 41.6130324685663], [1.1759274340239, 41.613122495593466], [1.1760473960804587, 41.613124399552625], [1.1760448591104407, 41.613214426584236], [1.1762847835914492, 41.61321823413918], [1.176282246943154, 41.613308261181224], [1.1768820591808002, 41.61331777790913], [1.176874451666183, 41.613587859115746], [1.176994414648232, 41.61358976210395], [1.1769893432474052, 41.61376981624595], [1.1771093065742642, 41.61377171912102], [1.1771169131582906, 41.61350163788776], [1.1772368759967777, 41.61350354061975], [1.1772444819770762, 41.61323345935467], [1.177364444327196, 41.61323536194362], [1.1773745848062416, 41.61287525354469], [1.1774945465013693, 41.612877155984606], [1.1774970814256658, 41.612787128875034], [1.1778569660803588, 41.61279283542621], [1.1778595004932346, 41.612702808297165], [1.1785792691141666, 41.612714217985776], [1.17857420227644, 41.61289427231408], [1.1784542404775378, 41.61289237100012], [1.1784441059972364, 41.6132524796143], [1.178564068462667, 41.613254380952164], [1.1785615349804062, 41.61334440810785], [1.178441572348342, 41.613342506764], [1.1784390386879195, 41.61343253391215], [1.1785590014866194, 41.61343443526197], [1.1785387331213413, 41.61415465243954], [1.178778661419532, 41.614158454859485], [1.1787837279134534, 41.61397840055042], [1.1790236555911864, 41.613982202446024], [1.17903885279668, 41.61344203941017], [1.179278778520857, 41.613445840733604], [1.1792914408755224, 41.61299570476827], [1.1794114029217266, 41.612997605212456], [1.1794240641551874, 41.61254746917872], [1.1793041029421327, 41.61254556876441]]]}, "properties": {"area_ha": 3.08, "dnbr_threshold_core": 0.35, "dnbr_threshold_grow": 0.22, "dnbr_mean": 0.5611, "dnbr_max": 0.8209, "severity": "alta", "severity_method": "dnbr_mean", "forest_mask": "esa_worldcover_2021_10_20", "part": 74, "fire_id": "561275", "burn_year": 2026, "source": "sentinel", "aoi_source": "effis", "dnbr_threshold": 0.35, "buffer_m": 1200.0, "post_windows": 2, "post_window_dates": [{"start": "2026-07-15", "end": "2026-08-07"}, {"start": "2026-08-07", "end": "2026-09-06"}], "pre_window": {"start": "2026-04-24", "end": "2026-07-01"}, "fire_date": "2026-07-08"}}, {"type": "Feature", "geometry": {"type": "Polygon", "coordinates": [[[1.1844269767754223, 41.596774739393844], [1.1844345483165326, 41.5965046562617], [1.184314616480894, 41.59650276166791], [1.184317140471462, 41.59641273396006], [1.1841972088138, 41.59641083924717], [1.1841997329593794, 41.59632081154375], [1.1840798014796945, 41.59631891671178], [1.1840772771676216, 41.59640894440925], [1.1839573455329266, 41.59640704944628], [1.1839623944785749, 41.59622699406172], [1.18384246318835, 41.596225098985656], [1.1838449878104393, 41.59613507129702], [1.1837250566981914, 41.59613317610186], [1.1837275814752866, 41.596043148417664], [1.1836076505410165, 41.59604125310343], [1.1836051255974303, 41.59613128078166], [1.1833652634303677, 41.596127489766175], [1.1833551622092133, 41.59648760041611], [1.1834750939529721, 41.59648949601021], [1.183452367031778, 41.59729974493607], [1.1833324337895403, 41.59729784928833], [1.1833299083521327, 41.597387876933105], [1.183449841760872, 41.5973897725868], [1.1834447911845951, 41.59756982788363], [1.1840444600656284, 41.5975793043361], [1.184041935592777, 41.59766933201202], [1.1841618695699443, 41.597671226933336], [1.1841643938762918, 41.59758119925147], [1.1842843276984387, 41.59758309404181], [1.184286851826799, 41.59749306635245], [1.1844067854939262, 41.597494961011776], [1.1844168812265299, 41.59713485021513], [1.1845368142391324, 41.597136744725596], [1.1845469091220302, 41.59677663388049], [1.1844269767754223, 41.596774739393844]]]}, "properties": {"area_ha": 1.25, "dnbr_threshold_core": 0.35, "dnbr_threshold_grow": 0.22, "dnbr_mean": 0.5818, "dnbr_max": 0.8406, "severity": "alta", "severity_method": "dnbr_mean", "forest_mask": "esa_worldcover_2021_10_20", "part": 99, "fire_id": "561275", "burn_year": 2026, "source": "sentinel", "aoi_source": "effis", "dnbr_threshold": 0.35, "buffer_m": 1200.0, "post_windows": 2, "post_window_dates": [{"start": "2026-07-15", "end": "2026-08-07"}, {"start": "2026-08-07", "end": "2026-09-06"}], "pre_window": {"start": "2026-04-24", "end": "2026-07-01"}, "fire_date": "2026-07-08"}}, {"type": "Feature", "geometry": {"type": "Polygon", "coordinates": [[[1.1840129151669336, 41.602982857436935], [1.1840154401509326, 41.60289282984594], [1.183895496515232, 41.60289093457906], [1.1838980216542916, 41.6028009069925], [1.1837780781966274, 41.60279901160651], [1.1837881793041705, 41.60243890126864], [1.183548293755676, 41.60243511016913], [1.1835583960117448, 41.60207499985431], [1.1834384539209044, 41.602073104140814], [1.1834409796227379, 41.60198307656421], [1.1835609215470377, 41.60198497227176], [1.1835634470708398, 41.60189494468767], [1.1838033306208278, 41.601898735715665], [1.1838083809678077, 41.60171868051901], [1.1840482638975907, 41.60172247102293], [1.1840507887207727, 41.60163244341037], [1.184290671363426, 41.60163623340215], [1.1842856223717315, 41.60181628864953], [1.1844055640433637, 41.60181818346973], [1.1844080883784145, 41.60172815584085], [1.184887854513622, 41.60173573384726], [1.1848903781710343, 41.60164570619302], [1.185010319567003, 41.60164760037602], [1.1850128430463966, 41.60155757271427], [1.1851327842873074, 41.601559466766254], [1.1851403541569958, 41.60128938375392], [1.1852602949097772, 41.60129127766299], [1.1852678641765477, 41.60102119461894], [1.1851479239233693, 41.60101930072773], [1.1851605399710734, 41.60056916231994], [1.1850406005620302, 41.60056726833346], [1.1850456472338151, 41.60038721297147], [1.1844459520260922, 41.60037774122278], [1.1844510003172268, 41.60019768591419], [1.184211122980622, 41.60019389636317], [1.1842136474420155, 41.600103868718485], [1.183733893572732, 41.600096288139625], [1.1837187426354474, 41.600636453841695], [1.1834788637714053, 41.60063266273044], [1.183471287148492, 41.60090274552493], [1.1833513472341144, 41.60090084976384], [1.1833488215036319, 41.600990877352956], [1.1832288814342131, 41.60098898146086], [1.1832061478439642, 41.60179922963997], [1.1830862062872172, 41.601797333569166], [1.1830811539187842, 41.60197738869122], [1.1832010958086103, 41.60197928477395], [1.1831935176693886, 41.602249367463344], [1.183073575279938, 41.602247471362745], [1.1830685227965756, 41.60242752646939], [1.1829485800855315, 41.60242563023179], [1.1829460536600658, 41.60251565777685], [1.1831859394267368, 41.6025194501389], [1.183178361080653, 41.60278953280058], [1.1832983044808658, 41.60279142881189], [1.183295778509067, 41.60288145636866], [1.1831758349423067, 41.60287956035139], [1.1831733087924676, 41.60296958790065], [1.1832932525257764, 41.60297148392389], [1.1832882005247192, 41.60315153902973], [1.1831682564583115, 41.60314964299458], [1.183165730273994, 41.60323967053924], [1.1830457860525283, 41.603237774373056], [1.1830432596901665, 41.60332780191021], [1.1831632040781837, 41.603329698082355], [1.1831606778708805, 41.603419725623915], [1.1830407333163113, 41.60341782944581], [1.1830306277059508, 41.60377793957286], [1.1829106824966604, 41.60377604324583], [1.1829081558987795, 41.60386607076778], [1.1827882105344274, 41.60386417430973], [1.1827856837584958, 41.60395420182417], [1.1833854115279794, 41.60396368289353], [1.183387937471128, 41.60387365534929], [1.1836278283262562, 41.603877446889626], [1.1836354050874203, 41.60360736421187], [1.183875294989177, 41.60361115521618], [1.1838803454396216, 41.603431100066146], [1.1841202347211175, 41.60343489054635], [1.18413285898067, 41.6029847525847], [1.1840129151669336, 41.602982857436935]]]}, "properties": {"area_ha": 3.73, "dnbr_threshold_core": 0.35, "dnbr_threshold_grow": 0.22, "dnbr_mean": 0.6098, "dnbr_max": 0.8746, "severity": "alta", "severity_method": "dnbr_mean", "forest_mask": "esa_worldcover_2021_10_20", "part": 103, "fire_id": "561275", "burn_year": 2026, "source": "sentinel", "aoi_source": "effis", "dnbr_threshold": 0.35, "buffer_m": 1200.0, "post_windows": 2, "post_window_dates": [{"start": "2026-07-15", "end": "2026-08-07"}, {"start": "2026-08-07", "end": "2026-09-06"}], "pre_window": {"start": "2026-04-24", "end": "2026-07-01"}, "fire_date": "2026-07-08"}}, {"type": "Feature", "geometry": {"type": "Polygon", "coordinates": [[[1.194227963381067, 41.58522034248787], [1.1942229449053399, 41.58540039924031], [1.1943428568505772, 41.58540228309059], [1.194337838662004, 41.58558233984872], [1.1942179263839559, 41.58558045598659], [1.1942103985162702, 41.58585054109448], [1.193970572995972, 41.58584677295972], [1.193968063351096, 41.585936801314084], [1.1938481504416616, 41.5859349170533], [1.1938431307848416, 41.586114973745566], [1.193723217554004, 41.58611308934793], [1.1937156874839092, 41.58638317435703], [1.1935957737652534, 41.58638128981663], [1.1935932635526385, 41.58647131814399], [1.1934733496789889, 41.58646943347267], [1.193463308048681, 41.58682954674303], [1.1932234790043188, 41.586825776978], [1.1932259897618576, 41.58673574867457], [1.1926264181829198, 41.58672632210419], [1.1926289297611143, 41.58663629382885], [1.1923891015423393, 41.58663252233759], [1.1923865896313144, 41.586722550601074], [1.1921467611254153, 41.58671877859797], [1.1921442488701328, 41.58680880684803], [1.1920243344679093, 41.58680692065307], [1.1920218220347816, 41.586896948895664], [1.192141736603422, 41.58689883509656], [1.192136712035715, 41.58707889158902], [1.1918968822441944, 41.587075119038495], [1.1918792935673315, 41.58770531663058], [1.1916394614916388, 41.58770154349702], [1.1916344353868236, 41.58788159991433], [1.1911547700412326, 41.587874052099764], [1.191152256305977, 41.58796408028236], [1.190792506917573, 41.58795841809113], [1.1907899926716043, 41.58804844625441], [1.1905501594703356, 41.58804467082338], [1.190535071757203, 41.58858483969947], [1.1902952366045518, 41.588581063697205], [1.1902902066096037, 41.58876111995317], [1.1901702887175771, 41.58875923175267], [1.1901728038872028, 41.58866920363139], [1.1900528861730488, 41.58866731531182], [1.1900453401305502, 41.58893739965321], [1.189805503737978, 41.58893362260343], [1.1897929251072794, 41.58938376308228], [1.1905124394153557, 41.589395092909704], [1.1905099246535076, 41.58948512103648], [1.1909896017534467, 41.58949267177837], [1.1909921158495438, 41.58940264362784], [1.191112034986684, 41.58940453099488], [1.1911145489049064, 41.589314502836885], [1.1912344678870463, 41.58931639007295], [1.1912369816273964, 41.5892263619075], [1.1913569004545344, 41.58922824901264], [1.1913619275680596, 41.58904819266524], [1.1914818460737615, 41.5890500796335], [1.1914843594469384, 41.58896005145156], [1.1918441145333374, 41.58896571158853], [1.1918491402467917, 41.58878565518443], [1.1920889763624805, 41.588789427960336], [1.1920914888691962, 41.588699399744115], [1.1922114067777527, 41.588701285938626], [1.1922139191066083, 41.58861125771493], [1.1923338368601615, 41.58861314377852], [1.1923363490111574, 41.58852311554737], [1.1924562666097078, 41.58852500148], [1.1924587785828455, 41.58843497324138], [1.1926986134813664, 41.5884387447198], [1.1927036367276436, 41.58825868821422], [1.1928235538611838, 41.58826057375406], [1.1928285767289049, 41.58808051723048], [1.1929484935410135, 41.588082402633475], [1.1929510047913108, 41.587992374363424], [1.193070921448417, 41.5879942596355], [1.193075943581889, 41.58781420307896], [1.193195859917566, 41.587816088214176], [1.1932008816724988, 41.587636031639626], [1.1933207976867506, 41.58763791663798], [1.1933258190631504, 41.587457860045426], [1.1934457347559768, 41.58745974490692], [1.19345075575385, 41.58727968829636], [1.1935706711252545, 41.587281573021016], [1.1935756917446074, 41.58710151639244], [1.1936956067945914, 41.58710340098025], [1.1937006270354307, 41.58692334433368], [1.1938205417639964, 41.58692522878463], [1.1938255616263282, 41.58674517212006], [1.1939454760334776, 41.58674705643418], [1.1939504955173084, 41.58656699975158], [1.1940704096030437, 41.58656888392884], [1.1940754287083803, 41.58638882722827], [1.1941953424727036, 41.586390711268685], [1.1942003611995524, 41.5862106545501], [1.1943202746424648, 41.58621253845368], [1.1943227838223558, 41.58612251008617], [1.1944426971102706, 41.58612439385883], [1.1944477151029889, 41.58594433710732], [1.1945676280694963, 41.585946220743146], [1.194570136882326, 41.585856192359174], [1.194690049693837, 41.58585807586408], [1.1946925583288461, 41.58576804747263], [1.1948124709853603, 41.585769930846624], [1.194822504745653, 41.58540981724179], [1.1947025927547663, 41.585407933891474], [1.1947126269981054, 41.585047820285695], [1.1945927156842449, 41.58504593683407], [1.1945952243829534, 41.5849559084347], [1.194235491009051, 41.584950257347685], [1.1942304726018091, 41.58513031410936], [1.1941105611671978, 41.58512843015186], [1.1941080517800526, 41.58521845852445], [1.194227963381067, 41.58522034248787]], [[1.1946975755646294, 41.585587990685134], [1.1945776632523417, 41.58558610719798], [1.1945801720195224, 41.58549607880784], [1.1944602598850533, 41.585494195201626], [1.1944627688072276, 41.58540416681587], [1.1947025927547663, 41.585407933891474], [1.1946975755646294, 41.585587990685134]]]}, "properties": {"area_ha": 5.21, "dnbr_threshold_core": 0.35, "dnbr_threshold_grow": 0.22, "dnbr_mean": 0.6489, "dnbr_max": 0.9891, "severity": "alta", "severity_method": "dnbr_mean", "forest_mask": "esa_worldcover_2021_10_20", "part": 145, "fire_id": "561275", "burn_year": 2026, "source": "sentinel", "aoi_source": "effis", "dnbr_threshold": 0.35, "buffer_m": 1200.0, "post_windows": 2, "post_window_dates": [{"start": "2026-07-15", "end": "2026-08-07"}, {"start": "2026-08-07", "end": "2026-09-06"}], "pre_window": {"start": "2026-04-24", "end": "2026-07-01"}, "fire_date": "2026-07-08"}}, {"type": "Feature", "geometry": {"type": "Polygon", "coordinates": [[[1.1937402177551746, 41.58980613458081], [1.1937427280574429, 41.58971610629852], [1.193862647956739, 41.58971799080815], [1.1938651580811472, 41.58962796251841], [1.1942249173482218, 41.589633615279446], [1.1942299365641431, 41.5894535586598], [1.1943498560097887, 41.58945544265162], [1.194354874847168, 41.58927538601397], [1.1944747939713523, 41.58927726986893], [1.1944773032064824, 41.58918724154188], [1.1945972221756431, 41.58918912526592], [1.1946047493132377, 41.58891904025774], [1.194724667794505, 41.588920923839005], [1.1947271766511072, 41.58883089549396], [1.1948470949773535, 41.58883277894429], [1.1948521123234541, 41.58865272223772], [1.1949720303282454, 41.588654605551206], [1.1949745388177453, 41.58856457718969], [1.1952143745286963, 41.58856834342981], [1.1952168826739227, 41.58847831505492], [1.1954567180976485, 41.58848208078317], [1.195461733688149, 41.588302024005095], [1.1955816510842632, 41.588303906669886], [1.1955891738851685, 41.58803382147346], [1.1957090907934034, 41.5880357039955], [1.1957115982044635, 41.5879456755877], [1.1963111820845802, 41.58795508629321], [1.1963312343054826, 41.587234858738704], [1.196571065274562, 41.58723862205125], [1.1965785836707463, 41.58696853665743], [1.1966984986731268, 41.58697041810845], [1.196701004615969, 41.586880389634864], [1.1968209194633297, 41.58688227095497], [1.1968309424550367, 41.58652215702154], [1.1967110282733435, 41.586520275725086], [1.196716040033636, 41.586340218760974], [1.1968359538824997, 41.5863421000456], [1.1968409652643694, 41.586162043063496], [1.1969608787918062, 41.5861639242113], [1.1969734062149613, 41.58571378169955], [1.1970933189217414, 41.585715662692785], [1.1971033399894881, 41.58535554863206], [1.1968635159185805, 41.58535178656791], [1.196858504741874, 41.58553184357769], [1.1967385923907046, 41.5855299623463], [1.1967360866188474, 41.58561999084297], [1.196376349134509, 41.58561434638113], [1.1963788554055887, 41.58552431790219], [1.1962589431000168, 41.58552243617084], [1.1962614495261013, 41.585432407696295], [1.1961415373983377, 41.585430525845865], [1.1961315109599593, 41.585790639711156], [1.1958916854073809, 41.585786875587985], [1.1958816574552789, 41.58614698938133], [1.195761744030453, 41.58614510710859], [1.1957642512019964, 41.58605507866847], [1.1956443379549877, 41.58605319627665], [1.1956192640621763, 41.586953480549326], [1.1954993491624255, 41.586951597973325], [1.1954968415439922, 41.58704162638621], [1.1953769264892293, 41.5870397436793], [1.195371910885301, 41.58721980048862], [1.195251995509106, 41.58721791764487], [1.195246979526703, 41.58739797443619], [1.195127063829074, 41.587396091455595], [1.1951069981117004, 41.588116318512], [1.1949870810940801, 41.58811443535905], [1.1949820642177793, 41.58829449209592], [1.194862146878712, 41.58829260880612], [1.1948596382570158, 41.588382637166326], [1.1947397207629302, 41.5883807537456], [1.194737211963391, 41.58847078209835], [1.194617294314288, 41.588468898546694], [1.1946147853369047, 41.58855892689199], [1.1944948675327838, 41.5885570432094], [1.1944923583775544, 41.58864707154723], [1.1941326045343836, 41.58864141973171], [1.1941300948684421, 41.588731448050225], [1.1938902586972109, 41.58872767953633], [1.193885238665345, 41.58890773614505], [1.1936454018740514, 41.58890396710745], [1.193640381130772, 41.589084023686326], [1.1935204624193847, 41.589082138968166], [1.193517951864179, 41.589172167249366], [1.193398032997776, 41.58917028240027], [1.1933955222647128, 41.58926031067401], [1.1932756032432945, 41.58925842569398], [1.1932730923323724, 41.589348453960255], [1.1931531731559388, 41.58934656884929], [1.1931506620671568, 41.589436597108076], [1.193030742735708, 41.58943471186619], [1.1930257201909955, 41.589614768367326], [1.192905800538092, 41.58961288298857], [1.192885708570734, 41.590333108884145], [1.1927657875977116, 41.59033122333297], [1.192763275883933, 41.59042125155706], [1.1930031181742953, 41.59042502254629], [1.1930056295551816, 41.590334994310325], [1.1931255505510527, 41.5903368796115], [1.1931280617540692, 41.59024685136809], [1.1933679034471918, 41.59025062158353], [1.1933779468134684, 41.589890508547064], [1.1934978670113872, 41.58989239344357], [1.1935003776579591, 41.589802365174684], [1.1937402177551746, 41.58980613458081]]]}, "properties": {"area_ha": 4.29, "dnbr_threshold_core": 0.35, "dnbr_threshold_grow": 0.22, "dnbr_mean": 0.551, "dnbr_max": 1.0282, "severity": "alta", "severity_method": "dnbr_mean", "forest_mask": "esa_worldcover_2021_10_20", "part": 146, "fire_id": "561275", "burn_year": 2026, "source": "sentinel", "aoi_source": "effis", "dnbr_threshold": 0.35, "buffer_m": 1200.0, "post_windows": 2, "post_window_dates": [{"start": "2026-07-15", "end": "2026-08-07"}, {"start": "2026-08-07", "end": "2026-09-06"}], "pre_window": {"start": "2026-04-24", "end": "2026-07-01"}, "fire_date": "2026-07-08"}}]}
