{"type": "FeatureCollection", "features": [{"type": "Feature", "geometry": {"type": "Polygon", "coordinates": [[[1.1946668835968723, 42.29636279936784], [1.1946617397140655, 42.29654283379378], [1.1949042433032426, 42.29654665236883], [1.194901671689212, 42.29663666959146], [1.1953866796987935, 42.296644305227936], [1.195381537815539, 42.29682433971642], [1.19562404258096, 42.29682815678981], [1.1956291837741617, 42.29664812227738], [1.1961141920660223, 42.29665575483871], [1.1961167619549335, 42.296565737556236], [1.1962380138847828, 42.296567645370274], [1.1962431532823101, 42.296387610788734], [1.1963644048788933, 42.296389518462675], [1.1963772523044285, 42.29593943195193], [1.196134750848102, 42.29593561653575], [1.196137320642954, 42.295845599240934], [1.1957735690641638, 42.295839875173655], [1.1957761393647741, 42.29574985789523], [1.195291138114376, 42.29574222403567], [1.1952885671237465, 42.29583224129015], [1.1950460662241107, 42.29582842357964], [1.1950357807639107, 42.29618849253427], [1.1951570318978733, 42.29619040147753], [1.1951518894422057, 42.29637043595752], [1.1946668835968723, 42.29636279936784]], [[1.1961321810414929, 42.29602563382903], [1.1958896792871823, 42.296021817888374], [1.195892249438805, 42.295931800607065], [1.196134750848102, 42.29593561653575], [1.1961321810414929, 42.29602563382903]], [[1.1962457229634387, 42.296297593495666], [1.196124471551122, 42.29629568569959], [1.1961270413930027, 42.29620566841095], [1.1962482926328104, 42.29620757620105], [1.1962457229634387, 42.296297593495666]], [[1.1960057901649523, 42.29620376049272], [1.1960083601675848, 42.29611374320851], [1.1961296112231268, 42.29611565112075], [1.1961270413930027, 42.29620566841095], [1.1960057901649523, 42.29620376049272]]]}, "properties": {"area_ha": 1.02, "dnbr_threshold_core": 0.35, "dnbr_threshold_grow": 0.22, "dnbr_mean": 0.3947, "dnbr_max": 0.6168, "severity": "moderada", "severity_method": "dnbr_mean", "forest_mask": "esa_worldcover_2021_10_20", "part": 15, "fire_id": "292094", "burn_year": 2026, "source": "sentinel", "aoi_source": "effis", "dnbr_threshold": 0.35, "buffer_m": 1200.0, "post_windows": 2, "post_window_dates": [{"start": "2026-03-11", "end": "2026-04-03"}, {"start": "2026-04-03", "end": "2026-05-03"}], "pre_window": {"start": "2025-12-19", "end": "2026-02-25"}, "fire_date": "2026-03-04"}}, {"type": "Feature", "geometry": {"type": "Polygon", "coordinates": [[[1.1968807530215853, 42.299549660450616], [1.1968730457787893, 42.299819712266], [1.1967517875674571, 42.299817805005496], [1.1967492182904753, 42.29990782226824], [1.1966279599183574, 42.29990591487363], [1.196622820984044, 42.300085949382485], [1.196501562278598, 42.300084041847754], [1.196498992621263, 42.30017405909389], [1.1974690639743095, 42.30018931583141], [1.1974664956855725, 42.300279333123825], [1.1975877548301344, 42.30028123964532], [1.1975851867021925, 42.300371256942185], [1.1979489647240105, 42.30037697575574], [1.1979515323343157, 42.30028695844096], [1.1981940507291755, 42.30029077033065], [1.198196617982643, 42.30020075300236], [1.1985603951453911, 42.30020646985784], [1.1985655285818257, 42.3000264351608], [1.1982017524543414, 42.30002071834117], [1.1982068868790563, 42.2998406836738], [1.197843111892537, 42.29983496573669], [1.1978405441684266, 42.29992498305323], [1.1977192856905399, 42.29992307681193], [1.1977218535871916, 42.29983305950137], [1.1972368204833088, 42.299825433278606], [1.1972419576216866, 42.29964539870068], [1.196999441830414, 42.299641584844345], [1.1970020107270531, 42.299551567565025], [1.1971232684442743, 42.29955347455129], [1.1971258371566216, 42.29946345726445], [1.1970045796119386, 42.29946155028416], [1.197007148485071, 42.29937153300175], [1.1967646337760398, 42.299367718668705], [1.1967672029824918, 42.29927770139669], [1.1962821743956389, 42.29927007121681], [1.1962770345906875, 42.299450105711415], [1.1955494899927255, 42.29943865652551], [1.195546919037388, 42.29952867373459], [1.1954256614730228, 42.29952676508245], [1.195428232600897, 42.299436747879355], [1.1953069752208325, 42.299434839105054], [1.1953044039204204, 42.29952485630217], [1.1951831463795821, 42.29952294739374], [1.195185717852531, 42.29943293020261], [1.195064460495996, 42.29943102117202], [1.195059317193258, 42.29961105554079], [1.1957868635793831, 42.299622507873956], [1.1957894342014075, 42.29953249065443], [1.196274464670575, 42.29954012295641], [1.1962718947387039, 42.29963014019985], [1.1963931525579317, 42.299632047960955], [1.1963905827868424, 42.29972206520883], [1.196633098805647, 42.29972588035858], [1.196638237645913, 42.29954584583736], [1.1968807530215853, 42.299549660450616]], [[1.1979618026580616, 42.299926889166386], [1.1979592350947459, 42.30001690648735], [1.197837976432569, 42.30001500036822], [1.1978405441684266, 42.29992498305323], [1.1979618026580616, 42.299926889166386]], [[1.1977167177821402, 42.300013094120935], [1.1972316832979228, 42.30000546785035], [1.1972342518964918, 42.29991545056525], [1.1977192856905399, 42.29992307681193], [1.1977167177821402, 42.300013094120935]]]}, "properties": {"area_ha": 1.04, "dnbr_threshold_core": 0.35, "dnbr_threshold_grow": 0.22, "dnbr_mean": 0.3308, "dnbr_max": 0.5915, "severity": "moderada", "severity_method": "dnbr_mean", "forest_mask": "esa_worldcover_2021_10_20", "part": 18, "fire_id": "292094", "burn_year": 2026, "source": "sentinel", "aoi_source": "effis", "dnbr_threshold": 0.35, "buffer_m": 1200.0, "post_windows": 2, "post_window_dates": [{"start": "2026-03-11", "end": "2026-04-03"}, {"start": "2026-04-03", "end": "2026-05-03"}], "pre_window": {"start": "2025-12-19", "end": "2026-02-25"}, "fire_date": "2026-03-04"}}, {"type": "Feature", "geometry": {"type": "MultiPolygon", "coordinates": [[[[1.2025815401985653, 42.29531641096506], [1.202586661303302, 42.29513637571624], [1.2024654116957882, 42.29513447466639], [1.2024628509767754, 42.29522449228561], [1.2023416012084749, 42.295222591101684], [1.2023441620999897, 42.295132573488424], [1.2022229125159078, 42.29513067218233], [1.202215229288705, 42.29540072499958], [1.201730228999523, 42.2953931184224], [1.2017353525427337, 42.295213083260144], [1.2016141028447438, 42.29521118130745], [1.2016115409064958, 42.29530119888341], [1.201490291047724, 42.29529929679662], [1.2014826046451417, 42.29556934949728], [1.2012401039277418, 42.29556554490357], [1.2012452288978697, 42.295385509795196], [1.1997902297185774, 42.29536267161342], [1.1997927942560886, 42.295272654128524], [1.1996715445732296, 42.295270750119855], [1.1996689798632159, 42.29536076759878], [1.1995477300195887, 42.29535886345602], [1.1995451651253377, 42.29544888092743], [1.1993026651282819, 42.29544507224559], [1.1992924040538926, 42.29580514206804], [1.1990499027237433, 42.29580133282592], [1.1990396400815064, 42.29616140257587], [1.1989183887440065, 42.29615949773873], [1.198915822881592, 42.2962495151664], [1.1987945713833217, 42.29624761019515], [1.1987868732081073, 42.29651766245094], [1.1986656212040432, 42.29651575733365], [1.1986630549496453, 42.29660577474317], [1.1985418027848096, 42.29660386949178], [1.1985366698957627, 42.29678390429426], [1.198415417397641, 42.296781998902794], [1.198410284116595, 42.296962033687144], [1.198531536959748, 42.29696393909055], [1.198526403976764, 42.2971439738807], [1.1986476571766926, 42.297145879167935], [1.1986322589810485, 42.29768598353708], [1.1983897505226901, 42.297682172762784], [1.1983871837706077, 42.297772190140286], [1.1985084381664384, 42.297774095597475], [1.1985058715751364, 42.29786411297941], [1.1983846170067818, 42.29786220751624], [1.1983794834438983, 42.29804224226355], [1.1985007383573034, 42.29804414773865], [1.1984981717307734, 42.29813416511594], [1.1981344065082127, 42.29812844828828], [1.1981318393523586, 42.2982184656461], [1.1978893289176558, 42.29821465377502], [1.1978918964185636, 42.29812463642914], [1.1977706413913591, 42.29812273030735], [1.1977732090530457, 42.29803271296591], [1.1975306993789319, 42.2980289003499], [1.1975281313721937, 42.298118917679375], [1.1974068763802348, 42.29811701117319], [1.197404308189221, 42.29820702849517], [1.1972830530364853, 42.29820512185486], [1.1972856214000254, 42.29811510453886], [1.1971643664315677, 42.298113197776395], [1.197156660788114, 42.29838324970181], [1.1970354053138252, 42.29838134279327], [1.1970328365699756, 42.29847136009267], [1.196547814100244, 42.29846373115319], [1.1965452446545242, 42.29855374842714], [1.1963027331451317, 42.2985499331766], [1.1963001633425971, 42.298639950437035], [1.1960576515351744, 42.29863613466197], [1.1960550813758208, 42.2987261519089], [1.1956913132352915, 42.29872042726732], [1.1956887425465852, 42.29881044449475], [1.1955674863507335, 42.29880853601862], [1.1955649154777344, 42.29889855323852], [1.1949586338122657, 42.29888900890586], [1.1949612055479228, 42.298798991715884], [1.1941124129181937, 42.29878562431013], [1.194109839974818, 42.2988756414582], [1.194837377514468, 42.2988870996549], [1.1948322336627886, 42.29906713401826], [1.195681030409898, 42.29908049616778], [1.1956836011338885, 42.29899047894498], [1.195804857686567, 42.298992387304935], [1.195807428226264, 42.2989023700746], [1.1962924538644468, 42.29891000220906], [1.1962950237022543, 42.29881998495327], [1.1964162799686642, 42.29882189266054], [1.1964188496221821, 42.29873187539724], [1.1970251302679098, 42.298741411981624], [1.1970199926744352, 42.298921446566524], [1.1967774796907518, 42.29891763229326], [1.1967723413601312, 42.29909766684808], [1.1970148550339486, 42.29910148114524], [1.19700971734645, 42.29928151571779], [1.1972522317574212, 42.2992853295263], [1.1972470947130573, 42.29946536411659], [1.1974896098611825, 42.29946917743644], [1.1975024506585963, 42.299019090889374], [1.1976237073876053, 42.2990209973272], [1.1976262753393048, 42.29893098000717], [1.1978687884875014, 42.29893479248644], [1.197873923665523, 42.29875475781785], [1.1976314112074564, 42.29875094536249], [1.1976288432792552, 42.298840962685595], [1.1975075868953131, 42.29883905625973], [1.1975152911622644, 42.298569004303694], [1.1973940353076653, 42.29856709776762], [1.1973966035456796, 42.298477080451825], [1.1972753478753602, 42.29847517379357], [1.1972779162741534, 42.29838515648221], [1.1975204272814846, 42.29838896965859], [1.197525563353706, 42.29820893500734], [1.1976468185299416, 42.298210841391366], [1.1976416828027747, 42.29839087605458], [1.1977629383358135, 42.29839278232243], [1.1977603706271363, 42.2984827996577], [1.1978816263444516, 42.29848470580338], [1.1978790587965555, 42.29857472314309], [1.1980003146981484, 42.29857662916661], [1.1979951799121775, 42.29875666385333], [1.1981164361705787, 42.29875856976066], [1.1981190033969062, 42.29866855241209], [1.1983615156038814, 42.29867236383038], [1.1983640824734012, 42.29858234646832], [1.1986065943822912, 42.29858615736209], [1.1986040278578325, 42.2986761747361], [1.1987252840024232, 42.29867807999674], [1.1987227176387536, 42.29876809737519], [1.1992077430246504, 42.29877571716026], [1.1992128743599944, 42.29859568235407], [1.1996978985534548, 42.29860330004112], [1.1997004635133965, 42.29851328261182], [1.1999429753354804, 42.298517090674565], [1.1999455399386272, 42.29842707323178], [1.2005518188365107, 42.298436591116335], [1.2005441275798356, 42.29870664352957], [1.2004228712592033, 42.298704740191035], [1.2004151793793587, 42.29897479257246], [1.2001726657380858, 42.29897098547516], [1.200162408353771, 42.29933105524769], [1.2000411508605884, 42.29932915148296], [1.2000360217529586, 42.29950918634802], [1.1999147639264325, 42.2995072824432], [1.1999096344267886, 42.29968731729015], [1.200030892598394, 42.29968922120691], [1.2000283280035116, 42.29977923863403], [1.2001259149993737, 42.29978077072913], [1.2001274012472944, 42.29977924393147], [1.2002960403811027, 42.299567903904816], [1.2003295387448867, 42.29952120294367], [1.2003657951215818, 42.299464246558415], [1.2004892702071175, 42.29937937981473], [1.2005489974417343, 42.29933712351527], [1.2002836658586864, 42.299332958884285], [1.2002862300498265, 42.2992429414375], [1.2004074873939363, 42.299244844939984], [1.2004100514008087, 42.29915482748569], [1.2005313085841123, 42.29915673085406], [1.2005364362175917, 42.29897669592889], [1.2006576930675554, 42.298978599157195], [1.2006628203090466, 42.298798564213925], [1.2007840768256712, 42.298800467302144], [1.2007892036751808, 42.29862043234075], [1.2009104598584692, 42.2986223352889], [1.2009155863160046, 42.29844230030938], [1.2010368421659579, 42.298444203117455], [1.201039405204604, 42.29835418561944], [1.2014031723072305, 42.29835989325691], [1.2014057348165632, 42.29826987573945], [1.2016482459318774, 42.29827368017847], [1.2016533702252583, 42.29809364511504], [1.201774625455443, 42.29809554713041], [1.2017951207798836, 42.29737540676723], [1.2020376285150267, 42.297379210318155], [1.202052997445844, 42.296839104909374], [1.2021742502958823, 42.29684100645686], [1.202171689009228, 42.29693102403481], [1.2022929420435005, 42.29693292546015], [1.2022827141196442, 42.29729240975497], [1.2023066886655542, 42.2972550131544], [1.2023701836749165, 42.29713971121096], [1.2025045248620798, 42.29684976893286], [1.2025498188633852, 42.29673036744751], [1.2025953834921612, 42.296577436566785], [1.202545691153316, 42.296576657533755], [1.2025610553110202, 42.29603655189851], [1.202439803978449, 42.29603465078907], [1.2024423648029043, 42.295944633183744], [1.2026848671347445, 42.29594843526258], [1.202682306655307, 42.29603845287983], [1.202698957538637, 42.29603871391513], [1.2027122780326798, 42.29592993861942], [1.2027148726223453, 42.2958358384349], [1.20270741421006, 42.29559908482719], [1.2026720524211478, 42.29536372613356], [1.202659545721391, 42.29531763392064], [1.2025815401985653, 42.29531641096506]], [[1.2010470942501852, 42.29808413311609], [1.2010496572419265, 42.29799411561187], [1.2009284022546145, 42.297992212833634], [1.2009335285479688, 42.29781217783251], [1.2010547831902296, 42.297814080598826], [1.2010573461467928, 42.297724063089994], [1.200693582772763, 42.29771835442454], [1.2006910192986273, 42.29780837191548], [1.2008122739174343, 42.297810274938065], [1.2008097106040958, 42.297900292433425], [1.200688455812764, 42.29789838940487], [1.2006833288058503, 42.29807842437904], [1.2004408185682691, 42.29807461791366], [1.200435690824331, 42.29825465285778], [1.1999506691097186, 42.29824703834159], [1.1999557982338764, 42.298067003445226], [1.1988645031679712, 42.298049863395164], [1.1988670692651828, 42.29795984599839], [1.1987458144890775, 42.29795794091367], [1.1987560794506138, 42.29759787133505], [1.1989985876343765, 42.29760168132858], [1.1990216800056608, 42.29679152457885], [1.1991429325624845, 42.29679342932966], [1.1991480637263907, 42.29661339446744], [1.1992693159499235, 42.29661529907819], [1.1992770120902114, 42.29634524675538], [1.199398263807945, 42.29634715122007], [1.199400828992056, 42.29625713377008], [1.199522080549014, 42.29625903810066], [1.199529775513404, 42.2959889857235], [1.1996510265645697, 42.29599088990803], [1.1996535913567212, 42.29590087243992], [1.1998960931492388, 42.2959046804127], [1.1998986575846424, 42.2958146629311], [1.199777406855024, 42.295812759014744], [1.1997799714512014, 42.29572274153756], [1.2000224725771582, 42.29572654923021], [1.2000276010442918, 42.29554651424735], [1.2002701015271537, 42.29555032140362], [1.2002649737500413, 42.29573035641034], [1.2006287255973407, 42.29573606621959], [1.2006312889742445, 42.2956460486991], [1.2008737899194057, 42.295649854586], [1.2008712268875144, 42.295739872118446], [1.2009924775501903, 42.29574177487567], [1.2009899146790795, 42.29583179241253], [1.200626162208709, 42.29582608373855], [1.2006235988083496, 42.29591610125595], [1.2009873517962426, 42.295921809947835], [1.200982225995393, 42.296101845013816], [1.200860974642684, 42.29609994223271], [1.2008558484499101, 42.29627997728059], [1.200492093427084, 42.29627426813272], [1.2004895297955729, 42.296364285636436], [1.200732033477419, 42.29636809187509], [1.200729470179203, 42.296458109389185], [1.2006082181599038, 42.29645620632796], [1.2006005276773493, 42.29672625884313], [1.200843032762759, 42.29673006487323], [1.2008455959236424, 42.2966400473578], [1.201209353122163, 42.296645755424066], [1.2012119157537773, 42.296555737889186], [1.2013331680042196, 42.29655764031572], [1.2013306055451194, 42.29664765785656], [1.2014518579797995, 42.29664956016092], [1.2014569825412498, 42.29646952506577], [1.2012144783736682, 42.29646572035276], [1.2012247287359865, 42.29610565019161], [1.2013459801238697, 42.296107552588325], [1.2013485425126296, 42.29601753503821], [1.2012272912972555, 42.29601563264748], [1.2012298538468011, 42.295925615101766], [1.2014723559442548, 42.2959294197432], [1.2014749181370599, 42.295839402184036], [1.2017174199363874, 42.295843206301036], [1.201712296229088, 42.29602324144167], [1.201591044978547, 42.29602133943531], [1.201588482934806, 42.29611135699735], [1.2017097343578569, 42.296113259009665], [1.2016943628843288, 42.29665336438525], [1.2015731104262033, 42.29665146233716], [1.2015679861628923, 42.29683149743808], [1.201689238966049, 42.296833399498105], [1.2016841150008835, 42.297013434604764], [1.2015628618526926, 42.297011532532814], [1.2015654240136535, 42.29692151498622], [1.2014441710497026, 42.29691961279209], [1.2014390463710225, 42.29709964787181], [1.2016815530007185, 42.297103452155774], [1.2016764289652229, 42.297283487253175], [1.2015551752994746, 42.29728158516334], [1.2015526130916239, 42.297371602703755], [1.2016738669298925, 42.297373504799566], [1.20165849447175, 42.297913610045434], [1.2015372395983406, 42.29791170791385], [1.2015346773084299, 42.29800172544346], [1.2016559323543652, 42.298003627581004], [1.2016533702252583, 42.29809364511504], [1.2010470942501852, 42.29808413311609]], [[1.202091417927158, 42.295488841144184], [1.202088856643767, 42.29557885873933], [1.2019676062206026, 42.29557695714717], [1.2019701676764991, 42.29548693955798], [1.202091417927158, 42.295488841144184]]], [[[1.2013980472533927, 42.29853992828721], [1.2014006097861738, 42.29844991077283], [1.2011580980276377, 42.298446105797396], [1.2011463762927208, 42.29885781062773], [1.2013182742497157, 42.2987008429219], [1.2014675520782763, 42.29854101862613], [1.2013980472533927, 42.29853992828721]]], [[[1.2009002068026695, 42.298982405229346], [1.2008977943409747, 42.29906712523859], [1.2009308470452562, 42.29903953092502], [1.2009365545726387, 42.29903475458861], [1.2009971476156835, 42.2989839264379], [1.2009002068026695, 42.298982405229346]]]]}, "properties": {"area_ha": 7.109, "dnbr_threshold_core": 0.35, "dnbr_threshold_grow": 0.22, "dnbr_mean": 0.3893, "dnbr_max": 0.7716, "severity": "moderada", "severity_method": "dnbr_mean", "forest_mask": "esa_worldcover_2021_10_20", "part": 30, "fire_id": "292094", "burn_year": 2026, "source": "sentinel", "aoi_source": "effis", "dnbr_threshold": 0.35, "buffer_m": 1200.0, "post_windows": 2, "post_window_dates": [{"start": "2026-03-11", "end": "2026-04-03"}, {"start": "2026-04-03", "end": "2026-05-03"}], "pre_window": {"start": "2025-12-19", "end": "2026-02-25"}, "fire_date": "2026-03-04"}}]}
