{"type": "FeatureCollection", "features": [{"type": "Feature", "geometry": {"type": "Polygon", "coordinates": [[[1.4549735695112398, 42.08330087717255], [1.4549713846815937, 42.083390909726695], [1.4553339682971167, 42.08339579176966], [1.4553405212194233, 42.08312569405671], [1.4552196605165022, 42.08312406685162], [1.4552218449747258, 42.08303403428272], [1.4553427055069046, 42.08303566148272], [1.4553492583094887, 42.08276556375164], [1.455590978379332, 42.082768817739314], [1.4555953461815483, 42.08258875255729], [1.4558370656083364, 42.0825920060156], [1.4558392491530066, 42.08250197341212], [1.4559601087106238, 42.08250359994532], [1.4559644754285705, 42.08232353472362], [1.456085334654687, 42.082325161119385], [1.4560918841446087, 42.0820550632602], [1.4563336016023467, 42.08205831563942], [1.4563379671961714, 42.08187825037201], [1.4562171088037827, 42.08187662425621], [1.4562214746991897, 42.08169655899296], [1.456100616658235, 42.08169493276014], [1.4561115320759106, 42.081244769601106], [1.4558698177312004, 42.08124151680482], [1.455872001126274, 42.081151484178704], [1.4550260024290511, 42.08114009541991], [1.455023817838896, 42.081230128010304], [1.4549029607513304, 42.08122850053075], [1.4548964064088135, 42.08149859827754], [1.455017264008561, 42.0815002257724], [1.455012894738446, 42.0816802909396], [1.4548920367972402, 42.081678663434516], [1.4548789277230167, 42.08221885886921], [1.4547580687673964, 42.08221723120626], [1.454755883716029, 42.082307263768314], [1.4546350245996544, 42.082305635973015], [1.4546284688734612, 42.08257573363481], [1.4545076092548583, 42.082574105696956], [1.4545054238220934, 42.082664138242755], [1.454626283611434, 42.08266576618573], [1.4546240983394259, 42.082755798735114], [1.4543823784292482, 42.08275254271175], [1.4543780071723273, 42.082932607785594], [1.454136286619122, 42.082929351232856], [1.4541319146393037, 42.08310941628021], [1.4540110540361948, 42.083107787802774], [1.4540023092737657, 42.08346791785893], [1.4541231705598492, 42.083469546356795], [1.4541166123954166, 42.083739643898376], [1.4542374742037243, 42.08374127228435], [1.454235288299691, 42.08383130480029], [1.454356150288731, 42.08383293306414], [1.4543648931619697, 42.083472802970846], [1.454485754478006, 42.08347443108701], [1.4544901255132359, 42.08329436602107], [1.4549735695112398, 42.08330087717255]]]}, "properties": {"area_ha": 2.56, "dnbr_threshold_core": 0.35, "dnbr_threshold_grow": 0.22, "dnbr_mean": 0.4444, "dnbr_max": 0.8813, "severity": "alta", "severity_method": "dnbr_mean", "forest_mask": "esa_worldcover_2021_10_20", "part": 0, "fire_id": "561554", "burn_year": 2026, "source": "sentinel", "aoi_source": "effis", "dnbr_threshold": 0.35, "buffer_m": 1200.0, "post_windows": 2, "post_window_dates": [{"start": "2026-07-20", "end": "2026-08-12"}, {"start": "2026-08-12", "end": "2026-09-11"}], "pre_window": {"start": "2026-04-29", "end": "2026-07-06"}, "fire_date": "2026-07-13"}}]}
