{"type": "FeatureCollection", "features": [{"type": "Feature", "geometry": {"type": "Polygon", "coordinates": [[[0.5858976587177646, 40.82324048970445], [0.5858943932703793, 40.823330494737476], [0.5858911278082275, 40.823420499768886], [0.5858878623313087, 40.82351050479866], [0.5858845968396231, 40.823600509826804], [0.5858813313331709, 40.82369051485333], [0.585878065811951, 40.823780519878234], [0.5858748002759651, 40.823870524901515], [0.5858715347252109, 40.82396052992318], [0.5858682691596907, 40.82405053494319], [0.5858650035794023, 40.824140539961604], [0.5857465198106174, 40.82413805922975], [0.5856280360566015, 40.82413557837635], [0.5855095523173537, 40.8241330974014], [0.5853910685928752, 40.82413061630489], [0.5853878023582474, 40.824220621290365], [0.5853845361088498, 40.82431062627421], [0.5852660520793549, 40.82430814504049], [0.5851475680646318, 40.824305663685216], [0.5851443014806748, 40.8243956686518], [0.5851410348819458, 40.82448567361674], [0.5851377682684451, 40.82457567858007], [0.585134501640172, 40.82466568354176], [0.5851312349971275, 40.82475568850184], [0.5851279683393109, 40.82484569346028], [0.5851247016667211, 40.82493569841711], [0.5851214349793596, 40.825025703372305], [0.5851181682772256, 40.825115708325875], [0.585114901560318, 40.82520571327783], [0.5851116348286394, 40.825295718228155], [0.5851083680821867, 40.82538572317686], [0.5851051013209616, 40.82547572812394], [0.5852235874143658, 40.82547820958097], [0.5852203207982726, 40.82556821453424], [0.585338807066352, 40.825570695877545], [0.5853355405953898, 40.825660700837034], [0.5853322741096568, 40.82575070579489], [0.5853290076091516, 40.825840710751116], [0.5854474943717191, 40.82584319199634], [0.585444228016349, 40.82593319695878], [0.5855627149535929, 40.82593567809027], [0.58555944874336, 40.82602568305891], [0.5856779358552826, 40.82602816407666], [0.5856746697901863, 40.8261181690515], [0.5857931570767875, 40.826120649955506], [0.5857898911568302, 40.82621065493656], [0.5857866252221045, 40.82630065991598], [0.5859051128432924, 40.82630314071409], [0.5859018470537084, 40.8263931456997], [0.586020334849576, 40.82639562638407], [0.5860170692051347, 40.82648563137588], [0.586013803545926, 40.82657563636607], [0.5860105378719477, 40.826665641354644], [0.5861290261623197, 40.82666812194093], [0.5862475144674584, 40.826670602405635], [0.5862442490985398, 40.82676060740823], [0.586240983714855, 40.8268506124092], [0.5863594723545886, 40.826853092768], [0.5864779610090887, 40.82685557300523], [0.5864746959304673, 40.82694557802022], [0.5864714308370813, 40.827035583033584], [0.5865899198261773, 40.827038063164906], [0.586708408830039, 40.82704054317464], [0.5867051440417196, 40.82713054820204], [0.5868236332202621, 40.82713302809805], [0.5869421224135672, 40.82713550787248], [0.5869388579303202, 40.82722551291389], [0.5870573472983062, 40.82722799257457], [0.5870540829602149, 40.82731799762218], [0.5871725725028817, 40.827320477169124], [0.5871758366810547, 40.8272304721137], [0.5872943260785638, 40.82723295153124], [0.5874128154908341, 40.827235430827216], [0.5875313049178635, 40.827237910001635], [0.5875345686015208, 40.82714790492112], [0.5876530578833916, 40.827150383966156], [0.5876563213923731, 40.827060378876176], [0.5876595848865953, 40.8269703737846], [0.5876628483660601, 40.826880368691384], [0.5876661118307668, 40.826790363596544], [0.5877846004877302, 40.82679284248872], [0.5877813371829382, 40.826882847591385], [0.5878998260145741, 40.82688532636982], [0.5879030891594502, 40.82679532125933], [0.5880215778459263, 40.826797799908384], [0.588018314860967, 40.82688780502668], [0.588136803722115, 40.82689028356198], [0.5881335408823154, 40.826980288686464], [0.5881302780277604, 40.82707029380933], [0.5881270151584492, 40.82716029893058], [0.5881237522743843, 40.82725030405019], [0.5881204893755623, 40.82734030916818], [0.5880019997148254, 40.82733783059379], [0.5879987366413282, 40.827427835702345], [0.5879954735530752, 40.82751784080927], [0.5878769835872539, 40.827515362097664], [0.5878737203243224, 40.82760536719515], [0.5879922104500657, 40.827607845914564], [0.5881107005905646, 40.827610324512406], [0.5881074376327199, 40.827700329623916], [0.588104174660121, 40.82779033473379], [0.5882226651352207, 40.827792813225706], [0.5883411556250754, 40.82779529159605], [0.5883378929575668, 40.82788529671993], [0.5884563836221004, 40.827887774976524], [0.5884596461296855, 40.82779776984482], [0.5884629086225167, 40.827707764711505], [0.5885813989819572, 40.82771024283089], [0.5886998893561497, 40.8277127208287], [0.5888183797450953, 40.827715198704944], [0.5889368701487927, 40.827717676459606], [0.5889336082956537, 40.82780768162422], [0.589052098874026, 40.82781015926512], [0.5890488371660614, 40.82790016443591], [0.5890455754433458, 40.82799016960507], [0.5890423137058803, 40.82808017477261], [0.5890390519536642, 40.828170179938525], [0.5891575431864865, 40.828172657489134], [0.5891542815794473, 40.82826266266124], [0.5892727729869472, 40.8282651400981], [0.589269511525086, 40.828355145276376], [0.5893880031072624, 40.82835762259949], [0.5895064947041878, 40.828360099800996], [0.5896249863158616, 40.828362576880956], [0.5896217253190371, 40.828452582081056], [0.5897402171053857, 40.82845505904725], [0.5898587089064808, 40.828457535891864], [0.589977200722322, 40.828460012614904], [0.5899739401905395, 40.82855001783683], [0.5898554482147687, 40.82854754110598], [0.5897369562537441, 40.828545064253554], [0.589733695387355, 40.82863506945824], [0.5897304345062209, 40.82872507466129], [0.5898489267871072, 40.82872755152935], [0.5898456660511574, 40.828817556738585], [0.5899641585067221, 40.82882003349288], [0.5900826509770318, 40.82882251012559], [0.5902011434620859, 40.82882498663674], [0.5901978831911885, 40.8289149918678], [0.5903163758509201, 40.82891746826517], [0.5904348685253936, 40.82891994454098], [0.59043160855962, 40.829009949786034], [0.5905501014087707, 40.829012425948065], [0.5905468415881886, 40.82910243119932], [0.5906653346120151, 40.829104907247576], [0.5907838276505838, 40.82910738317427], [0.5909023207038924, 40.829109858979386], [0.5910208137719396, 40.82911233466292], [0.5911393068547268, 40.82911481022488], [0.5911425658756356, 40.82902480493459], [0.5912610588132257, 40.829027280367164], [0.5912577999522519, 40.829117285665276], [0.591376293064514, 40.82911976098408], [0.5913730343487397, 40.829209766288365], [0.5913697756182276, 40.82929977159103], [0.591366516872979, 40.82938977689208], [0.5913632581129922, 40.82947978219149], [0.5914817518797405, 40.829482257419954], [0.5916002456612236, 40.829484732526836], [0.5915969872063781, 40.82957473784026], [0.5915937287367962, 40.82966474315204], [0.5917122228528938, 40.829667218152956], [0.591715481162536, 40.829577212833364], [0.5918339751334286, 40.82957968770489], [0.591830716983727, 40.829669693032294], [0.5919492111292938, 40.829672167790044], [0.5920677052895944, 40.82967464242623], [0.5920644474450393, 40.829764647767625], [0.5920611895857509, 40.82985465310739], [0.5921796840806667, 40.829857127637595], [0.5921829417800132, 40.82976712229003], [0.5923014361297199, 40.82976959669085], [0.5923046936543943, 40.82967959133384], [0.5924231878588916, 40.82968206560529], [0.5925416820781207, 40.82968453975514], [0.592660176312079, 40.82968701378343], [0.5927786705607669, 40.82968948769012], [0.5927754136758558, 40.82977949307835], [0.592893908099213, 40.82978196687127], [0.5928906513595161, 40.82987197226567], [0.5928873946050901, 40.829961977658435], [0.5930058893630599, 40.82996445134539], [0.5931243841357561, 40.82996692491076], [0.5931211276864892, 40.830056930317525], [0.5931178712224952, 40.83014693572266], [0.5932363663298071, 40.830149409182056], [0.5933548614518442, 40.830151882519864], [0.5933516052930132, 40.83024188793897], [0.5934701005897209, 40.830244361163], [0.5935885959011545, 40.83024683426545], [0.5935853400474899, 40.830336839698546], [0.5935820841791012, 40.83042684513002], [0.5937005798251502, 40.830429318126484], [0.5936973241019841, 40.83051932356414], [0.5936940683640951, 40.830609329000175], [0.5936908126114826, 40.83069933443458], [0.5938093087521004, 40.830701807332865], [0.5938060531447131, 40.830791812773434], [0.5938027975226036, 40.830881818212404], [0.5939212939978439, 40.83088429100469], [0.5939180385209624, 40.83097429644983], [0.5940365351708752, 40.83097676912835], [0.5941550318355112, 40.830979241685284], [0.5942735285148673, 40.83098171412062], [0.5943920252089444, 40.830984186434385], [0.5945105219177405, 40.83098665862655], [0.5945072672258962, 40.83107666410906], [0.594625764109364, 40.83107913618744], [0.5946290186412561, 40.830989130697134], [0.5946322731584298, 40.8308991252052], [0.5946355276608848, 40.830809119711645], [0.5947540240792155, 40.83081159164505], [0.5948725205122626, 40.83081406345687], [0.5949910169600278, 40.83081653514709], [0.5951095134225073, 40.83081900671575], [0.5952280098997028, 40.8308214781628], [0.5952247561970031, 40.83091148369533], [0.5953432528488632, 40.83091395502861], [0.5953399992914011, 40.83100396056733], [0.5954584961179278, 40.8310064317868], [0.5954552427057054, 40.83109643733169], [0.5955737397068973, 40.83109890843737], [0.5955769929591673, 40.831008902884705], [0.59569548981512, 40.831011373861], [0.5956922367228021, 40.83110137942148], [0.5958107337534199, 40.831103850283995], [0.5959292307987468, 40.831106321024926], [0.5959259780116269, 40.83119632659936], [0.5960444752316181, 40.8311987972265], [0.59616297246632, 40.83120126773204], [0.5962814697157304, 40.831203738115995], [0.5962782173937627, 40.831293743712195], [0.5963967148178361, 40.83129621398236], [0.5965152122566167, 40.83129868413094], [0.5965119602398523, 40.831388689741104], [0.5966304578532958, 40.831391159775876], [0.5966272059817811, 40.831481165392205], [0.5966239540955597, 40.83157117100692], [0.5966207021946319, 40.831661176619996], [0.5967392003026537, 40.831663646556564], [0.5968576984253816, 40.83166611637154], [0.5969761965628129, 40.83166858606492], [0.5969794479838662, 40.83157858042847], [0.5970979459760442, 40.83158104999247], [0.597216443982926, 40.831583519434886], [0.5972196950693595, 40.831493513781226], [0.597222946141092, 40.831403508125945], [0.5973414438427601, 40.8314059774312], [0.5974599415591324, 40.83140844661486], [0.5974631922962488, 40.83131844094239], [0.5974664430186643, 40.83122843526827], [0.5974696937263787, 40.83113842959255], [0.5974729444193927, 40.8310484239152], [0.597591441510644, 40.83105089294612], [0.5977099386165947, 40.83105336185544], [0.5977131889750005, 40.83096335616089], [0.5977164393187068, 40.83087335046473], [0.597719689647715, 40.83078334476694], [0.5977229399620227, 40.83069333906752], [0.5978414364428637, 40.830695807824114], [0.5979599329384039, 40.830698276459124], [0.5979631829181112, 40.83060827074251], [0.5979664328831213, 40.830518265024274], [0.597969682833434, 40.83042825930441], [0.5980881788638197, 40.830430727794486], [0.5980914286394866, 40.83034072206521], [0.5982099245246203, 40.83034319042589], [0.5982131741256417, 40.83025318468722], [0.5982164237119681, 40.83016317894693], [0.5980979281467299, 40.83016071060181], [0.5981011778783071, 40.83007070486767], [0.5979826824877115, 40.830068236408756], [0.5979859323645378, 40.829978230680794], [0.5979891822266669, 40.8298882249512], [0.5979924320741001, 40.82979821921999], [0.5978739371780363, 40.829795750662846], [0.59775544229667, 40.82979328198414], [0.5976369474300024, 40.829790813183834], [0.5975184525780345, 40.82978834426196], [0.597399957740765, 40.82978587521849], [0.5972814629181966, 40.82978340605345], [0.597284713710593, 40.82969340036735], [0.5974032083732181, 40.8296958695246], [0.5974064589909706, 40.82960586382907], [0.5974097095940234, 40.82951585813193], [0.597528203951464, 40.82951832715203], [0.5975249535083538, 40.82960833285696], [0.5976434480404366, 40.82961080176326], [0.5976466983236046, 40.82952079605054], [0.5977651927104443, 40.82952326482747], [0.5977684428189725, 40.82943325910534], [0.597771692912803, 40.8293432533816], [0.5977749429919357, 40.829253247656226], [0.5977781930563703, 40.82916324192922], [0.5977814431061075, 40.8290732362006], [0.597784693141147, 40.82898323047036], [0.5977879431614884, 40.82889322473849], [0.5979064364434514, 40.828895693339334], [0.5980249297401122, 40.82889816181861], [0.5980281794258835, 40.82880815606955], [0.5980314290969589, 40.828718150318856], [0.5980346787533392, 40.828628144566544], [0.5981531715848883, 40.828630612900874], [0.5981564210666374, 40.82854060713916], [0.5981596705336918, 40.82845060137583], [0.5981629199860509, 40.82836059561086], [0.5981661694237147, 40.82827058984428], [0.5982846616302264, 40.828273058025886], [0.5982879108932634, 40.82818305224989], [0.5982911601416082, 40.828093046472276], [0.598294409375258, 40.82800304069304], [0.5982976585942146, 40.82791303491219], [0.5983009077984772, 40.82782302912969], [0.5984193992200317, 40.827825497150805], [0.598537890656279, 40.82782796505033], [0.598541139525992, 40.82773795925066], [0.5985443883810119, 40.82764795344937], [0.598662879512097, 40.82765042121175], [0.5986661281924985, 40.82756041540105], [0.5987846191783476, 40.827562883034076], [0.5989031101788872, 40.827565350545534], [0.5990216011941174, 40.82756781793541], [0.5990248493800492, 40.827477812099744], [0.5990280975512916, 40.82738780626245], [0.5990313457078462, 40.827297800423516], [0.5991498362579883, 40.827300267668484], [0.5991530842399297, 40.82721026182016], [0.5992715746448365, 40.82721272893576], [0.5992748224521655, 40.82712272307804], [0.5991563322071817, 40.82712025597021], [0.5991595801597467, 40.827030250118625], [0.5990410900893746, 40.82702778289702], [0.5990443381871727, 40.82693777705162], [0.5990475862702824, 40.826847771204584], [0.5990508343387039, 40.82675776535593], [0.5989323447627843, 40.8267552980361], [0.5988138552015523, 40.82675283059469], [0.5988171035751244, 40.826662824759985], [0.5986986141885032, 40.826660357204794], [0.5987018627073043, 40.82657035137625], [0.5985833734952916, 40.82656788370728], [0.5985866221593196, 40.8264778778849], [0.5985898708086574, 40.82638787206088], [0.5985931194433031, 40.826297866235244], [0.5984746307257334, 40.82629539846806], [0.5983561420228558, 40.82629293057931], [0.5982376533346705, 40.826290462568984], [0.5981191646611773, 40.82628799443711], [0.5981224139207957, 40.826197988641], [0.5981256631657194, 40.82610798284326], [0.5981289123959497, 40.826017977043904], [0.5982474005896972, 40.826020445152444], [0.598365888798138, 40.826022913139404], [0.5983626398877359, 40.82611291895433], [0.5983593909626423, 40.826202924767635], [0.5984778795056039, 40.8262053926486], [0.5985963680632581, 40.826207860408005], [0.5985996166685226, 40.826117854579124], [0.5984811282707835, 40.8261153868275], [0.5984843770212706, 40.8260253810048], [0.5986028652590957, 40.82602784874862], [0.5986061138349782, 40.82593784291651], [0.5986093623961701, 40.825847837082755], [0.5984908744781716, 40.825845369354504], [0.5983723865748654, 40.82584290150467], [0.5983756354411905, 40.82575289568488], [0.5983788842928235, 40.825662889863466], [0.5984973718763076, 40.82566535769772], [0.5985006205533381, 40.825575351866895], [0.5983821331297656, 40.82557288404042], [0.5983853819520151, 40.82548287821576], [0.5983886307595724, 40.82539287238947], [0.5983918795524387, 40.82530286656157], [0.5982733926232849, 40.82530039863689], [0.5981549057088233, 40.825297930590644], [0.5981581548068134, 40.82520792477669], [0.5981614038901093, 40.82511791896111], [0.5980429173101547, 40.82511545080888], [0.5979244307448941, 40.82511298253508], [0.5979276801333105, 40.82502297673344], [0.5979309295070316, 40.82493297093019], [0.5979341788660594, 40.82484296512532], [0.5979374282103922, 40.82475295931882], [0.5978189422994453, 40.824750490954614], [0.5977004564031934, 40.824748022468846], [0.5977037060526388, 40.824658016676295], [0.5977069556873887, 40.824568010882125], [0.597588470125637, 40.824565542290365], [0.5974699845785821, 40.824563073577046], [0.5974732345184384, 40.82447306779684], [0.5974764844435992, 40.82438306201499], [0.5973579992310426, 40.8243805931957], [0.5972395140331836, 40.82437812425483], [0.5972427642634464, 40.82428811848695], [0.5972460144790109, 40.824198112717454], [0.5971275296156494, 40.824195643670606], [0.5970090447669844, 40.82419317450221], [0.5968905599330202, 40.82419070521225], [0.5967720751137557, 40.82418823580075], [0.5967753259542159, 40.82409823006077], [0.5967785767799751, 40.82400822431917], [0.5966600922952064, 40.82400575480169], [0.5965416078251399, 40.82400328516264], [0.5965448589559906, 40.823913279435004], [0.59654811007214, 40.82382327370574], [0.5965513611735873, 40.823733267974866], [0.5965546122603325, 40.823643262242356], [0.5964361284445486, 40.82364079251292], [0.5963176446434668, 40.82363832266193], [0.5961991608570887, 40.82363585268938], [0.5960806770854151, 40.82363338259527], [0.5959621933284452, 40.82363091237962], [0.5958437095861812, 40.8236284420424], [0.5957252258586239, 40.82362597158362], [0.5957284780499204, 40.823535965904036], [0.595609994496962, 40.8235334953315], [0.5956132468334433, 40.823443489658096], [0.5954947634550855, 40.823441018971806], [0.5953762800914357, 40.823438548163956], [0.5953730274351695, 40.823528553821774], [0.5954915109587113, 40.82353102463741], [0.5954882584476291, 40.82362103030142], [0.5953697747641948, 40.823618559477985], [0.5953665220785105, 40.823708565132556], [0.5953632693781185, 40.8237985707855], [0.595244785389605, 40.823796099824925], [0.5951263014158016, 40.82379362874279], [0.5950078174567086, 40.8237911575391], [0.594889333512327, 40.823788686213845], [0.5947708495826569, 40.82378621476705], [0.5946523656677006, 40.82378374319869], [0.5945338817674567, 40.82378127150878], [0.594415397881928, 40.823778799697294], [0.5942969140111137, 40.823776327764286], [0.5941784301550155, 40.8237738557097], [0.5940599463136329, 40.82377138353357], [0.593941462486968, 40.823768911235874], [0.5938229786750214, 40.82376643881663], [0.5938262334540323, 40.82367643326504], [0.593829488218324, 40.82358642771183], [0.5937110047408812, 40.82358395518663], [0.593714259650347, 40.823493949639584], [0.5937175145450931, 40.82340394409093], [0.5935990314021524, 40.823401471459775], [0.5934805482739313, 40.82339899870706], [0.5934838034737387, 40.82330899317239], [0.5934870586588259, 40.82321898763609], [0.5934903138291934, 40.82312898209816], [0.5934935689848404, 40.8230389765586], [0.5934968241257674, 40.82294897101743], [0.5935000792519745, 40.82285896547463], [0.5935033343634607, 40.822768959930215], [0.5935065894602282, 40.82267895438417], [0.5936250713093487, 40.82268142707448], [0.5937435531731884, 40.82268389964323], [0.5938620350517474, 40.82268637209043], [0.5939805169450235, 40.82268884441609], [0.5940989988530149, 40.82269131662019], [0.5942174807757242, 40.82269378870274], [0.5942207348984647, 40.82260378310828], [0.5942239890064892, 40.822513777512185], [0.594342470624144, 40.82251624945759], [0.5943457245575703, 40.822426243852085], [0.5943489784762813, 40.82233623824495], [0.594352232380278, 40.82224623263621], [0.5943554862695614, 40.822156227025815], [0.5943587401441291, 40.82206622141382], [0.5943619940039824, 40.8219762158002], [0.594480474677063, 40.82197868757727], [0.5944837283623233, 40.82188868195423], [0.5943652478491217, 40.82188621018496], [0.5943685016795477, 40.82179620456808], [0.5942500213409386, 40.821793732685066], [0.5942532753165287, 40.82170372707438], [0.5942565292774028, 40.82161372146205], [0.5942597832235621, 40.821523715848116], [0.5943782630825407, 40.82152618770775], [0.5943815168541102, 40.82143618208438], [0.5944999965679267, 40.821438653814674], [0.5945032501649083, 40.82134864818189], [0.5945065037471768, 40.821258642547484], [0.5946249831559571, 40.82126111414063], [0.5947434625794502, 40.82126358561223], [0.594746715827259, 40.8211735799606], [0.5947499690603563, 40.82108357430737], [0.5947532222787425, 40.8209935686525], [0.5947564754824181, 40.82090356299601], [0.5946379966984143, 40.82090109155559], [0.5945195179291227, 40.82089861999365], [0.5945227714378285, 40.82080861435112], [0.594526024931821, 40.820718608706976], [0.594407546496983, 40.82071613703907], [0.5942890680768571, 40.82071366524963], [0.5942923218758751, 40.82062365961945], [0.594173843630333, 40.82062118771626], [0.594177097574506, 40.82053118209227], [0.5940586195035453, 40.82052871007534], [0.5939401414473007, 40.82052623793685], [0.5939433956964928, 40.820436232326834], [0.59382491781483, 40.820433760074614], [0.5938281722091739, 40.82034375447077], [0.5937096945020945, 40.82034128210481], [0.593591216809734, 40.820338809617304], [0.593594471509092, 40.820248804027436], [0.5935977261937323, 40.82015879843595], [0.593600980863655, 40.82006879284283], [0.5934825036656054, 40.82006632025719], [0.5933640264822739, 40.82006384755001], [0.5933672814572059, 40.819973841970885], [0.5932488044484571, 40.81997136914996], [0.5931303274544278, 40.81996889620749], [0.5931335827343654, 40.81987889064235], [0.5931368379995834, 40.81978888507556], [0.5931400932500798, 40.81969887950714], [0.5930216167503565, 40.81969640646656], [0.5929031402653538, 40.819693933304436], [0.5929063958208504, 40.819603927750016], [0.5927879195104276, 40.819601454474146], [0.5927911752110624, 40.81951144892591], [0.5926726990752224, 40.81950897553631], [0.5925542229541059, 40.81950650202517], [0.5925509669337526, 40.819596507557804], [0.5924324906675011, 40.81959403391733], [0.5924292344725637, 40.819684039440546], [0.5924259782629027, 40.81977404496214], [0.5924227220385173, 40.8198640504821], [0.592419465799406, 40.81995405600045], [0.5924162095455718, 40.82004406151716], [0.5924129532770108, 40.82013406703225], [0.5925314305024322, 40.82013654071955], [0.592528174379012, 40.82022654624083], [0.5925249182408665, 40.82031655176048], [0.5926433958007414, 40.820319025341846], [0.5927618733753404, 40.82032149880167], [0.5927586175422017, 40.820411504335304], [0.5928770952913909, 40.82041397768139], [0.5929955730553004, 40.82041645090594], [0.5929923175271719, 40.82050645645356], [0.5931107954656699, 40.82050892956436], [0.5932292734188893, 40.82051140255362], [0.5932260181957743, 40.82060140811521], [0.5933444963235807, 40.82060388099074], [0.5933412412456135, 40.82069388655852], [0.5933379861529267, 40.82078389212467], [0.593334731045521, 40.8208738976892], [0.5932162524381074, 40.820871424790276], [0.5930977738454145, 40.8208689517698], [0.5929792952674432, 40.820866478627785], [0.592860816704193, 40.820864005364236], [0.592864072451077, 40.82077399983091], [0.592867328183239, 40.82068399429596], [0.5927488499544492, 40.82068152092648], [0.592630371740383, 40.82067904743544], [0.5926271156884835, 40.82076905295478], [0.5925086373292732, 40.820766579334396], [0.5925053811027814, 40.8208565848443], [0.5923869025984261, 40.820854111094576], [0.5923901589847872, 40.820764105592474], [0.5922716806550268, 40.82076163172901], [0.5922749371865317, 40.82067162623308], [0.5921564590313666, 40.820669152255874], [0.5920379808909271, 40.820666678157124], [0.5919195027652155, 40.82066420393684], [0.5919227597615967, 40.8205741984627], [0.591804281810481, 40.82057172412869], [0.5916858038740931, 40.82056924967312], [0.5916890611754787, 40.820479244212976], [0.5915705834136878, 40.82047676964369], [0.5915738408602101, 40.82038676418973], [0.5914553632730154, 40.82038428950669], [0.5914586208646724, 40.82029428405891], [0.5914618784415986, 40.820204278609495], [0.5914651360037937, 40.82011427315847], [0.5914683935512584, 40.820024267705826], [0.5913499166182493, 40.82002179293248], [0.5913531743108451, 40.81993178748601], [0.5912346975524299, 40.81992931259894], [0.5912379553901563, 40.81983930715867], [0.5911194788063335, 40.819836832157854], [0.5910010022372427, 40.81983435703551], [0.5910042603799582, 40.819744351609216], [0.5910075185079398, 40.819654346181295], [0.5910107766211874, 40.81956434075176], [0.5908923005464105, 40.81956186553131], [0.5907738244863658, 40.819559390189326], [0.5907770829045969, 40.819469384773775], [0.5907803413080944, 40.819379379356604], [0.5906618655824998, 40.819376903908704], [0.5906651241311188, 40.819286898497715], [0.5907835996968563, 40.81928937393781], [0.590786858070884, 40.819199368517395], [0.5906683826650024, 40.819196893085106], [0.590549907273855, 40.81919441753129], [0.5904314318974436, 40.819191941855934], [0.5903129565357689, 40.81918946605904], [0.5901944811888304, 40.81918699014062], [0.5900760058566307, 40.81918451410065], [0.5900727465234702, 40.819274519474206], [0.5900694871755697, 40.81936452484614], [0.5899510115383974, 40.819362048669014], [0.5899542710461536, 40.8192720433049], [0.5898357955835761, 40.819269567014054], [0.5898325359159636, 40.81935957237037], [0.5898292762336111, 40.81944957772506], [0.5898260165365184, 40.81953958307811], [0.5897075406091117, 40.8195371066423], [0.5895890646964457, 40.81953463008495], [0.589585804664897, 40.81962463542076], [0.5895825446186059, 40.819714640754945], [0.5894640684009652, 40.81971216406043], [0.5893455921980668, 40.819709687244384], [0.5893423318173154, 40.81979969256133], [0.589223855469301, 40.819797215615935], [0.5892205949139463, 40.81988722092342], [0.5891021184208175, 40.819884743848675], [0.5890988576908575, 40.81997474914674], [0.5890955969461525, 40.820064754443194], [0.5890923361867032, 40.82015475973799], [0.5889738592287348, 40.82015228251826], [0.588977120148047, 40.820062277231266], [0.5888586433646862, 40.820059799897805], [0.5888553822855125, 40.82014980517699], [0.5888521211915934, 40.82023981045456], [0.5888488600829259, 40.820329815730496], [0.5888455989595115, 40.820419821004805], [0.5887271215514471, 40.82041734351855], [0.5886086441581299, 40.82041486591075], [0.5886053827002395, 40.820504871167806], [0.5886021212276015, 40.82059487642325], [0.5884836435293019, 40.82059239867828], [0.5883651658457519, 40.82058992081178], [0.5883619040386335, 40.82067992604995], [0.5883586422167645, 40.8207699312865], [0.588355380380146, 40.82085993652144], [0.5883521185287782, 40.82094994175473], [0.5883488566626589, 40.82103994698642], [0.5883455947817894, 40.82112995221647], [0.5883423328861701, 40.821219957444896], [0.588223854098294, 40.82121747940214], [0.588220592028054, 40.82130748462112], [0.5881021130950588, 40.821305006448995], [0.5880988508501951, 40.82139501165854], [0.5879803717720807, 40.82139253335705], [0.5879771093525923, 40.82148253855717], [0.5878586301293588, 40.82148006012631], [0.5878553675352451, 40.82157006531697], [0.5878521049263784, 40.82166007050602], [0.587733625398152, 40.821657591937985], [0.5876151458846793, 40.82165511324841], [0.5876118829413102, 40.82174511842019], [0.587608619983186, 40.82183512359033], [0.5874901401647212, 40.821832644763575], [0.5873716603610103, 40.82183016581527], [0.5873683970683801, 40.82192017096816], [0.5873651337609932, 40.822010176119434], [0.5872466536522881, 40.82200769703393], [0.5871281735583412, 40.8220052178269], [0.5871249099164438, 40.822095222960904], [0.5871216462597876, 40.82218522809327], [0.5870031658608458, 40.82218274874905], [0.5868846854766625, 40.82218026928327], [0.5868814214854922, 40.822270274398385], [0.5868781574795625, 40.82236027951187], [0.5867596767903828, 40.82235779990891], [0.5866411961159639, 40.82235532018439], [0.5866379317755158, 40.822445325280604], [0.5866346674203043, 40.8225353303752], [0.5865161864408874, 40.822532850513504], [0.5863977054762343, 40.822530370530245], [0.5863944407865008, 40.82262037560757], [0.5862759596767289, 40.822617895494936], [0.586272694812352, 40.82270790056281], [0.5861542135574637, 40.822705420320816], [0.5861509485184397, 40.82279542537923], [0.5861476834646521, 40.82288543043603], [0.5861444183960987, 40.82297543549121], [0.5860259366763265, 40.8229729551042], [0.5860226714331249, 40.82306296014992], [0.5859041895682356, 40.82306047963353], [0.585900924150383, 40.82315048466981], [0.5858976587177646, 40.82324048970445]], [[0.590092432181055, 40.828552494446114], [0.5900891717944579, 40.82864249967423], [0.5899706796440117, 40.82864002305715], [0.5899739401905395, 40.82855001783683], [0.590092432181055, 40.828552494446114]], [[0.5972782121110993, 40.829873411737935], [0.5972749612893011, 40.8299634174208], [0.5971564661615453, 40.8299609481186], [0.5970379710484917, 40.829958478694806], [0.5970412221901793, 40.82986847302753], [0.597044473317164, 40.82977846735862], [0.5970477244294463, 40.82968846168809], [0.5971662190626688, 40.82969093108851], [0.5971629681103294, 40.82978093676683], [0.5972814629181966, 40.82978340605345], [0.5972782121110993, 40.829873411737935]], [[0.5873171737930525, 40.82660291604298], [0.5873204376932244, 40.826512910966734], [0.5873237015786361, 40.826422905888855], [0.5873269654492876, 40.826332900809376], [0.5873302293051794, 40.82624289572825], [0.5873334931463127, 40.826152890645496], [0.5874519806396137, 40.826155369847626], [0.5874487169583912, 40.8262453749382], [0.5875672046263611, 40.8262478540266], [0.5876856923090901, 40.82625033299342], [0.5876824289329304, 40.826340338098], [0.5876791655420135, 40.826430343200954], [0.5877976535593221, 40.826432822061854], [0.5877943903135596, 40.826522827171004], [0.5877911270530399, 40.82661283227854], [0.5877878637777635, 40.826702837384445], [0.5876693752807152, 40.82670035850008], [0.5875508867984246, 40.82669787949416], [0.5874323983308923, 40.82669540036667], [0.5874356620859104, 40.82660539528422], [0.5873171737930525, 40.82660291604298]], [[0.5871095747001879, 40.82578791159189], [0.5869910878908, 40.825785432056364], [0.5869943521378547, 40.82569542698895], [0.5871128387873359, 40.82569790651667], [0.5872313254515784, 40.825700385922815], [0.5872280615243373, 40.82579039100587], [0.5871095747001879, 40.82578791159189]], [[0.5868758655031344, 40.825692947339675], [0.5868791298953325, 40.82560294227847], [0.5868823942727681, 40.82551293721564], [0.5868856586354415, 40.825422932151184], [0.5867671724951982, 40.825420452403826], [0.586770437003013, 40.825330447345564], [0.5866519510374353, 40.825327967484455], [0.5866552156903908, 40.825237962432396], [0.5865367298994772, 40.825235482457565], [0.5865399946975707, 40.825145477411695], [0.5865432594809007, 40.825055472364205], [0.586661744952011, 40.825057952323405], [0.5867802304378835, 40.825060432161045], [0.5867769659743558, 40.825150437224174], [0.5867737014960657, 40.82524044228568], [0.5868921873165043, 40.8252429220174], [0.5868889229833548, 40.82533292708511], [0.5870074089784567, 40.82533540670309], [0.5870041447904483, 40.82542541177699], [0.587000880587678, 40.82551541684927], [0.5871193669173497, 40.82551789636134], [0.5871161028597233, 40.82560790143981], [0.5869976163701472, 40.825605421919924], [0.5869943521378547, 40.82569542698895], [0.5868758655031344, 40.825692947339675]], [[0.585381269844681, 40.824400631256445], [0.5853780035657417, 40.82449063623705], [0.5852595192164582, 40.82448815498768], [0.5852627856552924, 40.82439815001489], [0.585381269844681, 40.824400631256445]], [[0.592123891454918, 40.821569207064066], [0.5920054117157639, 40.821566732887256], [0.5918869319913386, 40.82156425858893], [0.5918901891350057, 40.82147425313102], [0.591893446263944, 40.821384247671496], [0.5920119256686202, 40.82138672195423], [0.5920086686995564, 40.821476727421555], [0.592127148278836, 40.82147920159054], [0.592123891454918, 40.821569207064066]], [[0.5947949802531697, 40.82639884853925], [0.5947982340198192, 40.826308842964536], [0.5949167224415242, 40.826311314508075], [0.5950352108779415, 40.826313785930054], [0.595031957431121, 40.826403791520356], [0.5950287039695888, 40.82649379710904], [0.5949102152133404, 40.82649132567147], [0.5947917264718061, 40.82648885411232], [0.5947949802531697, 40.82639884853925]], [[0.5953079712208734, 40.82532866663742], [0.595311224171333, 40.82523866101204], [0.5951927376244156, 40.82523618992674], [0.5951959907200695, 40.82514618430756], [0.5953144771070813, 40.825148655385064], [0.5953177300281196, 40.82505864975646], [0.5954362162699376, 40.8250611207046], [0.5955547025264648, 40.82506359153119], [0.5956731887977001, 40.825066062236225], [0.595791675083644, 40.825068532819685], [0.5957884228022268, 40.82515853847948], [0.5957851705061011, 40.82524854413764], [0.5959036571265637, 40.825251014615134], [0.5960221437617336, 40.825253484971064], [0.5960188917707142, 40.82534349064319], [0.5961373785804965, 40.82534596088534], [0.596255865404985, 40.825348431005956], [0.5963743522441776, 40.82535090100499], [0.5963711007181755, 40.82544090669886], [0.5963678491774698, 40.82553091239113], [0.5964863363511823, 40.825533382284185], [0.5964830849556813, 40.82562338798261], [0.5966015723040073, 40.8256258577619], [0.5967200596670361, 40.825628327419615], [0.5967168085766523, 40.825718333131995], [0.5967135574715662, 40.82580833884277], [0.5965950697887163, 40.82580586916946], [0.5964765821205699, 40.825803399374585], [0.5963580944671263, 40.82580092945816], [0.5962396068283876, 40.82579845942016], [0.5961211192043535, 40.82579598926061], [0.596124371108993, 40.825705983588804], [0.5961276229989272, 40.825615977915376], [0.5961308748741562, 40.82552597224032], [0.5960123877445583, 40.825523501982566], [0.5960156397649895, 40.82543349631368], [0.5958971528100049, 40.82543102594218], [0.5957786658697279, 40.8254285554491], [0.5956601789441591, 40.825426084834454], [0.5956634314296065, 40.82533607918734], [0.5955449446786533, 40.82533360845892], [0.5955481973092993, 40.82524360281796], [0.5954297107329614, 40.82524113197579], [0.5954264579424081, 40.82533113760895], [0.5954232051371456, 40.82542114324048], [0.5954199523171739, 40.8255111488704], [0.5953014652758237, 40.825508677883285], [0.5953047182557034, 40.82541867226116], [0.5951862313889729, 40.825416201160266], [0.595067744536952, 40.82541372993781], [0.5950709978219363, 40.82532372432966], [0.5951894845140493, 40.82532619554432], [0.5953079712208734, 40.82532866663742]], [[0.5949655247769725, 40.82496123057579], [0.5948470387539051, 40.82495875914919], [0.5948502922851364, 40.824868753548515], [0.5949687781483014, 40.82487122496732], [0.5949655247769725, 40.82496123057579]], [[0.5966030111503399, 40.82886853204328], [0.5967215042852949, 40.8288710018599], [0.5967182528255239, 40.828961007521656], [0.5965997595306316, 40.82895853769726], [0.5964812662504453, 40.82895606775126], [0.5964780144560954, 40.82904607339583], [0.5963595210306775, 40.82904360332046], [0.5963627729849647, 40.8289535976837], [0.5963660249245442, 40.8288635920453], [0.596484518030089, 40.828866062105085], [0.5966030111503399, 40.82886853204328]], [[0.5963190743023401, 40.8268809975803], [0.596437563874769, 40.82688346759022], [0.5964343122587079, 40.8269734732643], [0.5965528020057616, 40.82697594316046], [0.5966712917675189, 40.82697841293505], [0.5966680404565955, 40.82706841862309], [0.596664789130968, 40.827158424309516], [0.5965462990493685, 40.82715595451935], [0.5964278089824719, 40.827153484607614], [0.5964310606279416, 40.82706347893678], [0.5963125707356722, 40.82706100891126], [0.5963158225263592, 40.826971003246584], [0.5963190743023401, 40.8268809975803]], [[0.5954668771302633, 40.82749374335497], [0.5954701301139464, 40.82740373775297], [0.5954733830829193, 40.827313732149335], [0.5954766360371824, 40.82722372654407], [0.5953581459427327, 40.827221255530425], [0.595361399042206, 40.82713124993135], [0.5954798889767334, 40.827133720937205], [0.5955983789259713, 40.8271361918215], [0.5957168688899197, 40.827138662584225], [0.5957136162702116, 40.827228668206686], [0.5957103636357934, 40.82731867382754], [0.5958288539342955, 40.82732114448427], [0.5958256014450923, 40.82741115011129], [0.5959440919182261, 40.82741362065426], [0.5959408395742386, 40.82750362628744], [0.5960593302220046, 40.827506096716625], [0.5960560780232342, 40.827596102355976], [0.5960528258097565, 40.8276861079937], [0.5960495735815718, 40.8277761136298], [0.5960463213386787, 40.8278661192643], [0.5960430690810787, 40.82795612489716], [0.5959245776336816, 40.82795365442901], [0.5958060862009907, 40.82795118383928], [0.5956875947830113, 40.827948713127974], [0.5955691033797407, 40.8279462422951], [0.5954506119911805, 40.827943771340664], [0.5954538650484192, 40.82785376574677], [0.5954571180909467, 40.82776376015124], [0.5954603711187638, 40.827673754554105], [0.5954636241318687, 40.827583748955355], [0.5954668771302633, 40.82749374335497]], [[0.5963143932369331, 40.82372832837884], [0.5964328771979094, 40.823730798237634], [0.5964296259365672, 40.82382080396072], [0.5963111418156962, 40.82381833409414], [0.5963143932369331, 40.82372832837884]], [[0.5976029600860929, 40.82744819549079], [0.5977214507797691, 40.827450664210176], [0.5978399414881413, 40.827453132807996], [0.5978366917029515, 40.827543138565815], [0.5977182008346534, 40.8275406699602], [0.5975997099810518, 40.82753820123303], [0.5974812191421484, 40.82753573238428], [0.5973627283179442, 40.827533263413955], [0.5973659787428355, 40.827443257687285], [0.5973692291530269, 40.82735325195899], [0.5974877196573818, 40.82735572091374], [0.5976062101764356, 40.82735818974692], [0.5976029600860929, 40.82744819549079]], [[0.5970235103098473, 40.8270758272408], [0.5970202594639862, 40.827165832950584], [0.596901769338278, 40.82716336352513], [0.596905020344061, 40.82707335782313], [0.5970235103098473, 40.8270758272408]], [[0.5965007767077274, 40.82841603384984], [0.5966192690283078, 40.8284185037491], [0.596616017482123, 40.82850850941117], [0.5966127659212347, 40.82859851507162], [0.596494273280788, 40.82859604515681], [0.5964975250016101, 40.828506039504134], [0.5965007767077274, 40.82841603384984]], [[0.5969194759501413, 40.829956009149434], [0.5969162246338049, 40.830046014807316], [0.5967977293902126, 40.83004354513257], [0.5968009808664938, 40.82995353948249], [0.5969194759501413, 40.829956009149434]], [[0.5972507386633715, 40.82735078288268], [0.5971322481884157, 40.82734831368478], [0.5971354989037564, 40.827258307970425], [0.5972539892187887, 40.82726077716053], [0.5972507386633715, 40.82735078288268]]]}, "properties": {"area_ha": 88.83, "dnbr_threshold_core": 0.35, "dnbr_threshold_grow": 0.22, "forest_mask": "esa_worldcover_2021_10_20", "part": 0, "fire_id": "2024430994", "burn_year": 2024, "source": "sentinel", "aoi_source": "official", "dnbr_threshold": 0.35, "buffer_m": 800.0, "post_windows": 3, "post_window_dates": [{"start": "2024-06-04", "end": "2024-06-27"}, {"start": "2024-06-27", "end": "2024-07-27"}, {"start": "2024-07-27", "end": "2024-08-26"}], "pre_window": {"start": "2024-03-14", "end": "2024-05-21"}, "fire_date": "2024-05-28"}}]}
