{"type": "FeatureCollection", "features": [{"type": "Feature", "geometry": {"type": "Polygon", "coordinates": [[[2.258630054751495, 41.49685199030262], [2.258629027622323, 41.496942057337776], [2.2587488258381963, 41.496942829496334], [2.2588686240587394, 41.496943601530134], [2.2588675972567716, 41.49703366856869], [2.258866570450134, 41.497123735605825], [2.2587467718977146, 41.49712296356717], [2.2587457449204678, 41.49721303060045], [2.2587447179385505, 41.497303097632276], [2.2588645168228494, 41.49730386967579], [2.2588634900022027, 41.49739393670862], [2.2588624631768863, 41.497484003740006], [2.2588614363469004, 41.49757407076995], [2.258981235733693, 41.49757484269598], [2.259101035125154, 41.497575614497244], [2.2592208345212845, 41.49757638617375], [2.259340633922082, 41.497577157725466], [2.259339607751198, 41.497667224763696], [2.2593385815756477, 41.49775729180048], [2.2593375553954296, 41.49784735883584], [2.2593365292105454, 41.49793742586977], [2.2593355030209943, 41.49802749290226], [2.259334476826776, 41.49811755993331], [2.259214676430309, 41.49811678836701], [2.25909487603851, 41.49811601667595], [2.2590938495077295, 41.49820608370071], [2.2590928229722818, 41.498296150724016], [2.2592126236959764, 41.49829692241994], [2.2593324244243393, 41.49829769399109], [2.2593313982161205, 41.498387761017845], [2.2593303720032347, 41.49847782804314], [2.259210570942973, 41.498477056467145], [2.259090769887379, 41.49847628476637], [2.259089743337925, 41.49856635178537], [2.2590887167838023, 41.498656418802966], [2.2590876902250114, 41.49874648581909], [2.2592074917784597, 41.498747257527164], [2.2593272933365753, 41.498748029110445], [2.259328319563462, 41.498657962089446], [2.259448120960293, 41.49865873354555], [2.259447094899358, 41.49874880056896], [2.259566896466807, 41.4987495719027], [2.2596866980389216, 41.49875034311167], [2.259806499615701, 41.49875111419587], [2.2598054740479587, 41.498841181225146], [2.2599252757953554, 41.498841952187], [2.260045077547415, 41.498842723024076], [2.260044052306916, 41.49893279005676], [2.260043027061754, 41.499022857088015], [2.26004200181193, 41.49911292411782], [2.2600409765574434, 41.499202991146184], [2.260039951298294, 41.49929305817314], [2.2600389260344818, 41.49938312519864], [2.260158728786938, 41.4993838959255], [2.2602785315440563, 41.499384666527575], [2.260398334305836, 41.49938543700489], [2.260399359071775, 41.49929536997211], [2.260400383833054, 41.49920530293789], [2.2605201862675797, 41.49920607328556], [2.2605191616722573, 41.499296140322215], [2.2605181370722756, 41.49938620735741], [2.260517112467634, 41.49947627439117], [2.260516087858333, 41.49956634142351], [2.2606358909613498, 41.499567111656106], [2.2606348665133487, 41.49965717868942], [2.2607546697869845, 41.49965794879967], [2.2607536455002855, 41.49974801583399], [2.2608734489445403, 41.49974878582188], [2.260993252393453, 41.49974955568499], [2.260992228434018, 41.49983962272271], [2.2609912044699265, 41.499929689758986], [2.261111008255419, 41.49993045950217], [2.2612308120455684, 41.49993122912057], [2.2613506158403727, 41.49993199861421], [2.2614704196398314, 41.499932767983054], [2.2614693963349355, 41.500022835027586], [2.261468373025385, 41.50011290207068], [2.2614673497111815, 41.50020296911233], [2.261466326392324, 41.50029303615255], [2.261586130860293, 41.5002938054063], [2.261705935332916, 41.50029457453528], [2.261704912341337, 41.500384641578904], [2.261824716984578, 41.50038541058552], [2.2618236941543133, 41.50047547763013], [2.2619434989681735, 41.500476246514395], [2.262063303786684, 41.500477015273866], [2.2620622812837032, 41.500567082321865], [2.262182086272832, 41.50056785095898], [2.2621810639311692, 41.50065791800798], [2.262180041584857, 41.50074798505554], [2.262179019233896, 41.500838052101656], [2.262298824725582, 41.50083882062124], [2.2622978025359415, 41.50092888766836], [2.262417608198247, 41.50092965606557], [2.2624165861699295, 41.50101972311366], [2.262536392002855, 41.501020491388516], [2.2625353701358617, 41.50111055843758], [2.2626551761394067, 41.50111132659007], [2.262654154433739, 41.50120139364012], [2.262534348264221, 41.50120062548522], [2.262533326387933, 41.501290692531406], [2.262413520057088, 41.501289924249306], [2.2624124980101783, 41.50137999129166], [2.26241147595862, 41.50147005833255], [2.2624104539024135, 41.501560125372016], [2.2624094318415593, 41.50165019241007], [2.262408409776057, 41.50174025944666], [2.2624073877059057, 41.50183032648182], [2.2624063656311066, 41.50192039351555], [2.262405343551659, 41.50201046054783], [2.2622855358976444, 41.502009692121604], [2.2622845136475678, 41.50209975915005], [2.262164705832222, 41.50209899059661], [2.262163683411515, 41.50218905762119], [2.262162660986158, 41.502279124644325], [2.2621616385561514, 41.50236919166604], [2.2621606161214944, 41.50245925868632], [2.2621595936821874, 41.50254932570516], [2.2621585712382313, 41.50263939272257], [2.2621575487896246, 41.50272945973853], [2.2621565263363683, 41.50281952675306], [2.262276335479586, 41.50282029532585], [2.262396144627454, 41.502821063773844], [2.2623951225015215, 41.50291113079179], [2.262394100370941, 41.50300119780828], [2.262393078235712, 41.50309126482334], [2.262512887886193, 41.5030920331538], [2.2625118659123054, 41.50318210016984], [2.2626316757334233, 41.50318286837792], [2.262630653920878, 41.503272935394946], [2.262629632103686, 41.50336300241053], [2.2626286102818463, 41.50345306942469], [2.262627588455359, 41.50354313643741], [2.2627473989450912, 41.50354390453037], [2.2628672094394693, 41.50354467249853], [2.2628661879403227, 41.503634739514645], [2.26286516643653, 41.50372480652931], [2.2629849772675423, 41.50372557437752], [2.2631047881031994, 41.503726342100926], [2.2631037669267506, 41.503816409119004], [2.2631027457456585, 41.50390647613564], [2.2632225569179507, 41.503907243739086], [2.2632215358982104, 41.5039973107567], [2.2633413472411434, 41.50399807823777], [2.263340326382757, 41.50408814525637], [2.2634601378963297, 41.50408891261505], [2.2635799494145448, 41.504089679848946], [2.263699760937401, 41.50409044695803], [2.263819572464899, 41.504091213942324], [2.263939383997035, 41.504091980801824], [2.2640591955338105, 41.50409274753653], [2.2640581756667713, 41.50418281456817], [2.2640571557950935, 41.50427288159837], [2.2641769676685053, 41.5042736482131], [2.2642967795465543, 41.50427441470303], [2.2644165914292405, 41.50427518106817], [2.264415572050924, 41.50436524810418], [2.264535384104246, 41.50436601434693], [2.2646551961622037, 41.504366780464885], [2.2647750082247957, 41.504367546458035], [2.2647760271051123, 41.50427747941479], [2.2648958390063387, 41.50427824528074], [2.2650156509121975, 41.50427901102189], [2.265135462822689, 41.50427977663824], [2.265255274737812, 41.50428054212979], [2.2652542565214953, 41.50437060918267], [2.265374068607249, 41.504371374551845], [2.2654938806976332, 41.50437213979621], [2.265613692792646, 41.50437290491579], [2.2656147105109623, 41.50428283785568], [2.2657345224446037, 41.50428360284805], [2.265854334382873, 41.50428436771563], [2.2659741463257697, 41.50428513245839], [2.266093958273293, 41.504285897076365], [2.266213770225441, 41.50428666156955], [2.266333582182214, 41.504287425937925], [2.2664533941436114, 41.504288190181505], [2.266452377587297, 41.504378257258445], [2.2664513610263595, 41.50446832433396], [2.266450344460799, 41.50455839140801], [2.266449327890615, 41.50464845848065], [2.2665691405206414, 41.50464922260905], [2.26668895315529, 41.504649986612655], [2.266687936912489, 41.50474005368866], [2.266686920665067, 41.50483012076323], [2.266806733636345, 41.50483088464684], [2.266926546612245, 41.50483164840564], [2.267046359592765, 41.504832412039654], [2.2670473753421745, 41.50474234495789], [2.2670483910869645, 41.504652277874676], [2.2670494068271356, 41.50456221079003], [2.2671692193142645, 41.50456297429203], [2.2672890318060124, 41.50456373766924], [2.2672900472095594, 41.50447367057835], [2.2674098595399235, 41.504474433828356], [2.2674108747728514, 41.504384366733625], [2.2675306869418312, 41.50438512985644], [2.2675317020041414, 41.50429506275786], [2.267651514011737, 41.50429582575347], [2.2677713260239485, 41.504296588624285], [2.2678911380407754, 41.5042973513703], [2.267892152600469, 41.50420728426311], [2.2678931671555493, 41.50411721715447], [2.2678941817060148, 41.504027150044394], [2.267895196251866, 41.503937082932886], [2.2678962107931038, 41.50384701581995], [2.267897225329727, 41.503756948705565], [2.26801703635518, 41.50375771131238], [2.2681368473852457, 41.5037584737944], [2.2681378615852643, 41.503668406673796], [2.26813887578067, 41.50357833955175], [2.268139889971464, 41.503488272428264], [2.268140904157645, 41.50339820530334], [2.2681419183392135, 41.50330813817699], [2.2681429325161697, 41.503218071049204], [2.2680231224820644, 41.503217308581576], [2.2680241368203995, 41.50312724145474], [2.268025151154121, 41.50303717432648], [2.268026165483229, 41.50294710719678], [2.2680271798077243, 41.50285704006565], [2.2679073704421917, 41.502856277482834], [2.267787561081272, 41.50285551477522], [2.26778857573313, 41.50276544764744], [2.267789590380373, 41.50267538051824], [2.2679093994093176, 41.50267614322106], [2.2680292084428757, 41.50267690579908], [2.2680302227535316, 41.502586838663646], [2.2680312370595748, 41.502496771526765], [2.268032251361005, 41.50240670438845], [2.2681520599012193, 41.50240746683449], [2.2681530740320524, 41.50231739969233], [2.2681540881582736, 41.50222733254876], [2.2682738963711326, 41.50222809486521], [2.2682749103267588, 41.50213802771779], [2.268275924277774, 41.50204796056894], [2.268276938224177, 41.50195789341865], [2.2682779521659695, 41.50186782626693], [2.268397759719514, 41.501868588449], [2.268398773490716, 41.50177852129344], [2.2683997872573065, 41.50168845413645], [2.2682799800357203, 41.50168769195918], [2.2682809939636788, 41.50159762480314], [2.268282007887026, 41.501507557645674], [2.268162201002006, 41.50150679534841], [2.2681632150867186, 41.50141672819191], [2.2681642291668194, 41.50132666103398], [2.2682840357198866, 41.501327423326444], [2.2682850496294003, 41.50123735616466], [2.2684048560211036, 41.501238118329944], [2.2685246624174176, 41.50123888037045], [2.2685256759903716, 41.501148813202434], [2.2684058697600324, 41.501148051164336], [2.26840688349435, 41.501057983997306], [2.2684078972240576, 41.50096791682882], [2.2684089109491543, 41.500877849658906], [2.268289105221344, 41.50087708750322], [2.268290119107802, 41.500787020334265], [2.2684099246696414, 41.50078778248756], [2.2684109383855184, 41.50069771531477], [2.2682911329896496, 41.500696953163896], [2.268292146866886, 41.50060688599206], [2.2681723416415975, 41.50060612371878], [2.2681733556801924, 41.50051605654794], [2.2681743697141745, 41.50042598937564], [2.2681753837435457, 41.500335922201906], [2.268055579020774, 41.50033515981105], [2.2680565932115, 41.50024509263828], [2.267936788659307, 41.50024433012504], [2.2678169841117275, 41.50024356748703], [2.2676971795687613, 41.50024280472422], [2.2676961648801357, 41.500332871889796], [2.2676951501868947, 41.50042293905393], [2.2676941354890396, 41.50051300621662], [2.2675743304527867, 41.500512243321836], [2.2674545254211487, 41.50051148030228], [2.2674555404509404, 41.50042141314438], [2.2673357355898864, 41.50042065000245], [2.2673367507810296, 41.50033058284551], [2.26721694609056, 41.50032981958119], [2.2672179614430528, 41.50023975242523], [2.267098156923167, 41.50023898903853], [2.2670991724370078, 41.500148921883536], [2.2669793680877066, 41.50014815837446], [2.266859563743025, 41.5001473947406], [2.2667397594029635, 41.500146630981966], [2.2667407754100806, 41.50005656383274], [2.2667417914125765, 41.499966496682084], [2.266861595420709, 41.499967260435916], [2.2669813994334618, 41.49996802406497], [2.2671012034508333, 41.49996878756924], [2.267102218950819, 41.49987872040993], [2.2672220228068456, 41.49987948378702], [2.2672230381362497, 41.49978941662388], [2.2673428418309314, 41.499790179873784], [2.26746264553023, 41.499790942998914], [2.2674636605230925, 41.49970087582954], [2.267464675511339, 41.49961080865872], [2.26746569049497, 41.49952074148648], [2.2674667054739848, 41.49943067431279], [2.26734690243853, 41.49942991119726], [2.2673458872935557, 41.49951997836854], [2.267226084096758, 41.49951921512584], [2.267106280904578, 41.499518451758355], [2.266986477717016, 41.499517688266096], [2.266985462069543, 41.49960775542875], [2.2668656587206395, 41.4996069918093], [2.266745855376356, 41.49960622806508], [2.2667468713557497, 41.499516160907255], [2.266747887330523, 41.499426093747985], [2.2667489033006754, 41.49933602658727], [2.266629100458891, 41.499335262725495], [2.266509297621728, 41.49933449873894], [2.266389494789187, 41.4993337346276], [2.266269691961268, 41.49933297039149], [2.2662686753272805, 41.49942303754258], [2.2661488723380265, 41.4994222731793], [2.2661498891379734, 41.499332206030616], [2.266150905933296, 41.49924213888048], [2.266031103280583, 41.49924137439723], [2.266032120237239, 41.49915130724807], [2.2660331371892695, 41.49906124009749], [2.2660341541366753, 41.49897117294546], [2.2659143519864573, 41.498970408344654], [2.265794549840864, 41.49896964361906], [2.2657955671155547, 41.498879576470415], [2.2656757651405433, 41.498878811622454], [2.265676782576562, 41.49878874447478], [2.265677800007954, 41.49869867732567], [2.2656788174347184, 41.49860861017512], [2.2656798348568556, 41.49851854302314], [2.2655600335502832, 41.498517778060034], [2.2654402322483382, 41.498517012972165], [2.2653204309510224, 41.498516247759525], [2.265321448866386, 41.498426180613336], [2.2653224667771203, 41.49833611346568], [2.265323484683226, 41.498246046316616], [2.265324502584702, 41.49815597916613], [2.2653255204815492, 41.49806591201417], [2.265326538373767, 41.4979758448608], [2.2653275562613557, 41.49788577770598], [2.265328574144315, 41.49779571054974], [2.265329592022646, 41.49770564339207], [2.265209792223491, 41.49770487807631], [2.2652108102631368, 41.4976148109196], [2.265091010634556, 41.4976140454815], [2.265092028835515, 41.49752397832576], [2.2650930470318444, 41.4974339111686], [2.26497324773978, 41.49743314561053], [2.264853448452347, 41.49743237992772], [2.264854466975929, 41.497342312773924], [2.2648554854948797, 41.49725224561869], [2.2649752844504296, 41.4972530112967], [2.2649763027988072, 41.49716294413763], [2.2649773211425543, 41.49707287697712], [2.26497833948167, 41.49698280981518], [2.265098137944032, 41.496983575361185], [2.265097119770855, 41.49707364252554], [2.265096101593048, 41.497163709688444], [2.2650950834106105, 41.49725377684993], [2.265214882375422, 41.4972545422784], [2.2652159003919192, 41.49716447511451], [2.2652169184037865, 41.497074407949185], [2.265217936411024, 41.496984340782426], [2.265218954413633, 41.496894273614224], [2.2652199724116113, 41.496804206444594], [2.2652209904049605, 41.49671413927352], [2.2651011924357802, 41.4967133738595], [2.265102210590436, 41.496623306689415], [2.2649824127918214, 41.496622541153044], [2.2649813944712305, 41.49671260832073], [2.264980376146008, 41.496802675486975], [2.264979357816155, 41.49689274265179], [2.2648595595243615, 41.49689197698343], [2.2648605780201527, 41.49680190982102], [2.2648615965113117, 41.496711842657184], [2.264862614997839, 41.4966217754919], [2.264863633479734, 41.49653170832518], [2.264864651956998, 41.49644164115704], [2.26486567042963, 41.496351573987454], [2.264745873138082, 41.49635080820878], [2.264746891772015, 41.496260741040174], [2.26486668889763, 41.49626150681643], [2.264986486027877, 41.49626227246793], [2.264987504325313, 41.496172205293064], [2.2649885226181192, 41.49608213811677], [2.264989540906294, 41.49599207093903], [2.265109337543378, 41.495992836458534], [2.2651103556609917, 41.49590276927696], [2.265230152136776, 41.4959035346693], [2.2652311700838306, 41.49581346748387], [2.2653509663983145, 41.49581423274905], [2.265351984174812, 41.49572416555977], [2.2653530019466803, 41.495634098369074], [2.2653540197139206, 41.495544031176934], [2.2653550374765326, 41.49545396398335], [2.2653560552345153, 41.49536389678835], [2.2654758507239934, 41.49536466191671], [2.2654768683114237, 41.495274594717856], [2.265477885894226, 41.495184527517566], [2.2654789034724008, 41.49509446031583], [2.2653591084806948, 41.49509369519468], [2.2653601262201644, 41.49500362799394], [2.2652403313990086, 41.49500286275043], [2.265120536582482, 41.49500209738218], [2.2651215546491663, 41.4949120301848], [2.265122572711221, 41.494821962986], [2.265123590768646, 41.49473189578575], [2.2651246088214414, 41.49464182858406], [2.2651256268696067, 41.494551761380954], [2.265126644913143, 41.494461694176394], [2.2651276629520485, 41.4943716269704], [2.2651286809863254, 41.494281559762975], [2.2651296990159717, 41.494191492554116], [2.265009905697342, 41.49419072708278], [2.264890112383342, 41.4941899614867], [2.264889094021865, 41.49428002869074], [2.264888075655756, 41.49437009589334], [2.2648870572850157, 41.494460163094516], [2.264767263477898, 41.49445939736645], [2.264768282014556, 41.49436933016768], [2.264648488377987, 41.49436856431727], [2.2646495070759287, 41.49427849711948], [2.2645297136099094, 41.494277731146724], [2.2645307324691335, 41.494187663949916], [2.2645317513237244, 41.49409759675166], [2.264532770173682, 41.49400752955197], [2.2646525631419574, 41.4940082955175], [2.264772356114865, 41.494009061358284], [2.2647713375967355, 41.49409912856278], [2.2648911307401893, 41.494099894281206], [2.2648921490924048, 41.4940098270743], [2.2648931674399893, 41.493919759865946], [2.264773374628363, 41.493918994152345], [2.264653581821368, 41.493918228313966], [2.2646546004961468, 41.49382816110901], [2.2645348078596967, 41.4938273951483], [2.2644150152278804, 41.49382662906285], [2.2644139962212773, 41.493916696262986], [2.2644129772100396, 41.49400676346169], [2.264411958194169, 41.49409683065896], [2.264410939173663, 41.4941868978548], [2.2644099201485233, 41.49427696504922], [2.26440890111875, 41.494367032242174], [2.2644078820843414, 41.49445709943371], [2.2644068630452994, 41.4945471666238], [2.2644058440016233, 41.494637233812455], [2.2644048249533126, 41.494727300999685], [2.2644038059003675, 41.49481736818548], [2.2645236003572617, 41.49481813429746], [2.264522581465603, 41.4949082014842], [2.264642376093052, 41.49490896747384], [2.2646413573626814, 41.49499903466158], [2.2646403386276774, 41.49508910184788], [2.264760133591603, 41.495089867717574], [2.264759115017889, 41.49517993490485], [2.2646393198880412, 41.49517916903275], [2.264519524762826, 41.495178403035894], [2.2643997296422445, 41.49517763691426], [2.2643987105661276, 41.495267704092875], [2.264278915284257, 41.49526693784409], [2.264277896037582, 41.495357005018846], [2.2642768767862704, 41.49544707219218], [2.264157081177186, 41.49544630581381], [2.2640372855727366, 41.49544553931068], [2.2640383051558977, 41.49535547214218], [2.264039324734422, 41.49526540497224], [2.263919529466459, 41.495264638349184], [2.2639185097220103, 41.495354705516704], [2.2637987142927605, 41.49535393876647], [2.2637976943777494, 41.495444005930146], [2.2636778987872126, 41.49544323905275], [2.2635581032013143, 41.495442472050584], [2.263559123448176, 41.495352404891726], [2.2636789188681488, 41.49535317189149], [2.263679938944446, 41.49526310472878], [2.2637997342031335, 41.49526387160136], [2.263800754108868, 41.495173804434806], [2.263801774009965, 41.49508373726682], [2.263681979083124, 41.495082970399075], [2.2636829991455043, 41.49499290323206], [2.2635632043892246, 41.49499213624197], [2.2634434096375844, 41.49499136912712], [2.2634423892433597, 41.49508143628929], [2.263322594330438, 41.49508066904727], [2.263323614890584, 41.49499060188752], [2.2633246354460894, 41.494900534726305], [2.263204840869652, 41.49489976736436], [2.263203820148225, 41.494989834523146], [2.2630840254105085, 41.49498906703403], [2.263083004518518, 41.495079134188956], [2.262963209619522, 41.49507836657267], [2.262962188556966, 41.495168433723755], [2.2629611674897663, 41.49525850087341], [2.262960146417924, 41.49534856802162], [2.262840351025801, 41.49534780027333], [2.2627205556383223, 41.49534703240026], [2.262719534229986, 41.49543709954221], [2.262599738681228, 41.49543633154197], [2.2624799431371145, 41.49543556341699], [2.2624789213922827, 41.49552563055266], [2.262477899642804, 41.49561569768691], [2.262358103771486, 41.49561492943232], [2.2622383079048154, 41.49561416105299], [2.2621185120427927, 41.4956133925489], [2.2619987161854187, 41.49561262392003], [2.261878920332695, 41.495611855166416], [2.2617591244846214, 41.49561108628804], [2.2616393286411984, 41.4956103172849], [2.261519532802428, 41.495609548157], [2.26139973696831, 41.49560877890435], [2.2613987137208413, 41.49569884601538], [2.2612789177254498, 41.49569807663554], [2.2611591217347127, 41.49569730713094], [2.26103932574863, 41.495696537501594], [2.2610383019987257, 41.49578660460392], [2.2609185058513717, 41.49578583484739], [2.260798709708674, 41.49578506496609], [2.2607976856222574, 41.495875132062146], [2.260677889318288, 41.49587436205367], [2.2606789135706333, 41.49578429496004], [2.2605591174372504, 41.49578352482922], [2.2604393213085263, 41.49578275457365], [2.260319525184462, 41.495781984193314], [2.2601997290650577, 41.49578121368822], [2.260079932950314, 41.49578044305836], [2.2599601368402324, 41.49577967230374], [2.2598403407348138, 41.49577890142437], [2.2597205446340576, 41.49577813042025], [2.259719519054288, 41.49586819749448], [2.259599722792268, 41.495867426363155], [2.2595986970419055, 41.495957493433515], [2.259597671286878, 41.49604756050246], [2.259717467880756, 41.49604833163863], [2.2597164422869946, 41.49613839870856], [2.259596645527186, 41.496137627569965], [2.2594768487720422, 41.4961368563066], [2.2593570520215644, 41.496136084918476], [2.2592372552757527, 41.49613531340559], [2.2591174585346083, 41.496134541767944], [2.2589976617981318, 41.49613377000554], [2.2588778650663235, 41.496132998118384], [2.2587580683391852, 41.496132226106454], [2.2586382716167166, 41.49613145396976], [2.2585184748989184, 41.496130681708316], [2.258517447641184, 41.49622074875251], [2.2583976507621273, 41.496219976363875], [2.258396623333789, 41.49631004340421], [2.258395595900778, 41.49640011044311], [2.2583945684630944, 41.49649017748058], [2.2583935410207387, 41.496580244516615], [2.258392513573711, 41.49667031155121], [2.258512311282433, 41.496671083952], [2.258511283996667, 41.49676115098759], [2.25851025670623, 41.49685121802174], [2.258630054751495, 41.49685199030262]], [[2.25945427722791, 41.49811833137483], [2.259453251194973, 41.49820839840687], [2.259333450627891, 41.49820762696293], [2.259334476826776, 41.49811755993331], [2.25945427722791, 41.49811833137483]], [[2.265119518511167, 41.49509216457812], [2.2649997235333483, 41.495091399082696], [2.2650007417705846, 41.49500133188916], [2.265120536582482, 41.49500209738218], [2.265119518511167, 41.49509216457812]], [[2.262081708045187, 41.49885580816411], [2.2620827304598197, 41.49876574108881], [2.2620837528698017, 41.498675674012084], [2.262203554373766, 41.49867644259841], [2.2622045766131462, 41.49858637551782], [2.262205598847878, 41.498496308435804], [2.262206621077961, 41.49840624135235], [2.2623264220887207, 41.49840700980664], [2.2624462231041282, 41.49840777813617], [2.262445201205946, 41.49849784522446], [2.262444179303117, 41.498587912311315], [2.2624431573956403, 41.49867797939674], [2.2625629589135494, 41.49867874760874], [2.262682760436105, 41.498679515695976], [2.2628025619633063, 41.49868028365844], [2.2628015405490407, 41.49877035074967], [2.26292134224684, 41.49877111858977], [2.262920320993883, 41.49886118568199], [2.26304012286228, 41.49886195339974], [2.263039101770633, 41.49895202049293], [2.2630380806743413, 41.4990420875847], [2.262918278474034, 41.49904131986212], [2.2627984762783715, 41.49904055201476], [2.2626786740873546, 41.49903978404264], [2.2626796956815114, 41.49894971695812], [2.262559893661095, 41.49894894886364], [2.2624400916453253, 41.49894818064438], [2.262320289634204, 41.49894741230035], [2.26220048762773, 41.49894664383155], [2.262201509881058, 41.49885657675526], [2.262081708045187, 41.49885580816411]], [[2.262467681892449, 41.496516368950346], [2.262466660091856, 41.49660643606879], [2.262465638286617, 41.496696503185795], [2.2623458404241243, 41.49669573490221], [2.262346862395299, 41.496605667787605], [2.2623478843618265, 41.496515600671586], [2.262467681892449, 41.496516368950346]], [[2.25935499982446, 41.49631621903945], [2.259356025925346, 41.496226151979684], [2.2594758228417544, 41.49622692337023], [2.259474796906801, 41.496316990432426], [2.25935499982446, 41.49631621903945]], [[2.2616065930340756, 41.498492464280645], [2.26148679188527, 41.49849169507531], [2.2614878151110545, 41.49840162800638], [2.2616076160939103, 41.4984023972093], [2.2616065930340756, 41.498492464280645]], [[2.26315584100469, 41.49922298936653], [2.263275643546197, 41.499223756844394], [2.2632766643198625, 41.49913368975067], [2.2633964667000543, 41.49913445710135], [2.2633974873031217, 41.49904439000378], [2.2635172895219986, 41.49904515722725], [2.2635162690848873, 41.49913522432724], [2.2636360714743615, 41.49913599142837], [2.263635051198566, 41.499226058529324], [2.263634030918131, 41.49931612562886], [2.2636330106330553, 41.49940619272694], [2.2635132077457087, 41.499405425618576], [2.263393404863003, 41.49940465838544], [2.2632736019849387, 41.49940389102753], [2.263274622767889, 41.49931382393668], [2.263154820060425, 41.49931305645641], [2.26315584100469, 41.49922298936653]], [[2.2629162359356076, 41.499221454036494], [2.263036038467827, 41.499222221763894], [2.2630350173576046, 41.49931228885136], [2.262915214659428, 41.499311521121534], [2.2629162359356076, 41.499221454036494]], [[2.265777255463265, 41.50050078492641], [2.2657782728166076, 41.50041071780217], [2.26565846802026, 41.50040995291331], [2.2656594855349423, 41.50031988579004], [2.265779290165323, 41.5003206506765], [2.265899094800331, 41.50032141543817], [2.2660188994399637, 41.500322180075074], [2.266017882423182, 41.500412247205574], [2.266137687233408, 41.5004130117201], [2.2662574920482577, 41.50041377610985], [2.266377296867732, 41.50041454037481], [2.2664971016918285, 41.500415304514995], [2.266616906520548, 41.500416068530406], [2.26661589032898, 41.50050613567148], [2.266614874132791, 41.50059620281112], [2.266613857931981, 41.50068626994932], [2.266733663263227, 41.500687033847164], [2.2668534685990944, 41.50068779762021], [2.266973273939582, 41.50068856126849], [2.2670930792846886, 41.50068932479198], [2.2672128846344135, 41.50069008819069], [2.2672118692588326, 41.50078015533948], [2.267331674779146, 41.50078091861581], [2.2674514803040764, 41.50078168176735], [2.26745046525582, 41.500871748919494], [2.2674494502029465, 41.50096181607022], [2.2673296443460735, 41.50096105291387], [2.2673286291226113, 41.501051120060744], [2.267208823104383, 41.50105035677721], [2.2670890170907723, 41.50104959336889], [2.2669692110817796, 41.501048829835796], [2.266849405077407, 41.50104806617791], [2.2667295990776544, 41.501047302395236], [2.266609793082522, 41.50104653848779], [2.266489987092012, 41.501045774455555], [2.2663701811061245, 41.50104501029855], [2.266371197657366, 41.50095494317089], [2.2662513918420735, 41.5009541788915], [2.266252408554664, 41.500864111764805], [2.266132602909967, 41.50086334736304], [2.2661336197839046, 41.50077328023732], [2.266013814309803, 41.50077251571317], [2.265894008840327, 41.500771751064235], [2.2657742033754773, 41.500770986290526], [2.2657752207427, 41.5006809191706], [2.2657762381052957, 41.500590852049214], [2.265777255463265, 41.50050078492641]], [[2.2648758549012102, 41.49545090221263], [2.264756059268956, 41.49545013645807], [2.2647570778565664, 41.495360069275094], [2.2648768733228946, 41.49536083502726], [2.2648758549012102, 41.49545090221263]], [[2.2645266570044362, 41.49454793272854], [2.2645276758775608, 41.49445786553604], [2.2646474696754133, 41.494458631513616], [2.2646464509682063, 41.494548698708535], [2.2645266570044362, 41.49454793272854]], [[2.2671854678728107, 41.50312190070396], [2.267065658041623, 41.50312113724039], [2.266945848215054, 41.50312037365203], [2.2669448323828028, 41.50321044075725], [2.2668250223948636, 41.50320967704169], [2.2667052124115448, 41.50320891320135], [2.2667062285757775, 41.50311884610093], [2.266707244735388, 41.50302877899909], [2.2667082608903777, 41.50293871189581], [2.266828070375727, 41.502939475728944], [2.266829086360107, 41.50284940862182], [2.266830102339866, 41.50275934151327], [2.26694991149786, 41.50276010521681], [2.2670697206604737, 41.502760868795555], [2.2671895298277063, 41.502761632249516], [2.26718851434591, 41.50285169936528], [2.2673083236837486, 41.50285246269684], [2.267428133026205, 41.50285322590362], [2.267427117871767, 41.50294329302276], [2.2675469273848288, 41.502944056107154], [2.2675459123917636, 41.503034123227245], [2.2674261027127125, 41.50303336014046], [2.2673062930382786, 41.50303259692888], [2.267305277708617, 41.503122664042735], [2.2671854678728107, 41.50312190070396]], [[2.266214787109131, 41.50419659449598], [2.2662158039881963, 41.50410652742099], [2.266335615612971, 41.50410729178456], [2.2663345988999044, 41.50419735886195], [2.266214787109131, 41.50419659449598]], [[2.266960069381489, 41.50185943402825], [2.267079876884268, 41.50186019758297], [2.2670788612826738, 41.50195026471069], [2.266959053613915, 41.50194950115356], [2.2668392459497753, 41.50194873747164], [2.2667194382902567, 41.50194797366495], [2.266720454389791, 41.501857906544444], [2.2667214704847045, 41.50176783942249], [2.266841277812264, 41.50176860322439], [2.266961085144444, 41.5017693669015], [2.266960069381489, 41.50185943402825]], [[2.265907232095787, 41.49960087836183], [2.2659082492369023, 41.49951081122082], [2.266028052382867, 41.49951157583606], [2.2661478555334558, 41.49951234032654], [2.2661468387242607, 41.49960240747236], [2.2661458219104413, 41.49969247461674], [2.2660260184279304, 41.49969171012146], [2.2660270354077108, 41.499601642979485], [2.265907232095787, 41.49960087836183]], [[2.267924616074521, 41.5013251360747], [2.2678048095352916, 41.50132437340788], [2.2678058241087053, 41.50123430625571], [2.2679256304819595, 41.50123506892012], [2.267924616074521, 41.5013251360747]]]}, "properties": {"area_ha": 47.69, "dnbr_threshold_core": 0.35, "dnbr_threshold_grow": 0.22, "forest_mask": "esa_worldcover_2021_10_20", "part": 1, "fire_id": "gencat_082824_2026-06-26", "burn_year": 2026, "source": "sentinel", "aoi_source": "gencat", "dnbr_threshold": 0.35, "buffer_m": 800.0, "post_windows": 2, "post_window_dates": [{"start": "2026-07-03", "end": "2026-07-26"}, {"start": "2026-07-26", "end": "2026-08-25"}], "pre_window": {"start": "2026-04-12", "end": "2026-06-19"}, "fire_date": "2026-06-26", "severity": "moderada", "severity_method": "threshold_proxy"}}]}
