{"type": "FeatureCollection", "features": [{"type": "Feature", "geometry": {"type": "Polygon", "coordinates": [[[1.1318707482617878, 41.530273118735806], [1.1318681574123448, 41.530363144826666], [1.1319879634788994, 41.53036509161552], [1.1319853727835962, 41.53045511771095], [1.1319827820765131, 41.530545143804844], [1.131980191357651, 41.53063516989718], [1.1319776006270093, 41.53072519598797], [1.1319750098845875, 41.53081522207722], [1.1319724191303864, 41.53090524816493], [1.1318526120682986, 41.530903301339336], [1.1318500211363929, 41.53099332741938], [1.1318474301927057, 41.53108335349786], [1.1318448392372389, 41.531173379574795], [1.1319646467971032, 41.53117532641875], [1.1319620559957824, 41.53126535250026], [1.1319594651826814, 41.53135537858023], [1.1319568743578, 41.53144540465866], [1.132076682427227, 41.53144735139623], [1.1321964905084339, 41.53144929800908], [1.1323162986014197, 41.53145124449718], [1.1324361067061828, 41.53145319086053], [1.1324386968673494, 41.53136316475762], [1.132441287016739, 41.53127313865316], [1.132561094801422, 41.53127508487954], [1.132680902597882, 41.53127703098117], [1.1326834924036397, 41.531187004862936], [1.1326860821976217, 41.53109697874315], [1.1326886719798288, 41.531006952621816], [1.1326912617502602, 41.53091692649894], [1.1326938515089164, 41.53082690037451], [1.1326964412557976, 41.53073687424853], [1.1326990309909033, 41.530646848121016], [1.1327016207142335, 41.53055682199196], [1.1325818142451718, 41.53055487593927], [1.1325844041226492, 41.53046484981478], [1.1325869939883502, 41.530374823688746], [1.1327068001255705, 41.53037676972918], [1.1328266062745656, 41.53037871564488], [1.1328291957966514, 41.530288689505056], [1.1329490017915012, 41.530290635289894], [1.1330688077981232, 41.530292580950004], [1.1331886138165188, 41.53029452648537], [1.1331860247921932, 41.53038455264355], [1.1333058309882802, 41.530386498060295], [1.1334256371961384, 41.530388443352315], [1.133423048491883, 41.53047846952117], [1.1334204597758564, 41.53056849568851], [1.1334178710480591, 41.53065852185429], [1.1335376777654533, 41.530660467039915], [1.1336574844946168, 41.5306624121008], [1.1337772912355497, 41.530664357036954], [1.1338970979882514, 41.53066630184836], [1.1338996860523576, 41.530576275658134], [1.1339022741046967, 41.530486249466335], [1.1339048621452683, 41.530396223273], [1.1339074501740725, 41.530306197078126], [1.1339100381911094, 41.53021617088169], [1.1339126261963788, 41.53012614468372], [1.1337928204392023, 41.530124199909], [1.1336730146937941, 41.530122255009545], [1.1335532089601543, 41.53012030998536], [1.1334334032382838, 41.530118364836426], [1.1333135975281838, 41.530116419562766], [1.1333161863512768, 41.530026393393825], [1.1331963808188652, 41.53002444800155], [1.1330765752982264, 41.53002250248453], [1.132956769789359, 41.53002055684278], [1.1329593590984322, 41.52993053069065], [1.1329619483957323, 41.52984050453697], [1.1329645376812587, 41.52975047838176], [1.1329671269550128, 41.52966045222498], [1.1330869318002164, 41.52966239784226], [1.1330895208962835, 41.529572371677816], [1.133209325587345, 41.52957431716425], [1.1332119145057264, 41.52948429099215], [1.1332145034123364, 41.52939426481851], [1.1332170923071758, 41.52930423864332], [1.133219681190244, 41.529214212466584], [1.1332222700615406, 41.52912418628829], [1.1333420739348143, 41.5291261316194], [1.1334618778198589, 41.529128076825764], [1.133581681716672, 41.5291300219074], [1.1335842700784688, 41.52903999570922], [1.1335868584284967, 41.5289499695095], [1.1335894467667567, 41.52885994330823], [1.1334696433676699, 41.52885799824493], [1.1333498399803525, 41.52885605305692], [1.1332300366048051, 41.528854107744166], [1.1332274477688218, 41.52894413392708], [1.133107644239137, 41.5289421884835], [1.132987840721224, 41.528940242915155], [1.1328680372150834, 41.5289382972221], [1.1328654478696027, 41.52902832338512], [1.132862858512348, 41.5291183495466], [1.1327430546861628, 41.529116403716564], [1.1327404651512247, 41.52920642987038], [1.132620661170904, 41.52920448390951], [1.132500857202358, 41.52920253782389], [1.1324982673238246, 41.52929256396392], [1.1323784632011435, 41.529290617747456], [1.1322586590902384, 41.52928867140626], [1.132256068868107, 41.52937869753251], [1.1322534786341978, 41.52946872365718], [1.1322508883885116, 41.52955874978032], [1.1321310837916478, 41.52955680329604], [1.1321284933682711, 41.52964682941151], [1.1321259029331154, 41.52973685552544], [1.1321233124861816, 41.52982688163784], [1.1320035074033532, 41.52982493501044], [1.1318837023323038, 41.52982298825832], [1.1317638972730344, 41.52982104138146], [1.1316440922255449, 41.529819094379874], [1.1316415011031709, 41.529909120466215], [1.1316389099690143, 41.52999914655102], [1.1316363188230767, 41.53008917263428], [1.1317561243683154, 41.53009111965424], [1.1317535333765145, 41.53018114574205], [1.1317509423729326, 41.530271171828346], [1.1318707482617878, 41.530273118735806]]]}, "properties": {"area_ha": 2.38, "dnbr_threshold": 0.35, "part": 1, "fire_id": "2024250994", "burn_year": 2024, "source": "sentinel", "aoi_source": "official", "buffer_m": 500.0, "fire_date": "2024-07-31"}}, {"type": "Feature", "geometry": {"type": "Polygon", "coordinates": [[[1.1311317514028223, 41.53512478799074], [1.1310119366121698, 41.53512284012883], [1.1310093441307485, 41.535212866099435], [1.1308895291859242, 41.53521091810664], [1.130886936526755, 41.53530094406957], [1.130767121427759, 41.5352989959459], [1.1306473063405524, 41.53529704769748], [1.130644713337672, 41.5353870736466], [1.130524898096295, 41.535385125267304], [1.1305223049156623, 41.53547515120875], [1.1304024895201146, 41.535473202698554], [1.130282674136359, 41.5354712540636], [1.1302800806120104, 41.535561279991235], [1.130160265074085, 41.5355593312254], [1.1301576713719799, 41.53564935714539], [1.1301550776580813, 41.5357393830638], [1.130152483932389, 41.535829408980675], [1.1301498901949034, 41.535919434896], [1.1302697063966853, 41.53592138368635], [1.1303895226102603, 41.53592333235193], [1.130509338835628, 41.53592528089276], [1.1306291550727874, 41.535927229308825], [1.1306317481464114, 41.535837203368985], [1.1307515642293955, 41.535839151654166], [1.130754157125264, 41.535749125706666], [1.1308739730540733, 41.53575107386095], [1.1309937889946717, 41.53575302189048], [1.1309963815468218, 41.53566299592918], [1.1311161973332446, 41.535664943827825], [1.1311187897076431, 41.53557491785883], [1.1312386053398897, 41.5355768656266], [1.1313584209839227, 41.5355788132696], [1.1314782366397422, 41.535580760787845], [1.1315980523073466, 41.53558270818134], [1.131595460596803, 41.53567273417482], [1.1315928688744752, 41.535762760166755], [1.1315902771403625, 41.53585278615713], [1.131587685394465, 41.53594281214597], [1.1315850936367828, 41.536032838133266], [1.131704910145999, 41.536034785432605], [1.131702318542499, 41.53612481142448], [1.131699726927216, 41.53621483741481], [1.1316971353001484, 41.53630486340358], [1.1316945436612968, 41.53639488939081], [1.131574726488206, 41.53639294206697], [1.1315721346715992, 41.53648296804652], [1.1315695428432069, 41.536572994024546], [1.1314497253499591, 41.536571046563694], [1.1314471333438096, 41.53666107253403], [1.1314445413258747, 41.53675109850283], [1.1314419492961534, 41.536841124470065], [1.1314393572546455, 41.53693115043577], [1.1314367652013524, 41.537021176399925], [1.1314341731362723, 41.53711120236254], [1.1315539916253643, 41.53711314986013], [1.1315513997144748, 41.5372031758273], [1.1315488077917994, 41.53729320179295], [1.1315462158573388, 41.53738322775704], [1.1315436239110919, 41.537473253719575], [1.1315410319530594, 41.53756327968058], [1.1315384399832409, 41.53765330564003], [1.1316582594799895, 41.53765525304961], [1.1317780789885235, 41.53765720033441], [1.1318978985088415, 41.537659147494445], [1.1320177180409432, 41.53766109452972], [1.1320203093468395, 41.537571068545766], [1.1321401287247435, 41.537573015450135], [1.1322599481144295, 41.537574962229755], [1.1322625390765826, 41.537484936232026], [1.13238235831207, 41.53748688288074], [1.132502177559338, 41.53748882940469], [1.1325047681777514, 41.53739880339317], [1.1326245872708196, 41.53740074978623], [1.1326271777114747, 41.53731072376704], [1.132629768140351, 41.5372206977463], [1.132749586913242, 41.53722264400235], [1.1327521771643618, 41.53713261797395], [1.132754767403704, 41.537042591943994], [1.1327573576312677, 41.5369525659125], [1.132759947847054, 41.53686253987946], [1.1327625380510622, 41.536772513844866], [1.13264272010805, 41.53677056761941], [1.1326453104662544, 41.53668054158939], [1.1325254927009945, 41.53667859524529], [1.1324056749475135, 41.536676648776435], [1.1322858572058128, 41.536674702182815], [1.1322884480501563, 41.53658467616962], [1.1321686304862089, 41.53658272945734], [1.1321712214847426, 41.53649270344871], [1.1321738124714962, 41.53640267743854], [1.1321764034464676, 41.53631265142682], [1.132178994409658, 41.53622262541355], [1.1321815853610677, 41.53613259939874], [1.1321841763006961, 41.536042573382375], [1.1323039928688245, 41.53604452005792], [1.132306583630704, 41.53595449403389], [1.132426400044646, 41.53595644057855], [1.132428990628779, 41.53586641454685], [1.1324315812011325, 41.53577638851361], [1.1324341717617075, 41.53568636247883], [1.1324367623105023, 41.535596336442474], [1.132439352847518, 41.5355063104046], [1.1325591684434142, 41.53550825679388], [1.132561758802688, 41.53541823074835], [1.1325643491501838, 41.53532820470125], [1.1326841644259336, 41.53533015095354], [1.1328039797134606, 41.53533209708107], [1.1329237950127644, 41.53533404308384], [1.1330436103238442, 41.53533598896186], [1.1330461999957155, 41.535245962888744], [1.133048789655812, 41.53515593681407], [1.1330513793041335, 41.535065910737856], [1.1329315644909355, 41.5350639648782], [1.132934154293441, 41.53497393880655], [1.1329367440841704, 41.53488391273337], [1.1328169296146666, 41.53488196676118], [1.1328195195595778, 41.53479194069258], [1.132699705267808, 41.53478999460176], [1.1327022953669006, 41.534699968537716], [1.1325824812528642, 41.53469802232825], [1.132462667150606, 41.53469607599406], [1.1323428530601267, 41.5346941295351], [1.1322230389814263, 41.53469218295139], [1.1321032249145064, 41.53469023624291], [1.1319834108593676, 41.53468828940969], [1.1319808197645354, 41.53477831543701], [1.1318610055552212, 41.534776368472905], [1.1317411913576896, 41.53477442138404], [1.1317385999191618, 41.53486444739757], [1.1316187855674567, 41.53486250017783], [1.131498971227535, 41.53486055283333], [1.1314963794453083, 41.534950578833055], [1.131376564951214, 41.534948631357686], [1.1313739729912442, 41.53503865734974], [1.131254158342977, 41.53503670974347], [1.1311343437064967, 41.535034762012465], [1.1311317514028223, 41.53512478799074]]]}, "properties": {"area_ha": 3.33, "dnbr_threshold": 0.35, "part": 2, "fire_id": "2024250994", "burn_year": 2024, "source": "sentinel", "aoi_source": "official", "buffer_m": 500.0, "fire_date": "2024-07-31"}}, {"type": "Feature", "geometry": {"type": "Polygon", "coordinates": [[[1.1350167430135494, 41.52924337942803], [1.1348969388096497, 41.529241435837065], [1.1347771346175095, 41.529239492121356], [1.1346573304371306, 41.52923754828092], [1.134654743545, 41.52932757453104], [1.1346521566411072, 41.52941760077962], [1.1346495697254522, 41.52950762702665], [1.1347693744035683, 41.52950957088542], [1.1347667876420653, 41.52959959713702], [1.1347642008688008, 41.529689623387064], [1.1347616140837748, 41.52977964963558], [1.1347590272869867, 41.529869675882544], [1.1347564404784372, 41.529959702127954], [1.1348762459978932, 41.52996164589255], [1.1349960515291104, 41.52996358953242], [1.1349934650406346, 41.53005361578851], [1.13511327074953, 41.530055559309766], [1.135233076470185, 41.53005750270628], [1.1353528822025991, 41.53005944597804], [1.1354726879467707, 41.53006138912509], [1.1355924937027007, 41.53006333214739], [1.1357122994703865, 41.53006527504495], [1.1358321052498281, 41.53006721781779], [1.1358346905768764, 41.52997719151891], [1.1359544962021546, 41.529979134160904], [1.1359519110410252, 41.530069160465885], [1.1360717168439762, 41.53007110298924], [1.136069131837012, 41.53016112929878], [1.1360665468182938, 41.53025115560677], [1.136186352964838, 41.53025309801762], [1.1363061591231354, 41.530255040303715], [1.136425965293184, 41.530256982465076], [1.1365457714749854, 41.5302589245017], [1.1365431871081966, 41.53034895083259], [1.1366629934676693, 41.53035089275058], [1.1367827998388922, 41.530352834543855], [1.1369026062218637, 41.53035477621237], [1.137022412616584, 41.530356717756156], [1.1370249963196872, 41.530266691400854], [1.1371448025602338, 41.530268632813794], [1.1372646088125273, 41.530270574102], [1.1372671921720414, 41.53018054773294], [1.1372697755198096, 41.53009052136234], [1.1372723588558318, 41.53000049499018], [1.1371525531012978, 41.52999855372029], [1.1371551365914927, 41.5299085273527], [1.1371577200699405, 41.529818500983566], [1.1370379146589895, 41.52981655960115], [1.1369181092597855, 41.529814618094], [1.1367983038723302, 41.52981267646211], [1.136800887836782, 41.52972265010974], [1.136803471789485, 41.52963262375581], [1.1366836667456106, 41.529630682011415], [1.1366862508524798, 41.52954065566207], [1.136806055730439, 41.529542597400365], [1.1368086396596444, 41.52945257104336], [1.1369284443834373, 41.52945451265083], [1.1370482491189784, 41.52945645413355], [1.1370508327046078, 41.52936642776279], [1.1370534162784902, 41.52927640139048], [1.1370559998406258, 41.529186375016636], [1.1370585833910145, 41.529096348641225], [1.1370611669296555, 41.52900632226429], [1.1370637504565502, 41.52891629588579], [1.1369439467164801, 41.5289143544397], [1.1368241429881583, 41.52891241286886], [1.1367043392715837, 41.528910471173305], [1.1365845355667583, 41.52890852935302], [1.1365871197455433, 41.5288185029974], [1.1364673162183763, 41.5288165610585], [1.1363475127029605, 41.52881461899484], [1.1362277091992952, 41.52881267680647], [1.1361079057073826, 41.528810734493355], [1.1359881022272225, 41.52880879205552], [1.135985517218894, 41.5288988183806], [1.1358657135845782, 41.528896875811924], [1.1358631283985867, 41.52898690212934], [1.1357433246101163, 41.52898495942982], [1.1356235208334007, 41.52898301660557], [1.1355037170684408, 41.528981073656595], [1.135501131372965, 41.529071099954145], [1.1353813274538516, 41.529069156874314], [1.1352615235464965, 41.52906721366976], [1.1351417196508993, 41.52906527034048], [1.135139133445934, 41.52915529661815], [1.1350193293961848, 41.529153353158016], [1.1350167430135494, 41.52924337942803]], [[1.1364543943774028, 41.529266692790564], [1.136456978769099, 41.52917666644724], [1.136576782959906, 41.529178608410575], [1.1365741987341216, 41.52926863476002], [1.1364543943774028, 41.529266692790564]]]}, "properties": {"area_ha": 2.5, "dnbr_threshold": 0.35, "part": 6, "fire_id": "2024250994", "burn_year": 2024, "source": "sentinel", "aoi_source": "official", "buffer_m": 500.0, "fire_date": "2024-07-31"}}, {"type": "Feature", "geometry": {"type": "Polygon", "coordinates": [[[1.1364863280658148, 41.53232952972076], [1.1366061380757422, 41.53233147177312], [1.1367259480974217, 41.53233341370071], [1.136845758130851, 41.53233535550358], [1.136848342258356, 41.53224532918839], [1.1368509263741116, 41.53215530287166], [1.1368535104781172, 41.53206527655339], [1.1368560945703736, 41.53197525023355], [1.1367362852006908, 41.53197330845512], [1.136738869447132, 41.53188328213986], [1.1367414536818232, 41.53179325582306], [1.1367440379047637, 41.531703229504686], [1.1368638467766445, 41.53170517126481], [1.1369836556602742, 41.53170711290018], [1.1369810717692002, 41.531797139230754], [1.1371008808305123, 41.53179908074748], [1.1372206899035722, 41.53180102213948], [1.1373404989883795, 41.53180296340673], [1.137460308084933, 41.53180490454924], [1.1375801171932327, 41.531806845566976], [1.1376999263132765, 41.53180878646], [1.1378197354450654, 41.531810727228276], [1.137939544588597, 41.531812667871804], [1.1380593537438712, 41.53181460839058], [1.138179162910888, 41.53181654878462], [1.1382989720896461, 41.53181848905391], [1.1384187812801443, 41.53182042919847], [1.138416199368535, 41.53191045560073], [1.1385360087367076, 41.531912395626634], [1.1386558181166195, 41.5319143355278], [1.1387756275082692, 41.53191627530421], [1.1388954369116564, 41.53191821495588], [1.1388980181595256, 41.53182818852923], [1.1389005993956578, 41.53173816210101], [1.1389031806200534, 41.53164813567127], [1.138905761832712, 41.53155810923996], [1.1390255705841004, 41.53156004874249], [1.139145379347224, 41.53156198812029], [1.1391427984664309, 41.53165201456378], [1.139262607407223, 41.53165395382292], [1.1393824163597486, 41.531655892957325], [1.1395022253240077, 41.53165783196698], [1.1396220343000003, 41.53165977085189], [1.1396194540712075, 41.531749797318234], [1.1397392632248653, 41.531751736084495], [1.1397366831502749, 41.531841762555395], [1.1398564924815995, 41.53184370120301], [1.1398539125612135, 41.53193372767846], [1.1399737220702038, 41.531935666207424], [1.140093531590925, 41.53193760461164], [1.140090951990681, 41.53202763109774], [1.140210761689067, 41.53202956938331], [1.1403305713991823, 41.53203150754413], [1.1404503811210243, 41.53203344558022], [1.1405701908545935, 41.532035383491554], [1.140572769791091, 41.53194535698108], [1.1406925793704499, 41.531947294761586], [1.140695158129285, 41.53185726824348], [1.1408149675544335, 41.531859205893134], [1.1408175461356078, 41.53176917936738], [1.1409373554065452, 41.531771116886205], [1.141057164689207, 41.53177305428028], [1.1410597429267877, 41.5316830277408], [1.141062321152645, 41.53159300119977], [1.141182130115161, 41.53159493845692], [1.1413019390893984, 41.53159687558932], [1.141304516971667, 41.53150684903457], [1.1413070948422142, 41.53141682247827], [1.1414269034963076, 41.53141875947374], [1.1415467121621203, 41.531420696344476], [1.1416665208396537, 41.53142263309046], [1.1416690982006836, 41.53133260651434], [1.141671675549995, 41.531242579936674], [1.1416742528875874, 41.531152553357465], [1.1415544447078478, 41.531150616629745], [1.1415570221996505, 41.53106059005508], [1.1414372141975606, 41.53105865320871], [1.1413174062071905, 41.53105671623759], [1.1411975982285416, 41.53105477914174], [1.1410777902616138, 41.53105284192115], [1.1409579823064087, 41.531050904575814], [1.1408381743629268, 41.53104896710574], [1.1407183664311695, 41.53104702951092], [1.14071578777786, 41.531137056042944], [1.1405959796918976, 41.531135118317295], [1.140593400860934, 41.53122514484168], [1.1404735926207674, 41.53122320698519], [1.1403537843923282, 41.53122126900395], [1.140233976175615, 41.531219330897976], [1.1401141679706306, 41.53121739266727], [1.139994359777374, 41.531215454311806], [1.1398745515958475, 41.53121351583161], [1.1398719717575747, 41.531303542317865], [1.1397521634218477, 41.53130160370683], [1.1397547434260509, 41.53121157722667], [1.1396349352679858, 41.53120963849698], [1.139515127121652, 41.531207699642565], [1.1393953189870505, 41.5312057606634], [1.1392755108641828, 41.53120382155948], [1.139155702753048, 41.53120188233084], [1.1390358946536487, 41.53119994297744], [1.1390384756416974, 41.5311099165323], [1.1390410566180105, 41.531019890085624], [1.1389212488622038, 41.531017950619685], [1.1389238299927087, 41.530927924177576], [1.1388040224145664, 41.530925984593], [1.1388066036992615, 41.53083595815543], [1.1386867962987826, 41.530834018452204], [1.1385669889100412, 41.53083207862425], [1.1384471815330377, 41.53083013867156], [1.1383273741677724, 41.530828198594115], [1.1382075668142475, 41.53082625839195], [1.1380877594724637, 41.53082431806502], [1.1379679521424204, 41.53082237761336], [1.1378481448241196, 41.53082043703697], [1.1377283375175609, 41.53081849633584], [1.1376085302227459, 41.53081655550996], [1.1376059472787854, 41.530906581886505], [1.1374861398297886, 41.53090464092979], [1.1374835567081574, 41.53099466729868], [1.1373637491049793, 41.53099272621112], [1.1372439415135456, 41.530990784998814], [1.1371241339338602, 41.53098884366177], [1.1370043263659215, 41.53098690219999], [1.1368845188097314, 41.53098496061346], [1.1367647112652899, 41.5309830189022], [1.1367621271363486, 41.53107304523292], [1.1367595429956576, 41.531163071562105], [1.1367569588432171, 41.53125309788973], [1.136637150812741, 41.5312511560354], [1.136634566482621, 41.53134118235538], [1.1366319821407498, 41.531431208673816], [1.1366293977871287, 41.5315212349907], [1.1366268134217565, 41.53161126130604], [1.1366242290446333, 41.53170128761984], [1.1365044201962542, 41.531699345610235], [1.1363846113596257, 41.53169740347589], [1.1363820266388853, 41.531787429775925], [1.1363794419063928, 41.531877456074405], [1.1363768571621478, 41.53196748237135], [1.1363742724061499, 41.532057508666746], [1.136371687638399, 41.53214753496059], [1.1364914973047002, 41.53214947712548], [1.1364889126911335, 41.53223950342389], [1.1364863280658148, 41.53232952972076]]]}, "properties": {"area_ha": 3.65, "dnbr_threshold": 0.35, "part": 9, "fire_id": "2024250994", "burn_year": 2024, "source": "sentinel", "aoi_source": "official", "buffer_m": 500.0, "fire_date": "2024-07-31"}}, {"type": "Feature", "geometry": {"type": "Polygon", "coordinates": [[[1.1420504338200037, 41.5263850148837], [1.1420478574352066, 41.52647504155699], [1.1419280578593811, 41.526473105395404], [1.1419254812969786, 41.52656313206106], [1.1418056815669777, 41.52656119576866], [1.141685881848693, 41.52655925935153], [1.141683304942791, 41.52664928600347], [1.1415635050703303, 41.52664734945554], [1.1415609279868189, 41.526737376099824], [1.141558350891591, 41.52682740274257], [1.141555773784645, 41.52691742938377], [1.1416755741547853, 41.526919365949986], [1.1417953745366431, 41.52692130239146], [1.1419151749302165, 41.526923238708214], [1.1420349753355055, 41.52692517490025], [1.1421547757525086, 41.52692711096757], [1.142274576181226, 41.526929046910155], [1.1423943766216553, 41.52693098272801], [1.142514177073798, 41.526932918421146], [1.1426339775376513, 41.526934853989566], [1.142753778013215, 41.52693678943326], [1.1427512025535043, 41.527026816133805], [1.1427486270820832, 41.52711684283281], [1.1428684279011494, 41.527118778163945], [1.1428658525839155, 41.527208804867485], [1.142985653580589, 41.52721074007999], [1.1431054545889694, 41.52721267516776], [1.1432252556090585, 41.52721461013081], [1.1432278304286005, 41.52712458340901], [1.1432304052364353, 41.527034556685685], [1.143232980032564, 41.526944529960794], [1.14335278056667, 41.526946464780856], [1.1434725811124822, 41.52694839947621], [1.1435923816700007, 41.52695033404682], [1.1435949559567362, 41.52686030730215], [1.1437147563600631, 41.526862241741966], [1.1438345567750938, 41.52686417605706], [1.1439543572018283, 41.52686611024743], [1.1440741576402649, 41.52686804431307], [1.1441939580904026, 41.526869978253984], [1.1443137585522412, 41.5268719120702], [1.1444335590257806, 41.52687384576166], [1.144553359511018, 41.52687577932841], [1.1446731600079552, 41.526877712770435], [1.144675732789933, 41.52678768596947], [1.1446783055602137, 41.526697659166956], [1.1446808783187963, 41.5266076323629], [1.1445610783195421, 41.52660569893912], [1.14456365123232, 41.5265156721396], [1.1444438514106572, 41.526513738597174], [1.144446424477629, 41.52642371180218], [1.1443266248335568, 41.52642177814112], [1.1443291980547206, 41.526331751350675], [1.144209398588239, 41.52632981757097], [1.1442119719635937, 41.52623979078506], [1.1440921726747035, 41.52623785688671], [1.1439723733975136, 41.52623592286364], [1.1439749470929466, 41.52614589608835], [1.1439775207766776, 41.52605586931151], [1.143857721842968, 41.52605393517588], [1.1437379229209617, 41.526052000915534], [1.143618124010658, 41.526050066530466], [1.1436155498292608, 41.52614009328907], [1.1436129756361602, 41.52623012004611], [1.1434931764057827, 41.52622818552416], [1.1433733771871109, 41.52622625087748], [1.1433759517119897, 41.526136224132614], [1.1433785262251637, 41.52604619738619], [1.143258727349975, 41.52604426262695], [1.1432613020173301, 41.525954235885074], [1.1431415033197343, 41.525952301007216], [1.1430217046338462, 41.525950366004636], [1.1430242796212688, 41.52586033927338], [1.1429044811129747, 41.52585840415217], [1.142784682616389, 41.525856468906234], [1.1426648841315123, 41.52585453353558], [1.1425450856583463, 41.5258525980402], [1.1424252871968903, 41.52585066242011], [1.1423054887471458, 41.52584872667531], [1.142185690309114, 41.52584679080577], [1.1420658918827948, 41.525844854811524], [1.1420633155682811, 41.52593488149408], [1.1420607392420539, 41.52602490817509], [1.1420581629041116, 41.52611493485457], [1.1420555865544564, 41.526204961532486], [1.1420530101930868, 41.52629498820886], [1.1420504338200037, 41.5263850148837]]]}, "properties": {"area_ha": 2.3, "dnbr_threshold": 0.35, "part": 25, "fire_id": "2024250994", "burn_year": 2024, "source": "sentinel", "aoi_source": "official", "buffer_m": 500.0, "fire_date": "2024-07-31"}}, {"type": "Feature", "geometry": {"type": "Polygon", "coordinates": [[[1.1424420623560798, 41.537830008981075], [1.142561882922193, 41.53783194503659], [1.1426817035000225, 41.53783388096735], [1.1428015240895677, 41.537835816773324], [1.1427989477104648, 41.53792584330515], [1.1426791269549321, 41.537923907493095], [1.1426765503981267, 41.53801393401729], [1.1426739738296048, 41.538103960539964], [1.142671397249367, 41.53819398706108], [1.1426688206574132, 41.53828401358064], [1.1426662440537425, 41.538374040098674], [1.1427860656392208, 41.53837597594118], [1.142783489189826, 41.53846600246374], [1.142903310953011, 41.53846793818756], [1.1430231327279106, 41.53846987378661], [1.1431429545145242, 41.53847180926087], [1.1432627763128513, 41.538473744610364], [1.1433825981228907, 41.53847567983509], [1.1433851737423273, 41.5383856532821], [1.1433877493500522, 41.538295626727546], [1.1435075708398206, 41.538297561815334], [1.1435101462698438, 41.53820753525315], [1.1435127216881564, 41.538117508689425], [1.143515297094758, 41.538027482124164], [1.1435178724896489, 41.53793745555735], [1.1435204478728291, 41.537847428989004], [1.1435230232442992, 41.537757402419096], [1.1435255986040584, 41.537667375847654], [1.1435281739521077, 41.53757734927468], [1.1435307492884461, 41.53748732270012], [1.1434109292925632, 41.53748538766712], [1.1434135047831748, 41.53739536109713], [1.1434160802620752, 41.537305334525584], [1.1434186557292656, 41.5372153079525], [1.1435384752272002, 41.537217242967245], [1.1436582947368448, 41.537219177857246], [1.1437781142581989, 41.53722111262246], [1.143780689215734, 41.53713108602957], [1.1439005085828151, 41.53713302066394], [1.144020327961604, 41.537134955173535], [1.144017753336032, 41.537224981778586], [1.1441375728925096, 41.537226916169494], [1.1442573924606938, 41.53722885043563], [1.1443772120405833, 41.537230784577005], [1.1443797861682103, 41.537140757953715], [1.144382360284133, 41.53705073132887], [1.1445021795437649, 41.537052665333306], [1.1445047534820023, 41.536962638700835], [1.1445073274085356, 41.536872612066816], [1.1445099013233655, 41.53678258543126], [1.1445124752264917, 41.53669255879416], [1.1445150491179135, 41.53660253215549], [1.1443952306881755, 41.536600598181465], [1.14439780473387, 41.536510571547346], [1.1445176229976324, 41.5365125055153], [1.1446374412730975, 41.536514439358484], [1.1447572595602649, 41.5365163730769], [1.1447598330963287, 41.536426346423], [1.144879651229223, 41.536428280010576], [1.1448822245876094, 41.53633825334904], [1.1448847979342942, 41.53624822668596], [1.144887371269278, 41.53615820002134], [1.144767553634307, 41.53615626645201], [1.1446477360110376, 41.536154332757924], [1.1445279183994708, 41.536152398939066], [1.1445253445665666, 41.53624242558544], [1.1444055268007298, 41.53624049163573], [1.1444029527901471, 41.53633051827449], [1.1442831348700404, 41.536328584193946], [1.1441633169616385, 41.53632664998862], [1.144043499064943, 41.536324715658544], [1.1439236811799534, 41.536322781203694], [1.1438038633066712, 41.53632084662407], [1.1436840454450967, 41.53631891191971], [1.1435642275952314, 41.53631697709057], [1.143444409757075, 41.53631504213666], [1.1434418344069912, 41.536405068725195], [1.143322016414571, 41.53640313364044], [1.1433194408868017, 41.53649316022135], [1.1433168653473216, 41.53658318680071], [1.14331428979613, 41.53667321337852], [1.1431944713174933, 41.536671278150735], [1.1430746528505689, 41.5366693427982], [1.1430720769557112, 41.53675936936231], [1.1429522583345224, 41.536757433878904], [1.1429496822619738, 41.53684746043536], [1.1428298634865204, 41.53684552482111], [1.14282728723628, 41.53693555136995], [1.1428247109743246, 41.53702557791724], [1.142822134700655, 41.53711560446299], [1.1428195584152707, 41.53720563100719], [1.1428169821181717, 41.53729565754985], [1.1428144058093586, 41.53738568409096], [1.1428118294888303, 41.53747571063052], [1.142692009563225, 41.537473774848884], [1.142572189649335, 41.53747183894248], [1.142452369747162, 41.53746990291131], [1.1423325498567058, 41.53746796675537], [1.1423299728605272, 41.53755799326905], [1.1422101528158055, 41.53755605698225], [1.1420903327828018, 41.537554120570675], [1.1420877554429365, 41.53764414707062], [1.1420851780913526, 41.537734173569014], [1.1420826007280478, 41.53782420006588], [1.1422024212590067, 41.53782613649572], [1.1423222418016843, 41.53782807280078], [1.1424420623560798, 41.537830008981075]]]}, "properties": {"area_ha": 2.33, "dnbr_threshold": 0.35, "part": 28, "fire_id": "2024250994", "burn_year": 2024, "source": "sentinel", "aoi_source": "official", "buffer_m": 500.0, "fire_date": "2024-07-31"}}]}
