{"type": "FeatureCollection", "features": [{"type": "Feature", "geometry": {"type": "Polygon", "coordinates": [[[3.1631446129161973, 41.8639158317731], [3.1632651032958226, 41.86391566055609], [3.1633855936744024, 41.86391548921268], [3.1635060840519365, 41.86391531774286], [3.163626574428424, 41.863915146146645], [3.163626804068825, 41.8640052145975], [3.1636270337102728, 41.86409528304692], [3.1637475244239126, 41.86409511132322], [3.1637477542355086, 41.8641851797707], [3.1637479840481535, 41.86427524821676], [3.1636274929963113, 41.86427541994155], [3.163507001943421, 41.86427559153992], [3.163507231418909, 41.86436565998564], [3.1633867401958695, 41.86436583145813], [3.1633869695033012, 41.86445589990297], [3.163387198811778, 41.8645459683464], [3.163387428121301, 41.864636036788404], [3.1633876574318696, 41.86472610522898], [3.163387886743484, 41.864816173668146], [3.163388116056145, 41.86490624210589], [3.1633883453698517, 41.86499631054221], [3.16350883777663, 41.86499613906593], [3.1635090672604913, 41.86508620750031], [3.163388574684604, 41.86508637897713], [3.163388804000403, 41.865176447410626], [3.163509296745399, 41.86517627593325], [3.1635095262313535, 41.86526634436479], [3.163509755718355, 41.86535641279491], [3.163630248800526, 41.865356241190064], [3.1636304784576854, 41.86544630961822], [3.1637509717079206, 41.86544613788642], [3.1637512015352405, 41.86553620631262], [3.1637514313636084, 41.8656262747374], [3.1638719249510214, 41.86562610287812], [3.1638721549495514, 41.86571617130093], [3.163992648705029, 41.865715999314695], [3.164113142459457, 41.86571582720205], [3.1641129121226985, 41.86562575878031], [3.1642334057069617, 41.86562558654178], [3.164353899290173, 41.865625414176854], [3.1644743928723327, 41.86562524168551], [3.1645948864534392, 41.86562506906775], [3.164595117466654, 41.86571513748731], [3.164715611215821, 41.865714964742594], [3.1647153800334924, 41.865624896323574], [3.164835873612491, 41.86562472345298], [3.1648361049639337, 41.865714791871476], [3.1649565987109907, 41.86571461887394], [3.1649563671904337, 41.86562455045598], [3.1650768607673214, 41.86562437733258], [3.1651973543431517, 41.865624204082756], [3.1653178479179243, 41.86562403070653], [3.165318079945823, 41.86571409912284], [3.1654385736886517, 41.86571392561964], [3.1655590674304217, 41.86571375199005], [3.1655588350642945, 41.865623683574825], [3.1655586026992277, 41.86553361515818], [3.165558370335221, 41.865443546740124], [3.165558137972274, 41.86535347832065], [3.1655579056103864, 41.86526340989976], [3.1655576732495585, 41.865173341477444], [3.165557440889791, 41.86508327305372], [3.1654369483318034, 41.865083446679506], [3.1653164557727567, 41.86508362017888], [3.165195963212651, 41.86508379355183], [3.165195731361269, 41.864993725125046], [3.165075238969215, 41.86499389837106], [3.1649547465761043, 41.86499407149066], [3.164834254181937, 41.864994244483846], [3.1648340228389364, 41.86490417605402], [3.1648337914969904, 41.86481410762276], [3.1648335601560995, 41.864724039190094], [3.1648333288162642, 41.86463397075601], [3.164833097477484, 41.86454390232049], [3.164953589026119, 41.864543729330016], [3.16495335751929, 41.86445366089363], [3.1650738488977654, 41.86445348777729], [3.165073617222889, 41.86436341934004], [3.1651941084312045, 41.86436324609784], [3.1653145996384624, 41.86436307272923], [3.1654350908446625, 41.864362899234216], [3.165555582049803, 41.8643627256128], [3.1655553496995736, 41.86427265717631], [3.1654348586635352, 41.86427283079718], [3.165314367626438, 41.86427300429165], [3.1653141356154713, 41.86418293585264], [3.1653139036055635, 41.864092867412204], [3.16519341290561, 41.864093040779174], [3.1650729222045997, 41.86409321401975], [3.16507269053395, 41.864003145576824], [3.1650724588643566, 41.86391307713247], [3.1650722271958207, 41.8638230086867], [3.165192717389533, 41.86382283544776], [3.165313207582188, 41.86382266208242], [3.165433697773785, 41.86382248859068], [3.165433465599012, 41.86373242014513], [3.165312975576513, 41.86373259363633], [3.1653127435718957, 41.8636425251888], [3.1653125115683367, 41.86355245673985], [3.165312279565836, 41.86346238828952], [3.1651917900495676, 41.863462561652675], [3.1651915582172196, 41.86337249320036], [3.1650710688689885, 41.863372666436575], [3.165070837206792, 41.863282597982284], [3.165070605545652, 41.86319252952658], [3.1651910945556962, 41.86319235629145], [3.165190862726521, 41.86310228783489], [3.1650703738855688, 41.863102461069474], [3.165070142226542, 41.863012392610926], [3.1649496535536255, 41.86301256571856], [3.1649494220647463, 41.86292249725807], [3.1648289335598645, 41.86292267023876], [3.164829164879653, 41.86301273869979], [3.1648293962004965, 41.86310280715942], [3.1647089073563768, 41.863102980014794], [3.164709138509183, 41.86319304847355], [3.1647093696630435, 41.86328311693088], [3.1645888804796845, 41.86328328966095], [3.164588649494917, 41.86319322120307], [3.1644681604795974, 41.863193393806185], [3.1643476714632253, 41.863193566282895], [3.164347902109806, 41.86328363474186], [3.1642274129232884, 41.86328380709272], [3.164227182445801, 41.86319373863321], [3.164226951969365, 41.8631036701723], [3.164106463119982, 41.86310384239567], [3.1641066934273256, 41.86319391085713], [3.16410692373572, 41.86328397931716], [3.164107154045164, 41.863374047775785], [3.1641073843556597, 41.86346411623299], [3.1641076146672056, 41.86355418468877], [3.163987124971302, 41.86355435678844], [3.1638666352743487, 41.86355452876171], [3.1637461455763467, 41.86355470060858], [3.1636256558772966, 41.86355487232905], [3.163505166177199, 41.86355504392311], [3.163504936711131, 41.86346497546462], [3.163625426242133, 41.86346480387111], [3.1636251966080167, 41.86337473541175], [3.1635047072461093, 41.86337490700473], [3.1633842178831553, 41.86337507847131], [3.163384447179082, 41.86346514693175], [3.1633846764760545, 41.863555215390775], [3.1632641867738642, 41.86355538673202], [3.163143697070629, 41.86355555794687], [3.163143926030455, 41.863645626405564], [3.163144154991324, 41.863735694862825], [3.1631443839532385, 41.863825763318665], [3.1631446129161973, 41.8639158317731]], [[3.1650713005322415, 41.86346273488943], [3.164950811013859, 41.86346290799978], [3.164950579519701, 41.86337283954638], [3.1650710688689885, 41.863372666436575], [3.1650713005322415, 41.86346273488943]], [[3.1642276434018273, 41.86337387555079], [3.1643481327574388, 41.8633737031994], [3.164348363406124, 41.86346377165552], [3.164227873881417, 41.86346394400746], [3.1642276434018273, 41.86337387555079]]]}, "properties": {"area_ha": 3.85, "dnbr_threshold_core": 0.35, "dnbr_threshold_grow": 0.22, "forest_mask": "esa_worldcover_2021_10_20", "part": 0, "fire_id": "288004", "burn_year": 2025, "source": "sentinel", "aoi_source": "effis", "dnbr_threshold": 0.35, "buffer_m": 1200.0, "post_windows": 2, "post_window_dates": [{"start": "2025-12-04", "end": "2025-12-27"}, {"start": "2025-12-27", "end": "2026-01-26"}], "pre_window": {"start": "2025-09-13", "end": "2025-11-20"}, "fire_date": "2025-11-27", "severity": "moderada", "severity_method": "threshold_proxy"}}]}
