{"type": "FeatureCollection", "features": [{"type": "Feature", "geometry": {"type": "Polygon", "coordinates": [[[3.058609647248594, 42.4443006716274], [3.058609731192974, 42.44439073125573], [3.058731328083649, 42.44439066901847], [3.058852924973939, 42.44439060665221], [3.0588530092670214, 42.44448066627872], [3.0587314122025724, 42.444480728645175], [3.0586098151377383, 42.44448079088265], [3.0586098990828874, 42.44457085050813], [3.058609983028421, 42.44466091013222], [3.0587315804415756, 42.444660847894355], [3.0588531778543446, 42.4446607855275], [3.0588532621485864, 42.44475084514976], [3.0588533464432137, 42.444840904770615], [3.058853430738228, 42.444930964390025], [3.058975028673097, 42.44493090189359], [3.058975113142661, 42.445020961511396], [3.0589751976126123, 42.44511102112777], [3.0590967958954223, 42.445110958501964], [3.0590968805399257, 42.44520101811674], [3.0592184789965136, 42.445200955361734], [3.0593400774527124, 42.44520089247774], [3.059340162445936, 42.4452909520907], [3.0594617610759114, 42.44529088907751], [3.0595833597054964, 42.44529082593533], [3.0597049583346907, 42.445290762664165], [3.0598265569634924, 42.44529069926399], [3.059948155591902, 42.44529063573484], [3.0600697542199176, 42.44529057207669], [3.060191352847539, 42.445290508289546], [3.060312951474765, 42.44529044437341], [3.0603128650882128, 42.445200384762046], [3.060434463540877, 42.44520032071712], [3.060434376980555, 42.44511026110453], [3.0605559752586573, 42.44511019693082], [3.0605558885245676, 42.445020137317016], [3.060555801790876, 42.4449300777018], [3.0604342038611017, 42.44493014187512], [3.06043411730197, 42.444840082258274], [3.060555715057581, 42.44484001808516], [3.060555628324684, 42.44474995846709], [3.0606772259057355, 42.44474989416519], [3.060798823486389, 42.44474982973429], [3.060798736405567, 42.444659770115216], [3.0609203338116595, 42.44465970555553], [3.0610419312173525, 42.44465964086687], [3.061041843788608, 42.44456958124676], [3.0610417563602654, 42.444479521625254], [3.060920159302892, 42.44447958631352], [3.0607985622451195, 42.4444796508728], [3.060798475165495, 42.44438959124946], [3.060676878281482, 42.44438965567955], [3.0606767913764146, 42.44429959605459], [3.0606767044717453, 42.444209536428204], [3.0605551079356497, 42.444209600728904], [3.060555021205535, 42.4441195411009], [3.060433424843198, 42.44411960527241], [3.060433338287637, 42.444029545642785], [3.0605549344758183, 42.44402948147148], [3.060676530663602, 42.44402941717119], [3.0606764437601273, 42.44393935754054], [3.060676356857051, 42.44384929790849], [3.0605547610175767, 42.443849362208375], [3.060554674289052, 42.44375930257469], [3.060554587560925, 42.44366924293958], [3.060432992069359, 42.443669307110085], [3.060311396577396, 42.44366937115159], [3.0601898010850372, 42.44366943506413], [3.0600682055922834, 42.44366949884767], [3.059946610099135, 42.44366956250222], [3.059946524242164, 42.44357950286471], [3.059824928922774, 42.44357956639008], [3.0598248432403476, 42.443489506750936], [3.059703248094716, 42.44348957014712], [3.059581652948692, 42.44348963341434], [3.0594600578022777, 42.44348969655255], [3.0593384626554725, 42.443489759561785], [3.0592168675082783, 42.44348982244204], [3.0590952723606946, 42.443489885193294], [3.058973677212723, 42.44348994781557], [3.0589737616760933, 42.4435800074561], [3.058852166353584, 42.4435800699496], [3.0587305710306887, 42.44358013231409], [3.0586089757074073, 42.44358019454962], [3.058609059648709, 42.443670254189314], [3.058609143590396, 42.44376031382759], [3.058609227532467, 42.44385037346445], [3.058609311474923, 42.44394043309988], [3.0586093954177636, 42.44403049273389], [3.0586094793609893, 42.44412055236648], [3.058609563304599, 42.44421061199765], [3.058609647248594, 42.4443006716274]], [[3.0594603132833695, 42.443759875467514], [3.059460228122615, 42.4436698158306], [3.0595818236173327, 42.44366975269199], [3.0595819089522394, 42.4437598123287], [3.0594603132833695, 42.443759875467514]]]}, "properties": {"area_ha": 2.92, "dnbr_threshold_core": 0.35, "dnbr_threshold_grow": 0.22, "forest_mask": "esa_worldcover_2021_10_20", "part": 0, "fire_id": "288231", "burn_year": 2025, "source": "sentinel", "aoi_source": "effis", "dnbr_threshold": 0.35, "buffer_m": 1200.0, "post_windows": 2, "post_window_dates": [{"start": "2025-11-19", "end": "2025-12-12"}, {"start": "2025-12-12", "end": "2026-01-11"}], "pre_window": {"start": "2025-08-29", "end": "2025-11-05"}, "fire_date": "2025-11-12"}}]}
