{"type": "FeatureCollection", "features": [{"type": "Feature", "geometry": {"type": "Polygon", "coordinates": [[[1.081521568318078, 42.59008607838932], [1.0812779457403685, 42.590081997471835], [1.0812751840905592, 42.59017200425544], [1.0813969955481437, 42.59017404478529], [1.0813942340607319, 42.59026405157372], [1.0812724224280832, 42.59026201103748], [1.0812696607529413, 42.59035201781796], [1.0811478489578947, 42.59034997714591], [1.0811533726456404, 42.590169963596175], [1.0806661269926456, 42.59016179966487], [1.080663364454853, 42.59025180641496], [1.0807851760241607, 42.590253847598305], [1.0807824136487616, 42.590343854353215], [1.080904225405804, 42.590345895413535], [1.0809014631928, 42.59043590217329], [1.081023275137576, 42.59043794311057], [1.0810205130869688, 42.59052794987514], [1.0811423252194794, 42.5905299906894], [1.0811395633312704, 42.59061999745881], [1.081261375651515, 42.59062203815003], [1.0812586139257068, 42.59071204492425], [1.0811368014303944, 42.590710004226636], [1.0811340395168505, 42.59080001099291], [1.081621290274371, 42.5908081730324], [1.081626812688246, 42.590628159447164], [1.0818704374427224, 42.59063223966481], [1.0818787199181548, 42.590362219236894], [1.0820005317891888, 42.5903642591324], [1.0820032924139427, 42.590274252313584], [1.0821251041225723, 42.59027629207329], [1.0821278645596017, 42.590186285246524], [1.082249676105828, 42.59018832487042], [1.0822469158438635, 42.590278331703566], [1.0823687275778149, 42.590280371204436], [1.082371487664715, 42.59019036436488], [1.082736922417326, 42.59019648207177], [1.0827396819663768, 42.590106475211485], [1.0823742477389564, 42.59010035752377], [1.0823852879093308, 42.58974033014368], [1.0825070986055672, 42.58974236947679], [1.0825098584414543, 42.58965236262147], [1.0823880479202774, 42.58965032329474], [1.0823908079185651, 42.589560316444235], [1.0822689975851059, 42.58955827699448], [1.0822745178938205, 42.58937826330157], [1.0823963278771656, 42.58938030273855], [1.082399087837477, 42.58929029588337], [1.082520897658424, 42.589292335184545], [1.0825291769382457, 42.58902231459043], [1.0824073676424635, 42.589020275308414], [1.0824046077201264, 42.589110282168285], [1.0822827982619478, 42.58910824275047], [1.0822800381518978, 42.589198249602404], [1.0819146093281562, 42.58919213055327], [1.0819118486802808, 42.58928213738447], [1.081790038922635, 42.5892800974362], [1.0817927997455647, 42.58919009061139], [1.0816709901756352, 42.5891880505401], [1.081676512133616, 42.58900803689855], [1.0815547029264576, 42.58900599671062], [1.0815464194453288, 42.58927601715141], [1.0814246097256721, 42.58927397681489], [1.0814301324091973, 42.58909396320204], [1.0813083230523137, 42.58909192274888], [1.0813110845501328, 42.5890019159465], [1.0809456570806384, 42.588995793829696], [1.080940133022014, 42.58917580739454], [1.081061942515953, 42.589177848242336], [1.0810591806426928, 42.589267855028815], [1.0811809903243534, 42.58926989575359], [1.0811782286134821, 42.58935990254489], [1.0816654681670015, 42.58936806417538], [1.0816627071436902, 42.589458070990666], [1.0819063273465466, 42.58946215104218], [1.081903566660687, 42.58955215786868], [1.0821471872643056, 42.5895562374153], [1.0821444269159002, 42.58964624425303], [1.0819008059621644, 42.589642164693636], [1.0818952845271352, 42.58982217833883], [1.0820170953477917, 42.58982421819602], [1.0820143347863447, 42.58991422502266], [1.0816489018371795, 42.58990810504368], [1.0816406185013092, 42.59017812545672], [1.081518807018394, 42.59017608518572], [1.081521568318078, 42.59008607838932]], [[1.0822662374117584, 42.5896482838386], [1.082263477225753, 42.58973829068114], [1.082141666554835, 42.589736251089185], [1.0821444269159002, 42.58964624425303], [1.0822662374117584, 42.5896482838386]], [[1.0815105230433546, 42.59044610556551], [1.0815132843810327, 42.590356098773796], [1.0816350962140766, 42.590358139057585], [1.0816323350514634, 42.59044814585568], [1.0815105230433546, 42.59044610556551]]]}, "properties": {"area_ha": 1.23, "dnbr_threshold_core": 0.35, "dnbr_threshold_grow": 0.22, "dnbr_mean": 0.27, "dnbr_max": 0.3941, "severity": "baixa", "severity_method": "dnbr_mean", "forest_mask": "esa_worldcover_2021_10_20", "part": 1, "fire_id": "416895", "burn_year": 2026, "source": "sentinel", "aoi_source": "effis", "dnbr_threshold": 0.35, "buffer_m": 1200.0, "post_windows": 2, "post_window_dates": [{"start": "2026-04-22", "end": "2026-05-15"}, {"start": "2026-05-15", "end": "2026-06-14"}], "pre_window": {"start": "2026-01-30", "end": "2026-04-08"}, "fire_date": "2026-04-15"}}, {"type": "Feature", "geometry": {"type": "MultiPolygon", "coordinates": [[[[1.0845447990729367, 42.59085710178248], [1.084540578898717, 42.59099487500249], [1.0845937158610408, 42.590868731789044], [1.0845968348617787, 42.59085797189429], [1.0845447990729367, 42.59085710178248]]], [[[1.084295658299951, 42.59103304109393], [1.084290143487938, 42.591213054947616], [1.084168329800839, 42.59121101745371], [1.0841655722007877, 42.59130102437182], [1.0839219445143864, 42.59129694898297], [1.083916428576039, 42.59147696278898], [1.0837946144016615, 42.59147492488765], [1.083789098062562, 42.59165493867463], [1.0835454690514534, 42.59165086245816], [1.083548227577483, 42.59156085557821], [1.0830609704074052, 42.59155270161763], [1.0830582111810692, 42.591642708472044], [1.0829363967451096, 42.59164066965194], [1.0829336373310403, 42.59173067649839], [1.0830554519420774, 42.59173271532488], [1.0830499334261277, 42.591912729025886], [1.0831717483999777, 42.5919147677357], [1.0831745074892012, 42.591824760879604], [1.0832963223006264, 42.59182679945361], [1.0833018400909538, 42.59164678572396], [1.0834236545648772, 42.591648824155776], [1.0834208958511182, 42.59173883102776], [1.0835427105127724, 42.59174086933653], [1.0835371933974536, 42.59192088308861], [1.0832935633864822, 42.59191680631611], [1.0832880455202316, 42.59209682003638], [1.0831662301835658, 42.592094781443215], [1.0831607119165345, 42.59227479514447], [1.0829170805808412, 42.592270717544295], [1.0829143210781775, 42.59236072437981], [1.0827925052542318, 42.59235868537919], [1.0827858346415848, 42.59257624526087], [1.0829805628908515, 42.592495161339926], [1.0832720973061787, 42.59234442485112], [1.083542414071084, 42.59217345847005], [1.0837889517349235, 42.59198388233536], [1.0840093742489922, 42.591777492924834], [1.0840341736943733, 42.591751792274955], [1.0842142382811109, 42.59154603861249], [1.0843683247416969, 42.591329073910174], [1.084495165149552, 42.591102683879846], [1.0845229007381398, 42.59103684164653], [1.084295658299951, 42.59103304109393]]], [[[1.0822969608748343, 42.592620548483744], [1.0822932033046913, 42.592743067885536], [1.0823450663691905, 42.59273043611006], [1.082663098901328, 42.59262667804969], [1.0822969608748343, 42.592620548483744]]], [[[1.0821723839851236, 42.59270851560773], [1.0820505675367975, 42.59270647580497], [1.082047610363661, 42.592802884537704], [1.0821704069013856, 42.59277297619525], [1.0821723839851236, 42.59270851560773]]], [[[1.081192328706123, 42.592872207036415], [1.081070512008947, 42.59287016618539], [1.081068816653679, 42.592925409256225], [1.0811909929358448, 42.59291573570947], [1.081192328706123, 42.592872207036415]]], [[[1.080835166279861, 42.59259606393783], [1.080713350145953, 42.5925940227177], [1.0807105874411198, 42.59268402943194], [1.0805887711447983, 42.59268198807598], [1.0805860082522072, 42.59277199478226], [1.0803423753474104, 42.59276791166925], [1.0803396120919748, 42.59285791836118], [1.080583245346945, 42.59286200148699], [1.0805807583161173, 42.59294302033015], [1.0808245265721481, 42.59294271670672], [1.080835166279861, 42.59259606393783]]], [[[1.0797305291763584, 42.592847708281575], [1.0798523457341285, 42.59284975055636], [1.0798606375634399, 42.59257973055261], [1.0799824536086318, 42.592581772678784], [1.0799796898532892, 42.59267177935466], [1.0801015060862416, 42.59267382135779], [1.0801097967889883, 42.59240380130628], [1.0803534282424143, 42.59240788488587], [1.080358954613875, 42.5922278714848], [1.0798716931583774, 42.592219703859044], [1.0798744570254197, 42.59212969718174], [1.0797526418683159, 42.59212765495812], [1.0797471137713925, 42.59230766829836], [1.0796252982768046, 42.59230562593253], [1.0796280625066859, 42.592215619269574], [1.0793844319057078, 42.592211534162395], [1.0793871964730712, 42.59212152751068], [1.079265381366682, 42.59211948476934], [1.079268146096446, 42.592029478122456], [1.0791463311778164, 42.592027435258075], [1.0791435662729734, 42.592117441898566], [1.0790217511919462, 42.59211539889837], [1.0790272813391084, 42.59193538562863], [1.0791490960699779, 42.59193742861603], [1.079151860949458, 42.591847421972425], [1.079517304692918, 42.591853550138865], [1.0795255976795852, 42.59158353014105], [1.080012854080781, 42.591591699140885], [1.0800100904648735, 42.59168170583396], [1.0801319047719389, 42.59168374776675], [1.0801291413184326, 42.59177375446466], [1.0802509558132494, 42.59177579627441], [1.0802537190916792, 42.59168578957011], [1.0803755334240928, 42.59168783124402], [1.0803782965147728, 42.59159782453176], [1.0805001106847838, 42.591599866069856], [1.0805028735877162, 42.591509859349635], [1.0806246875953236, 42.59151190075192], [1.0806302130130232, 42.59133188729397], [1.0803865857107755, 42.59132780438556], [1.0803921117780795, 42.59114779094694], [1.0808793650326791, 42.59115595619492], [1.0808848896487246, 42.59097594269889], [1.0811285156517607, 42.59098002452076], [1.0811340395168505, 42.59080001099291], [1.0808904142140932, 42.59079592919662], [1.0808876519377435, 42.590885935948535], [1.0807658391302994, 42.59088389484986], [1.080768601581718, 42.590793888104336], [1.0806467889620124, 42.59079184688262], [1.080644026335525, 42.59088185362176], [1.0804004007839898, 42.59087777077728], [1.0803976377946922, 42.59096777750206], [1.0805194507391933, 42.59096981899542], [1.0805166879122936, 42.591059825725026], [1.0801512485915972, 42.59105370083754], [1.0801484852268122, 42.591143707546394], [1.0800266719701894, 42.59114166565198], [1.0800239084176584, 42.59123167235288], [1.0797802815922959, 42.591227588162994], [1.0797830454949702, 42.59113758147489], [1.0796612322763757, 42.5911355391922], [1.0796639963414443, 42.59104553250891], [1.07929855728694, 42.59103940490348], [1.079306850981704, 42.59076938490182], [1.0795504759549472, 42.59077347006315], [1.0795560043211232, 42.59059345669529], [1.07979962864481, 42.59059754131334], [1.0798079200485986, 42.59032752121144], [1.079564296775303, 42.59032343663177], [1.0795615326365875, 42.590413443321175], [1.0793179090638738, 42.590409358211026], [1.0793151445623506, 42.59049936488607], [1.078949708773183, 42.59049323623097], [1.078952473799901, 42.59040322957514], [1.0788306620706056, 42.590401186437646], [1.0788334272597053, 42.59031117978663], [1.0787116157181569, 42.59030913652614], [1.0787060849771462, 42.59048914981381], [1.0784624612318425, 42.59048506287893], [1.0784652269588189, 42.59039505624869], [1.0782216036143841, 42.59039096880893], [1.0782271357305344, 42.59021095556934], [1.077983513137099, 42.590206867637505], [1.0779807467352416, 42.59029687424528], [1.0777371238424331, 42.59029278578294], [1.077731590300399, 42.5904727989682], [1.0776097785229015, 42.59047075453009], [1.077615312415063, 42.59029074135765], [1.0774935010003834, 42.590288696802936], [1.077490733885585, 42.590378703383536], [1.0772471107441743, 42.590374613873024], [1.0772526456613305, 42.59019460073588], [1.0770090232709424, 42.590190510733294], [1.0770034876535355, 42.590370523844825], [1.076881676127258, 42.5903684786366], [1.0768789081244494, 42.5904584851836], [1.0770007198257907, 42.59046053039824], [1.076997951985351, 42.5905505369501], [1.0771197638744512, 42.590552582041724], [1.077116996196382, 42.59064258859841], [1.077360620362795, 42.590646678406195], [1.0773578530221644, 42.590736684974125], [1.0772360407575452, 42.59073464012854], [1.0772332732291547, 42.59082464668851], [1.0771114608021612, 42.590822601707096], [1.077105925357164, 42.59100261480954], [1.0772277381342938, 42.59100465980376], [1.077224970567823, 42.591094666359034], [1.0773467835327157, 42.59109671123022], [1.0773440161286219, 42.59118671779033], [1.0774658292812773, 42.59118876253852], [1.0774630620395615, 42.59127876910347], [1.0770976220944615, 42.591272634451435], [1.0771003898613902, 42.5911826279057], [1.0769785767468154, 42.59118058276924], [1.0769813446761198, 42.59109057622835], [1.0768595317493108, 42.59108853096887], [1.0768622998409894, 42.59099852443282], [1.076496861661948, 42.59099238789707], [1.0764996302661352, 42.59090238137866], [1.0761341927265828, 42.59089624369729], [1.0761286544550983, 42.591076256694095], [1.0762504673057198, 42.591078302730125], [1.0762406925372596, 42.59139603080438], [1.076350654280407, 42.591477607100394], [1.0763962544812316, 42.59150800807084], [1.0766938453554977, 42.591686414501375], [1.0767188965705068, 42.59169845554424], [1.0767238773110064, 42.59153651820477], [1.0768456911004778, 42.59153856362568], [1.0768484592556367, 42.59144855709745], [1.077457527518054, 42.59145878222867], [1.0774519929457773, 42.59163879534763], [1.077573806986489, 42.5916408399984], [1.0775682727135947, 42.5918208531239], [1.0773246439445618, 42.59181676366731], [1.077330178917759, 42.59163675056743], [1.077208364902433, 42.591634705657796], [1.0772055972471064, 42.591724712202115], [1.0767578840947445, 42.59171719517225], [1.0770150812973367, 42.591840818818426], [1.0770700826023876, 42.591864319715484], [1.0775017594797445, 42.59202171149652], [1.0775697616684057, 42.592042512363015], [1.0777912668704195, 42.592100836152866], [1.0780338946109098, 42.59221066573506], [1.0780752956594035, 42.59222746638643], [1.0781929011991562, 42.592269916839605], [1.078325355745549, 42.59235038645054], [1.0783717563753068, 42.59237618734579], [1.0787323526687114, 42.592553003620395], [1.0787735536391108, 42.59257070429491], [1.07908086822844, 42.59268870841852], [1.0794019192430002, 42.59278469255865], [1.0794382205133277, 42.592794092963764], [1.0797302079703974, 42.59285816738946], [1.0797305291763584, 42.592847708281575]], [[1.0794037836109804, 42.591581487567524], [1.0794093125555144, 42.59140147424062], [1.07953112627397, 42.59140351680136], [1.0795255976795852, 42.59158353014105], [1.0794037836109804, 42.591581487567524]], [[1.0770948543148384, 42.59136264099561], [1.0769730408501217, 42.59136059584634], [1.0769758088048158, 42.591270589308586], [1.0770976220944615, 42.591272634451435], [1.0770948543148384, 42.59136264099561]], [[1.0795007183772523, 42.59239359009224], [1.0793789027329395, 42.59239154746114], [1.079381667325664, 42.59230154081254], [1.0795034827948944, 42.59230358343725], [1.0795007183772523, 42.59239359009224]], [[1.0786673683694923, 42.591749242652234], [1.0789109970675088, 42.5917533292486], [1.078905466620921, 42.591933342511794], [1.0787836519154164, 42.59193129926553], [1.078780886498019, 42.59202130588839], [1.0786590716301205, 42.5920192625063], [1.0786673683694923, 42.591749242652234]], [[1.0779364825798932, 42.59173697975689], [1.0780582968464418, 42.59173902389635], [1.0780555304039532, 42.59182903048393], [1.0779337159623288, 42.59182698633807], [1.0779364825798932, 42.59173697975689]], [[1.0780610632762415, 42.591649017307205], [1.0781828773804023, 42.59165106131085], [1.0781801111256781, 42.59174106790638], [1.0780582968464418, 42.59173902389635], [1.0780610632762415, 42.591649017307205]], [[1.0781856436224393, 42.59156105471374], [1.078063829693353, 42.5915590107165], [1.0780665960977762, 42.59146900412423], [1.0781884098517884, 42.59147104811506], [1.0781856436224393, 42.59156105471374]], [[1.0763695113643874, 42.59117035514558], [1.0764913244154781, 42.59117240092916], [1.0764940930450624, 42.591082394413895], [1.0767377188351976, 42.59108648557997], [1.0767321822636124, 42.59126649863458], [1.0763667425470342, 42.591260361652886], [1.0763695113643874, 42.59117035514558]], [[1.0807603141894522, 42.59106390833623], [1.0806385010445372, 42.59106186709535], [1.0806412636963671, 42.59097186035933], [1.0807630766662109, 42.59097390159382], [1.0807603141894522, 42.59106390833623]], [[1.0783351175360787, 42.590663032460384], [1.0782133053450085, 42.590660988656595], [1.078216071447487, 42.59057098204226], [1.0783378834634916, 42.59057302583967], [1.0783351175360787, 42.590663032460384]], [[1.0788223664272096, 42.59067120638132], [1.078700554185401, 42.590669163095214], [1.0787033195876152, 42.59057915645529], [1.0788251316543578, 42.59058119973499], [1.0788223664272096, 42.59067120638132]]]]}, "properties": {"area_ha": 6.033, "dnbr_threshold_core": 0.35, "dnbr_threshold_grow": 0.22, "dnbr_mean": 0.3318, "dnbr_max": 1.0203, "severity": "moderada", "severity_method": "dnbr_mean", "forest_mask": "esa_worldcover_2021_10_20", "part": 11, "fire_id": "416895", "burn_year": 2026, "source": "sentinel", "aoi_source": "effis", "dnbr_threshold": 0.35, "buffer_m": 1200.0, "post_windows": 2, "post_window_dates": [{"start": "2026-04-22", "end": "2026-05-15"}, {"start": "2026-05-15", "end": "2026-06-14"}], "pre_window": {"start": "2026-01-30", "end": "2026-04-08"}, "fire_date": "2026-04-15"}}]}
