{"type": "FeatureCollection", "features": [{"type": "Feature", "geometry": {"type": "Polygon", "coordinates": [[[2.163334901882686, 41.444766090820515], [2.1634546013343745, 41.44476696134255], [2.1634511307290256, 41.44503715870452], [2.1638102306050224, 41.44503976954812], [2.1638136997209902, 41.44476957216148], [2.1636940002535274, 41.44476870201303], [2.1636951567804887, 41.44467863621735], [2.1635754574837684, 41.4446777659471], [2.1635823975280286, 41.44413737115913], [2.1634626992294623, 41.4441365007808], [2.1634638560505826, 41.444046434980514], [2.1632244598001864, 41.444044693855744], [2.163225616947006, 41.44395462805949], [2.162986221048609, 41.443952886442105], [2.162987378521126, 41.44386282064987], [2.162867680745298, 41.44386194965713], [2.1628665231073025, 41.44395201544663], [2.1626271272404773, 41.44395027308209], [2.1626248112867827, 41.44413040464575], [2.162385414779095, 41.444128661772154], [2.162383098142421, 41.44430879331908], [2.1622633995655134, 41.444307921690005], [2.1622599240745624, 41.444578118991366], [2.1624993222265387, 41.44457986214146], [2.162497005868179, 41.444759993679455], [2.162377306458588, 41.444759122161194], [2.1623749897481956, 41.44493925368794], [2.162614389234586, 41.44494099661091], [2.1626097570745193, 41.44530125966906], [2.1627294574875653, 41.445302130954715], [2.1627306153699886, 41.4452120651896], [2.1629700158808904, 41.44521380738185], [2.1629711734270725, 41.44512374160981], [2.163210573628044, 41.445125483298455], [2.1632117308379883, 41.445035417519485], [2.16309203090036, 41.44503454674016], [2.16309318827053, 41.444944480962505], [2.162973488503651, 41.4449436100614], [2.162974646034047, 41.44485354428504], [2.162854946437916, 41.44485267326215], [2.162856104128536, 41.44476260748707], [2.163215202436257, 41.44476522017394], [2.1632163596251592, 41.4446751543892], [2.1633360589061033, 41.444676025033026], [2.163334901882686, 41.444766090820515]], [[2.162736404703153, 41.4447617363424], [2.162737562553996, 41.44467167056863], [2.1628572618138935, 41.444672541710574], [2.162856104128536, 41.44476260748707], [2.162736404703153, 41.4447617363424]], [[2.1629839060877907, 41.44413301802222], [2.1629850635708308, 41.44404295223288], [2.163104761682878, 41.44404382310657], [2.163103604365318, 41.44413388889864], [2.1629839060877907, 41.44413301802222]]]}, "properties": {"area_ha": 1.13, "dnbr_threshold_core": 0.35, "dnbr_threshold_grow": 0.22, "dnbr_mean": 0.4802, "dnbr_max": 0.7196, "severity": "alta", "severity_method": "dnbr_mean", "forest_mask": "esa_worldcover_2021_10_20", "part": 0, "fire_id": "662771", "burn_year": 2026, "source": "sentinel", "aoi_source": "effis", "dnbr_threshold": 0.35, "buffer_m": 1200.0, "post_windows": 1, "post_window_dates": [{"start": "2026-09-01", "end": "2026-09-23"}], "pre_window": {"start": "2026-06-11", "end": "2026-08-18"}, "fire_date": "2026-08-25"}}, {"type": "Feature", "geometry": {"type": "Polygon", "coordinates": [[[2.159931039343005, 41.44879462112976], [2.1599205820534633, 41.44960521187639], [2.1600402902948743, 41.44960608603378], [2.1600391285129295, 41.44969615166784], [2.1599194201059926, 41.44969527750769], [2.1599170961952043, 41.449875408766], [2.1597973874624956, 41.4498745344758], [2.159795063199522, 41.45005466572282], [2.160034481332335, 41.45005641418966], [2.160032157710348, 41.45023654544191], [2.160510995363587, 41.450240040902955], [2.160509834206796, 41.450330106537926], [2.160629543798835, 41.45033098009455], [2.1606283828022974, 41.450421045730835], [2.1607480925651465, 41.450421919165656], [2.160746931728863, 41.45051198480324], [2.161106061545669, 41.45051460436866], [2.161107221885354, 41.45042453872282], [2.1619451904837588, 41.450430646663506], [2.161946349659443, 41.450340580997015], [2.1621857689753603, 41.450342324996456], [2.162186927814712, 41.450252259323044], [2.1626657658476316, 41.45025574581633], [2.1626669240195917, 41.450165680130496], [2.1630260521029747, 41.450168293684435], [2.163027209773079, 41.45007822798893], [2.1633863374072364, 41.450080840413676], [2.1633874945754887, 41.44999077470851], [2.163507203631867, 41.449991645264916], [2.163506046629144, 41.450081710972825], [2.163625755856311, 41.450082581407415], [2.1636234421661467, 41.45026271282438], [2.163743151729635, 41.450263583139915], [2.163741995042196, 41.45035364884897], [2.1636222853131764, 41.45035277853071], [2.1636199715914577, 41.450532909939035], [2.1635002615366306, 41.45053203949074], [2.1634991045023484, 41.45062210518999], [2.1633793942872472, 41.45062123461442], [2.163375922656234, 41.450891431695325], [2.163016790552678, 41.45088881919657], [2.1630156328352075, 41.4509788848791], [2.163135343696668, 41.45097975583932], [2.163134186139472, 41.45106982152315], [2.163253897171733, 41.45107069236155], [2.163251582372633, 41.45125082373036], [2.163371293741233, 41.451251694449674], [2.1633701364993305, 41.451341760134675], [2.163968694248931, 41.45134611187663], [2.163969850663132, 41.45125604617794], [2.1640895620632863, 41.451256916149916], [2.1640907183066913, 41.45116685044706], [2.1643301407916886, 41.451168590011875], [2.164327828961782, 41.45134872142712], [2.164567252129959, 41.451350460504656], [2.164568407716459, 41.45126039479227], [2.164927542011501, 41.45126300246619], [2.1649263869216226, 41.451353068186776], [2.165046098529347, 41.45135393716504], [2.1650449435997587, 41.45144400288691], [2.1651646553782746, 41.45144487174335], [2.165163500608978, 41.45153493746651], [2.165283212558286, 41.451535806201115], [2.1652809033350304, 41.45171593764859], [2.165041478779492, 41.45171420004387], [2.165040323828902, 41.45180426575997], [2.1643220492950563, 41.45179904993998], [2.1643197373915815, 41.45197918133503], [2.1644394501318467, 41.45198005095523], [2.164438294337773, 41.45207011665333], [2.1643185814319614, 41.452069247030394], [2.1643162694969558, 41.452249378416795], [2.164076843038909, 41.45224763878628], [2.1640745304206868, 41.45242777015598], [2.1639548168684506, 41.45242690014839], [2.1639513474050394, 41.452697097183915], [2.1640710614539285, 41.452697967199704], [2.1640675924398587, 41.45296816423045], [2.164187306990664, 41.452969034129886], [2.164186150807682, 41.45305909980666], [2.1647847244683076, 41.45306344744908], [2.164785879823516, 41.452973381758625], [2.165025308993429, 41.452975119938166], [2.1650276190258753, 41.452794988542], [2.1651473332876003, 41.452795857439455], [2.165149642967939, 41.452615726032036], [2.16526935690381, 41.45261659479946], [2.165270511570553, 41.45252652909087], [2.1653902253461226, 41.45252739773099], [2.165391379842066, 41.45243733201821], [2.1655110934573334, 41.45243820053104], [2.1655134021023765, 41.452258069095706], [2.165633115391793, 41.452258937478504], [2.1656342695408957, 41.45216887175593], [2.1657539826700103, 41.45216974001144], [2.165755136648318, 41.452079674284704], [2.1661142755704943, 41.45208227829566], [2.166115429046916, 41.4519922125593], [2.1662351418659163, 41.451993080311105], [2.166236295171548, 41.451903014570554], [2.1664757204941854, 41.451904749695025], [2.166476873463483, 41.45181468394756], [2.1667162984759956, 41.45181641856833], [2.1667151458377885, 41.451906484321235], [2.1670742838924917, 41.45190908532638], [2.1670731317456826, 41.45199915108603], [2.1671928446066064, 41.45200001784134], [2.1671916926201074, 41.45209008360229], [2.167550831730939, 41.45209268312907], [2.16755313470542, 41.45191255158939], [2.167672847421741, 41.45191341784374], [2.167675150044193, 41.45173328629283], [2.1679145748303545, 41.451735018416954], [2.167916876769696, 41.45155488684939], [2.1681563009146116, 41.451556618464366], [2.1681586021708545, 41.451376486880136], [2.1680388904268653, 41.45137562114037], [2.1680423427686195, 41.45110542376137], [2.1682817652685857, 41.451107155100004], [2.168279464374808, 41.451287286698324], [2.168399175963717, 41.45128815218625], [2.1683968753801026, 41.45146828378427], [2.168516587305324, 41.45146914915309], [2.1685154371712154, 41.451559214952646], [2.1687548613684284, 41.45156094532205], [2.1687537115601785, 41.451651011125634], [2.16887342383217, 41.45165187612621], [2.1688722741842374, 41.45174194193106], [2.169111699074987, 41.451743671564], [2.169110549752918, 41.45183373737286], [2.169230262371676, 41.451834602005206], [2.1692291132099286, 41.451924667815355], [2.169588251594182, 41.4519272609732], [2.169585954248298, 41.452107392605456], [2.1704239463119497, 41.452113438985556], [2.1704250938286687, 41.452023373151114], [2.1705448068359448, 41.45202423641873], [2.1705436594847725, 41.4521143022559], [2.171142225427113, 41.452118616739185], [2.1711445184687657, 41.451938485036266], [2.171264231341778, 41.45193934755382], [2.171268816700356, 41.4515790841198], [2.171388528916399, 41.45157994650194], [2.171391967383986, 41.45130974890316], [2.171272255664572, 41.45130888652917], [2.171275694581886, 41.451038688925586], [2.171395405804679, 41.45103955129142], [2.1713965519344893, 41.450949485417965], [2.171516262996954, 41.45095034765653], [2.1715174089560154, 41.450860281778915], [2.1716371198581514, 41.45086114389022], [2.171639411429572, 41.450681012125244], [2.1715197008585103, 41.45068015001936], [2.1715208468019433, 41.45059008413743], [2.1714011364016272, 41.45058922190971], [2.1714034286039348, 41.45040909014693], [2.171283718539898, 41.45040822780008], [2.17128944978215, 41.44995789838151], [2.171409159018525, 41.449958760714786], [2.1714125972047587, 41.4496885630382], [2.1712928884649707, 41.44968770071307], [2.1712963271008956, 41.44941750303166], [2.1711766188628987, 41.44941664059013], [2.171177765229978, 41.449326574696144], [2.1708186410438355, 41.44932398663238], [2.170819787902277, 41.449233920745115], [2.170580372135298, 41.44923219475196], [2.1705826664986336, 41.44905206298397], [2.1704629589540123, 41.449051199806], [2.1704641062933803, 41.44896113392255], [2.1703443989194975, 41.448960270622756], [2.1703455464191705, 41.44887020474059], [2.170225839216026, 41.44886934131897], [2.170226986876003, 41.44877927543807], [2.169628451766155, 41.4487749564753], [2.169627303278576, 41.4488650223426], [2.1697470104556262, 41.448865886386976], [2.1697458621283467, 41.44895595225554], [2.1696261547857745, 41.44895508820846], [2.1696250062877525, 41.44904515407287], [2.169505298784879, 41.44904428989851], [2.1695064474484234, 41.44895422403681], [2.169267032789387, 41.448952495319915], [2.169264734794988, 41.449132627030984], [2.1693844424529387, 41.44913349145715], [2.169383293613428, 41.44922355731323], [2.1695030014421257, 41.44922442161757], [2.169501852762916, 41.44931448747494], [2.1692624367796953, 41.44931275873627], [2.169261287764214, 41.44940282458676], [2.168902163331985, 41.44940023053648], [2.1689044623508713, 41.44922009885039], [2.1690241701586737, 41.44922096365292], [2.1690264688256113, 41.44904083195562], [2.169146176307593, 41.44904169662817], [2.1691553694422, 41.44832116975958], [2.1690356632843724, 41.4483203051088], [2.1690368125682067, 41.44823023924646], [2.1687974005992574, 41.44822850957673], [2.1687951013643, 41.44840864128907], [2.168675395056632, 41.448407776261945], [2.1686742452657968, 41.44849784211323], [2.168554538797838, 41.44849697695883], [2.16855223886945, 41.448677108651644], [2.168193118503834, 41.448674512424844], [2.168195419425332, 41.448494380748365], [2.167956006536476, 41.44849264931866], [2.1679548557473063, 41.448582715152185], [2.1678351491452075, 41.44858184924779], [2.1678328472201356, 41.44876198090501], [2.1677131402922307, 41.44876111487063], [2.1677177447835185, 41.448400851561296], [2.1678374510493503, 41.44840171758477], [2.167842054794851, 41.44804145424148], [2.167961760403854, 41.44804232012952], [2.1679663634035933, 41.44768205675228], [2.167846658456639, 41.44768119087513], [2.1678478093590057, 41.44759112502994], [2.1673689902855564, 41.44758766028685], [2.1673701418447293, 41.447497594451136], [2.1672504372549617, 41.44749672795674], [2.1672515889744086, 41.44740666212229], [2.1670121801415982, 41.44740492876533], [2.1670133321868255, 41.447314862934896], [2.166893627943783, 41.44731399607234], [2.1668924757330483, 41.44740406190004], [2.166533362538829, 41.44740146055693], [2.166534515246087, 41.44731139473742], [2.1662951068071554, 41.447309659891424], [2.1663054839157514, 41.44649906750011], [2.1660660784768564, 41.44649733220512], [2.166070691712837, 41.44613706890445], [2.1659509896632496, 41.446136201081075], [2.1659521431246342, 41.44604613525504], [2.1655930375038266, 41.446043531045916], [2.165594191456458, 41.44595346522663], [2.16499568302085, 41.44594912240106], [2.1649979925653247, 41.44576899078551], [2.1648782912249387, 41.44576812185227], [2.1648759813494745, 41.44594825346234], [2.1646365780224732, 41.44594651521131], [2.164642354326697, 41.44549618620264], [2.1647620551601032, 41.445497055376755], [2.1647609000752537, 41.4455871211841], [2.164880601079403, 41.44558799023641], [2.1648829109128664, 41.44540785861481], [2.164763210239701, 41.44540698956796], [2.1647643653140487, 41.44531692375773], [2.164524964314453, 41.445315185295925], [2.1645272751093545, 41.44513505368208], [2.164407574948413, 41.445134184269854], [2.1644087305034745, 41.4450441184635], [2.164289030513275, 41.44504324892949], [2.164287874792726, 41.4451333147331], [2.1640484744971125, 41.445131575286], [2.164049630548638, 41.44504150948786], [2.163929930574202, 41.44504063958025], [2.163928774357188, 41.445130705375654], [2.16380907422252, 41.44512983534078], [2.163806761441744, 41.44530996692178], [2.163447660076346, 41.44530735605353], [2.1634465031816017, 41.44539742183366], [2.1633268025714956, 41.44539655129245], [2.163325645506001, 41.44548661706838], [2.163684747848569, 41.44548922832666], [2.16368359127429, 41.445579294109365], [2.1638032922311545, 41.44558016428246], [2.1638009793978106, 41.445760295849055], [2.1639206806909184, 41.4457611659031], [2.1639195244318556, 41.445851231686966], [2.1640392258957135, 41.44585210161922], [2.164035757583475, 41.44612229897039], [2.163916055623129, 41.44612142902992], [2.1639148993430415, 41.44621149480804], [2.164034601468884, 41.446212364751226], [2.1640334453490384, 41.44630243053063], [2.1639137430576967, 41.44630156058469], [2.1639125867670965, 41.44639162635991], [2.164391396625988, 41.44639510540741], [2.1643925522545926, 41.44630503962124], [2.164272849947487, 41.4463041700489], [2.1642740057363365, 41.44621410426402], [2.164752814334284, 41.4462175817952], [2.164751659207427, 41.44630764759102], [2.164871361535542, 41.44630851666522], [2.164870206568933, 41.44639858246232], [2.1657081241711973, 41.44640466251381], [2.1657058165392327, 41.44658479414198], [2.165825519405829, 41.44658566222808], [2.165822058415051, 41.446855859667735], [2.165702355051948, 41.44685499157343], [2.165701201212362, 41.446945057381036], [2.1655814976890007, 41.44694418915946], [2.1655803436786654, 41.44703425496289], [2.165700047367532, 41.44703512318719], [2.1656988935174555, 41.44712518899192], [2.1654594858139586, 41.4471234524133], [2.1654583316276255, 41.447213518211115], [2.1647401076500454, 41.44720830546994], [2.1647389524654255, 41.44729837124991], [2.164619248322031, 41.447297502021094], [2.164623869691025, 41.44693723890353], [2.164384462744037, 41.446935500094156], [2.1643833070786576, 41.44702556587024], [2.163784788975615, 41.44702121665372], [2.163783632477458, 41.44711128241467], [2.1635442249420267, 41.447109541850814], [2.163547695413751, 41.44683934458008], [2.1637871019561574, 41.446841085127495], [2.163788258438543, 41.44675101936222], [2.1636685553302133, 41.44675014915352], [2.1636697119728434, 41.44666008338954], [2.1635500090352733, 41.44665921305905], [2.1635511658381468, 41.44656914729635], [2.163790571387542, 41.44657088782734], [2.163794040771612, 41.44630069051422], [2.163554636215214, 41.446298949999665], [2.1635534794281166, 41.44638901576666], [2.1634337769923064, 41.44638814531985], [2.1634349339449024, 41.44629807955559], [2.1633152316798503, 41.446297208986984], [2.1633163887926847, 41.44620714322401], [2.163555792997052, 41.446208884231226], [2.1635569497736324, 41.44611881846133], [2.1634372478343162, 41.446117948022724], [2.163438404771134, 41.446027882254135], [2.1631990012392732, 41.446026141008815], [2.1632036302579096, 41.44566587794197], [2.1630839291618478, 41.44566500714346], [2.1630816143320635, 41.445845138674294], [2.162961912910276, 41.44584426774578], [2.1629630704932934, 41.445754201983824], [2.162723667996494, 41.44575245975869], [2.1627259838087136, 41.445572328241425], [2.1624865819949406, 41.44557058552912], [2.162487740224138, 41.4454805197738], [2.162368039490641, 41.445479648233594], [2.1623691978800643, 41.4453895824796], [2.162488898448071, 41.44539045401706], [2.162491214880141, 41.445210322499236], [2.162251814411354, 41.44520857931074], [2.162249497317324, 41.445388710817596], [2.16212979675985, 41.44538783903107], [2.162128638039444, 41.445477904779594], [2.1608119304346434, 41.44546830687852], [2.1608107698885637, 41.445558372595386], [2.1606910690633656, 41.445557499309], [2.1606899083465176, 41.44564756502168], [2.1605702073611037, 41.445646691608005], [2.160569046473487, 41.445736757316496], [2.160329644187506, 41.44573501011005], [2.1603273217344645, 41.4459151415117], [2.160207620268404, 41.44591426771618], [2.16020645886847, 41.44600433341209], [2.1603261605000257, 41.446005207210355], [2.160321515509482, 41.44636546999061], [2.1602018132159384, 41.44636459618134], [2.1602006517896064, 41.44645466187005], [2.159841544444162, 41.44645203968676], [2.159839220582659, 41.44663217104335], [2.159599815050106, 41.44663042228747], [2.159602139573608, 41.4464502909419], [2.159482437146255, 41.44644941638265], [2.1594812747216467, 41.4465394820534], [2.1593615721340798, 41.446538607366875], [2.159359246938009, 41.446718738698564], [2.159239544024726, 41.446717863881986], [2.1592372184765107, 41.446897995202406], [2.159356921720798, 41.44689887002447], [2.159355759104265, 41.446988935685276], [2.15947546251934, 41.44698981038556], [2.159477787416116, 41.446809679057026], [2.1595974905054702, 41.44681055362727], [2.1595986527804296, 41.44672048795808], [2.1598380586439854, 41.44672223671947], [2.15983573475079, 41.446902368067406], [2.159716031485367, 41.446901493743475], [2.1597148693653434, 41.44699155941254], [2.1595951659397, 41.44699068496131], [2.1595940036488894, 41.447080750626185], [2.159474300063026, 41.447079876047674], [2.1594696501849238, 41.447440138681685], [2.1595893544328106, 41.4474410132712], [2.1595858674652715, 41.44771121023983], [2.1597055722149676, 41.447712084713075], [2.159703247874543, 41.44789221602379], [2.1598229529605426, 41.44789309037799], [2.1598206289300097, 41.448073221688425], [2.159940334352315, 41.448074095923594], [2.1599322012376554, 41.44870455548402], [2.16005190782385, 41.448705429613895], [2.160050746094718, 41.44879549526236], [2.159931039343005, 41.44879462112976]], [[2.1655918835459507, 41.446133596863746], [2.1654721815173414, 41.44613272854223], [2.1654733356407148, 41.44604266272713], [2.1655930375038266, 41.446043531045916], [2.1655918835459507, 41.446133596863746]], [[2.1599426580518246, 41.44789396460764], [2.160062363148388, 41.44789483871274], [2.16006352482471, 41.44780477304985], [2.160183229761044, 41.44780564702767], [2.160182068250233, 41.44789571269331], [2.1603017733573573, 41.44789658654934], [2.160300612006778, 41.44798665221629], [2.160180906734142, 41.44798577835751], [2.160179745212771, 41.44807584402027], [2.159940334352315, 41.448074095923594], [2.1599426580518246, 41.44789396460764]], [[2.170190259168847, 41.45166138291173], [2.170189111341905, 41.4517514487465], [2.169590548919179, 41.45174712933516], [2.169591697573844, 41.45165706351398], [2.1693522729723904, 41.45165533488296], [2.16935457092823, 41.451475203247156], [2.1701925548070777, 41.45148125123786], [2.1701914069905714, 41.45157131707551], [2.170311119159685, 41.451572180578665], [2.1703099715035052, 41.451662246417605], [2.170190259168847, 41.45166138291173]], [[2.170193702618366, 41.45139118539876], [2.1703134144563943, 41.45139204889649], [2.1703122668106483, 41.4514821147383], [2.1701925548070777, 41.45148125123786], [2.170193702618366, 41.45139118539876]], [[2.165541104205702, 41.450096491421895], [2.16553995001174, 41.45018655717488], [2.165779368980983, 41.450188293690225], [2.1657782151128373, 41.450278359447225], [2.1658979247708596, 41.450279227520795], [2.1658990784734744, 41.45018916176107], [2.1663779164958767, 41.4501926327989], [2.1663790695311227, 41.4501025670268], [2.166498778884298, 41.45010343447215], [2.1664999317487723, 41.45001336869587], [2.1666196409416587, 41.45001423601394], [2.166618488242715, 41.45010430179295], [2.1667381976063718, 41.45010516898919], [2.166737045067719, 41.45019523476949], [2.1668567546021467, 41.450196101843915], [2.1668556022237864, 41.450286167625485], [2.1669753119289847, 41.45028703457808], [2.1669741597109184, 41.45037710036095], [2.167213579468093, 41.45037883389795], [2.1672124275758557, 41.45046889968483], [2.1673321376278314, 41.45046976626922], [2.167327530668658, 41.45083002941326], [2.167447241388011, 41.45083089588402], [2.1674449382080843, 41.45101102745282], [2.1672055161124626, 41.451009294375865], [2.1672032122494387, 41.45118942592802], [2.1670835008784044, 41.451188559197234], [2.1670823487734965, 41.45127862496843], [2.1672020603100712, 41.451279491701925], [2.167200908365467, 41.4513695574744], [2.1670811966633514, 41.45136869073818], [2.1670800445479688, 41.45145875650648], [2.1667209089764254, 41.45145615554227], [2.166722061588433, 41.451366089782155], [2.165405233384019, 41.451356543352475], [2.1654040789510547, 41.451446609082545], [2.1652843671620405, 41.45144574047523], [2.165286676353803, 41.451265609019096], [2.165166964901119, 41.45126474029269], [2.165168119654667, 41.45117467456521], [2.1650484083727726, 41.45117380571697], [2.1650507181951966, 41.450993674263145], [2.1649310072496295, 41.45099280529582], [2.164932162318504, 41.450902739569486], [2.165051873098533, 41.45090360853406], [2.165055337777042, 41.450633411338195], [2.1649356274936205, 41.4506325423818], [2.1649367825414907, 41.4505424766497], [2.164817072428855, 41.45054160757151], [2.1648182276370087, 41.450451541840685], [2.165057647536464, 41.450453279867055], [2.1650599572748854, 41.450273148390174], [2.1647008284267746, 41.450270541180195], [2.164701983784705, 41.450180475447794], [2.1649414026804643, 41.45018221370685], [2.1649425577020813, 41.450092147967545], [2.165541104205702, 41.450096491421895]], [[2.164699673063592, 41.45036060691115], [2.164579963292527, 41.4503597375893], [2.164581118821241, 41.450269671861086], [2.1647008284267746, 41.450270541180195], [2.164699673063592, 41.45036060691115]], [[2.167561194951213, 41.45128209115508], [2.167560043503232, 41.45137215693573], [2.1674403317854085, 41.451371290573185], [2.1674426350072165, 41.45119115901589], [2.167682057785936, 41.45119289160553], [2.16768090650873, 41.45128295739034], [2.167561194951213, 41.45128209115508]], [[2.1700808785369463, 41.45084992672794], [2.169961167702594, 41.450849062997406], [2.169964612004447, 41.45057886546184], [2.1703237430333324, 41.45058145625529], [2.170320300221307, 41.45085165381533], [2.1702005893765177, 41.45085079033391], [2.1701971460209224, 41.45112098787282], [2.1699577233537664, 41.45111926052002], [2.1699565752270518, 41.451209326358], [2.169836863735762, 41.45120846249204], [2.169838012028017, 41.451118396656774], [2.169718300707488, 41.45111753266898], [2.1697171522496927, 41.45120759850152], [2.169597440768845, 41.45120673438645], [2.1695985893921796, 41.45111666855662], [2.169478878082093, 41.45111580431971], [2.169481175644176, 41.450935672661174], [2.1696008866231846, 41.45093653689265], [2.169602035230854, 41.45084647105849], [2.1697217460495466, 41.450847335162685], [2.1697205976074145, 41.45093740099956], [2.170079730591428, 41.45093999257296], [2.1700808785369463, 41.45084992672794]], [[2.169482324417383, 41.45084560682975], [2.1694834731853687, 41.450755540996866], [2.1696031838333028, 41.450756405222904], [2.169602035230854, 41.45084647105849], [2.169482324417383, 41.45084560682975]], [[2.1678029202895797, 41.45110369192453], [2.167804071390779, 41.45101362613409], [2.167923782462144, 41.45101449211207], [2.167922631526483, 41.45110455790524], [2.1678029202895797, 41.45110369192453]], [[2.161469830750658, 41.45015696018815], [2.161589540053837, 41.45015783274288], [2.1615883803920997, 41.45024789840401], [2.16146867092339, 41.45024702584655], [2.161469830750658, 41.45015696018815]], [[2.161230412160118, 41.45015521470506], [2.161231572313173, 41.45006514905072], [2.1611118631913437, 41.45006427612509], [2.161113023504654, 41.44997421047206], [2.1608736056078786, 41.44997246425265], [2.1608747662469705, 41.44988239860367], [2.160755057472025, 41.449881525309884], [2.160756218271368, 41.4497914596622], [2.1606365096672273, 41.44979058624663], [2.160638831581136, 41.44961045495245], [2.1608782481325894, 41.44961220164809], [2.160880569363288, 41.44943207033714], [2.1610002773158796, 41.44943294349263], [2.1609991168686933, 41.44952300915156], [2.1611188249920845, 41.449523882185254], [2.1611176647051478, 41.449613947845506], [2.160997956416231, 41.44961307480906], [2.1609967959584937, 41.44970314046511], [2.1612362128726543, 41.44970488641894], [2.161235052740695, 41.449794952079046], [2.161474470007005, 41.44979669754015], [2.161473310200827, 41.449886763204326], [2.1615930190074186, 41.449887635750805], [2.1615918593614967, 41.449977701416266], [2.1614721503893763, 41.44997682886704], [2.161469830750658, 41.45015696018815], [2.161230412160118, 41.45015521470506]], [[2.1611107028727585, 41.450154341776695], [2.160990993590674, 41.45015346872377], [2.160992154074789, 41.45006340307492], [2.1611118631913437, 41.45006427612509], [2.1611107028727585, 41.450154341776695]], [[2.1659036932314857, 41.449828898707686], [2.1659048469078765, 41.44973883294074], [2.166024555577965, 41.449739700873366], [2.166023402067102, 41.44982976664305], [2.1659036932314857, 41.449828898707686]], [[2.162554164583358, 41.449624414567914], [2.162553006277462, 41.449714480259644], [2.1623135892473493, 41.44971273704592], [2.162314747884299, 41.44962267135968], [2.162554164583358, 41.449624414567914]], [[2.162558797754289, 41.44926415178651], [2.1623193823794247, 41.44926240860023], [2.162321699595386, 41.44908227721185], [2.1622019922468985, 41.44908140543736], [2.1622066272776967, 41.4487211426543], [2.1620869205965567, 41.44872027076625], [2.162088079506605, 41.44863020506963], [2.161968372996251, 41.44862933305978], [2.1619741682950475, 41.44817900456874], [2.162213579665866, 41.448180748436464], [2.162214738378791, 41.44809068272844], [2.162454149439652, 41.44809242609251], [2.1624506742781597, 41.4483626232287], [2.16269008635317, 41.448364366111036], [2.162688928286506, 41.4484544318257], [2.162808634497424, 41.4484553030828], [2.162807476591012, 41.448545368798776], [2.1629271829727106, 41.448546239934075], [2.162926025226552, 41.448636305651334], [2.1630457317790315, 41.448637176664825], [2.163043416601962, 41.448817308100516], [2.162804002840192, 41.44881556593802], [2.1628005290419976, 41.4490857630643], [2.162920236416813, 41.44908663421605], [2.162919078639075, 41.44917669992467], [2.163038786184675, 41.4491775709546], [2.163041101403843, 41.448997439530444], [2.1631608086236622, 41.448998310430355], [2.163156178826365, 41.449358573283874], [2.1633955946059675, 41.44936031473197], [2.163394437474537, 41.44945038044724], [2.163514145537753, 41.4494512509872], [2.163512988566588, 41.44954131670375], [2.1638721132843663, 41.449543927584585], [2.163870956804519, 41.44963399330792], [2.1636315399896895, 41.44963225283978], [2.1636303831735315, 41.449722318556184], [2.1626727148004172, 41.44971535167968], [2.162673872940787, 41.449625285985206], [2.162554164583358, 41.449624414567914], [2.162558797754289, 41.44926415178651]], [[2.1642323940274744, 41.44945647161149], [2.1642347059677376, 41.44927634014118], [2.1644741215109295, 41.44927807934194], [2.1644764327680823, 41.44909794785493], [2.1645961402165135, 41.449098817263014], [2.164594984756086, 41.449188883009974], [2.1648343999997506, 41.449190621457966], [2.1648332448651173, 41.44928068720895], [2.1649529526603497, 41.44928155624886], [2.16495526259332, 41.449101424739965], [2.1650749700627574, 41.44910229364986], [2.1650761248558457, 41.44901222789052], [2.165195832165011, 41.44901309667313], [2.1651946775374444, 41.44910316243521], [2.1653143850173806, 41.449104031096], [2.1653120760775475, 41.4492841626213], [2.1651923682665655, 41.44928329395504], [2.1651900589746904, 41.44946342546911], [2.164950642706377, 41.449461687752006], [2.164949487721515, 41.44955175350139], [2.164829779429709, 41.449550884453274], [2.16482862427407, 41.44964095019851], [2.1647089158219885, 41.44964008102311], [2.1647077604955713, 41.44973014676415], [2.1645880518832157, 41.44972927746147], [2.164589207375159, 41.44963921172316], [2.164469498933583, 41.44963834229866], [2.1644718102327634, 41.44945821082318], [2.1642323940274744, 41.44945647161149]], [[2.167703931058469, 41.44948164142012], [2.1677050822310053, 41.449391575606484], [2.168183914608641, 41.449395039073075], [2.168182764098206, 41.44948510489762], [2.168302472371218, 41.44948597045561], [2.168300171665711, 41.44966610210582], [2.168060754462811, 41.449664370854386], [2.1680619051492336, 41.44957430503544], [2.1679421967211567, 41.449573439225624], [2.1679433475678738, 41.449483373407965], [2.167703931058469, 41.44948164142012]], [[2.168424481002998, 41.44930670422763], [2.1684256311719246, 41.449216638394766], [2.16854533895882, 41.44921750369549], [2.168544188955418, 41.44930756953108], [2.168424481002998, 41.44930670422763]], [[2.168663896913065, 41.44930843470999], [2.1686650467509434, 41.44921836887167], [2.168784754548294, 41.4492192339233], [2.1687836048759395, 41.449309299764344], [2.168663896913065, 41.44930843470999]], [[2.1660372438513735, 41.448748977311794], [2.1660349369397647, 41.44892910888142], [2.165795522584268, 41.44892737294078], [2.1657966763737346, 41.44883730716215], [2.165916383383341, 41.448838175192016], [2.1659175370020427, 41.44874810940921], [2.1660372438513735, 41.448748977311794]], [[2.165439863932704, 41.44865457078011], [2.165438709657171, 41.448744636553414], [2.164959882396256, 41.44874116170488], [2.164964502115187, 41.44838089864673], [2.16544332672782, 41.448384373451525], [2.16544101820299, 41.44856450500536], [2.1653213117109256, 41.44856363648551], [2.1653201572751217, 41.44865370225752], [2.165439863932704, 41.44865457078011]], [[2.1644856775865575, 41.44837742184924], [2.1644868331652267, 41.44828735609204], [2.164726245088007, 41.448289094734406], [2.164727400330394, 41.4481990289703], [2.1649668119431515, 41.448200767109014], [2.164964502115187, 41.44838089864673], [2.1644856775865575, 41.44837742184924]], [[2.1654444809823645, 41.44829430767245], [2.1653247749868494, 41.44829343916081], [2.1653259294016616, 41.44820337338302], [2.165445635231662, 41.448204241891936], [2.1654467894757117, 41.448114176109975], [2.165327083811226, 41.4481133076038], [2.1653293926146113, 41.447933176041026], [2.1654490979480703, 41.44793404454174], [2.165450252176379, 41.44784397875545], [2.1655699573495744, 41.447844847128884], [2.1655711114071243, 41.44775478133843], [2.1656908164200543, 41.44775564958459], [2.165689662528015, 41.44784571537778], [2.165809367711702, 41.447846583502134], [2.165810521438229, 41.44775651770622], [2.166049931490313, 41.44775825357584], [2.16604762469406, 41.44793838517717], [2.1655688032867775, 41.44793491291791], [2.1655676492187346, 41.44802497870547], [2.1658070602429116, 41.44802671508966], [2.1658059065006494, 41.44811678088126], [2.1659256121861192, 41.44811764888926], [2.1659244586041266, 41.448207714682155], [2.165804752753142, 41.44820684667141], [2.16580359900039, 41.44829691246012], [2.16592330501689, 41.448297780473595], [2.165922151424409, 41.4483878462636], [2.1658024452423934, 41.4483869782474], [2.165801291479152, 41.448477044033226], [2.165681585136865, 41.44847617588975], [2.1656827390656233, 41.448386110106654], [2.16544332672782, 41.448384373451525], [2.1654444809823645, 41.44829430767245]], [[2.16604070417946, 41.448478779946555], [2.1660383972993125, 41.448658911524824], [2.165918690615501, 41.448658043624974], [2.165919844223714, 41.44856797783929], [2.165800137710665, 41.44856710981763], [2.165801291479152, 41.448477044033226], [2.16604070417946, 41.448478779946555]], [[2.1655584164855197, 41.44874550495418], [2.1655595705955344, 41.44865543917814], [2.1656792772636106, 41.448656307451635], [2.1656781233191156, 41.44874637323041], [2.1655584164855197, 41.44874550495418]], [[2.161610413063657, 41.448536650595855], [2.1616115726252345, 41.448446584907316], [2.161731278788745, 41.44844745728532], [2.161730119392684, 41.4485375229766], [2.161610413063657, 41.448536650595855]], [[2.164125403164769, 41.448464878690935], [2.164127715320457, 41.44828474719441], [2.1642474212634593, 41.448285616951495], [2.1642451094388035, 41.4484657484535], [2.164125403164769, 41.448464878690935]], [[2.1615104213835203, 41.4470046612362], [2.161509261740776, 41.44709472694506], [2.161628965416359, 41.44709559940641], [2.161627805933848, 41.44718566511657], [2.1618672136318375, 41.44718740967115], [2.161866054475068, 41.44727747538535], [2.161985758497473, 41.447278347478566], [2.1619834404991383, 41.44745847890814], [2.1621031448578263, 41.44745935088231], [2.1621008271694335, 41.44763948231161], [2.1619811224797285, 41.44763861033194], [2.161977645411098, 41.44790880745683], [2.161738235054432, 41.44790706310741], [2.1617370756899934, 41.44799712880733], [2.1616173703540538, 41.44799625644306], [2.1616150512783396, 41.448176387833094], [2.161375639960222, 41.44817464271994], [2.1613767998317415, 41.44808457703114], [2.161257094346105, 41.4480837042905], [2.1612582543778647, 41.44799363860299], [2.161138549063014, 41.44799276574055], [2.1611397092550115, 41.447902700054364], [2.16125941440435, 41.44790357291405], [2.1612640544575603, 41.44754331014388], [2.161383758950133, 41.44754418286804], [2.161384918784744, 41.44745411716915], [2.161145510135888, 41.44745237160177], [2.1611466702962416, 41.44736230590694], [2.1610269661452315, 41.44736143293919], [2.1610304470911648, 41.447091235854266], [2.1609107434419466, 41.44709036277022], [2.1609119039122127, 41.4470002970751], [2.160792200433774, 41.44699942386926], [2.1607933610642682, 41.44690935817546], [2.1606736577566092, 41.44690848484783], [2.1606748185473297, 41.44681841915534], [2.1605551154104505, 41.44681754570592], [2.160556276361396, 41.44672748001474], [2.1609153852913585, 41.44673009998111], [2.160916545740523, 41.44664003428024], [2.1610362485622274, 41.44664090735054], [2.161035088278564, 41.446730973054166], [2.1611547912710445, 41.44673184600269], [2.161153631147608, 41.44682191170762], [2.1612733343108643, 41.44682278453435], [2.161272174347657, 41.44691285024059], [2.161391877681689, 41.446913722945524], [2.1613907178787124, 41.447003788653056], [2.1615104213835203, 41.4470046612362]], [[2.161274494268798, 41.44673271882667], [2.1615139002801245, 41.44673446410103], [2.1615127406531944, 41.446824529814194], [2.1612733343108643, 41.44682278453435], [2.161274494268798, 41.44673271882667]], [[2.166405587895126, 41.44803105387061], [2.1664067408045793, 41.44794098806392], [2.166526446185235, 41.44794185544375], [2.1665252934412953, 41.44803192125317], [2.166405587895126, 41.44803105387061]], [[2.163419893150917, 41.4474689343786], [2.163300188734322, 41.44746806377437], [2.16330134591554, 41.44737799803014], [2.1636604586845785, 41.44738060946101], [2.163658145309931, 41.44756074096446], [2.1634187361299464, 41.44755900012412], [2.163419893150917, 41.4474689343786]], [[2.1631816416697136, 41.447377127304115], [2.1631804843229876, 41.4474671930456], [2.1629410755161045, 41.44746545121443], [2.1629422331938457, 41.44737538547841], [2.1627028247390276, 41.44737364315457], [2.16270398274252, 41.44728357742261], [2.1625842786885143, 41.44728270607662], [2.1625865950107177, 41.447102574613844], [2.1624668912929876, 41.44710170314881], [2.162468049611697, 41.447011637417994], [2.162587753163922, 41.4470125088803], [2.162590069454536, 41.44683237740889], [2.162829475912767, 41.44683411994891], [2.162831791520314, 41.44665398846076], [2.1629514944263204, 41.44665485953848], [2.1629538096818135, 41.446474728039085], [2.1630735122620814, 41.44647559898677], [2.1630758271655273, 41.44629546747614], [2.1629561249162577, 41.44629459653392], [2.162957282525586, 41.44620453077918], [2.1628375804470763, 41.44620365971517], [2.16283989598094, 41.446023528206815], [2.162959597728456, 41.446024399265355], [2.162958440129652, 41.44611446502298], [2.1630781420479264, 41.44611533595972], [2.1630769846093574, 41.44620540171866], [2.1631966866983907, 41.446206272533594], [2.1631932148476105, 41.44647646980995], [2.1633129174384007, 41.44647734050858], [2.163311760309786, 41.446567406267214], [2.1631920575534953, 41.44656653556585], [2.163189742949482, 41.446746667073334], [2.163309446036776, 41.44674753778018], [2.16330828889238, 41.446837603534505], [2.163427992150436, 41.44683847411956], [2.1634268351662835, 41.446928539875174], [2.1633071317427244, 41.446927669287376], [2.16330134591554, 41.44737799803014], [2.1631816416697136, 41.447377127304115]], [[2.1634314630713365, 41.44656827684405], [2.1634303061029625, 41.446658342604], [2.1633106031759106, 41.44665747202443], [2.163311760309786, 41.446567406267214], [2.1634314630713365, 41.44656827684405]], [[2.16211357419483, 41.44664875937917], [2.162114732983714, 41.44655869364938], [2.162354138406811, 41.44656043716923], [2.1623529799489285, 41.44665050290451], [2.16211357419483, 41.44664875937917]], [[2.1624726828338776, 41.446651374480375], [2.1624738411262583, 41.44656130874237], [2.1625935438509725, 41.44656218019095], [2.162592385724092, 41.446652245931716], [2.1624726828338776, 41.446651374480375]], [[2.1621182093187588, 41.446288496451395], [2.162117050545678, 41.4463785621855], [2.1618776458056503, 41.44637681817848], [2.1618811231020754, 41.446106620988296], [2.1620008249729623, 41.446107493045844], [2.161998507111609, 41.4462876245129], [2.1621182093187588, 41.446288496451395]], [[2.1627213521632194, 41.445932591270186], [2.1627225100824887, 41.44584252551515], [2.162842211493751, 41.44584339669273], [2.162841053739977, 41.445933462450505], [2.1627213521632194, 41.445932591270186]]]}, "properties": {"area_ha": 39.65, "dnbr_threshold_core": 0.35, "dnbr_threshold_grow": 0.22, "dnbr_mean": 0.4927, "dnbr_max": 0.9629, "severity": "alta", "severity_method": "dnbr_mean", "forest_mask": "esa_worldcover_2021_10_20", "part": 5, "fire_id": "662771", "burn_year": 2026, "source": "sentinel", "aoi_source": "effis", "dnbr_threshold": 0.35, "buffer_m": 1200.0, "post_windows": 1, "post_window_dates": [{"start": "2026-09-01", "end": "2026-09-23"}], "pre_window": {"start": "2026-06-11", "end": "2026-08-18"}, "fire_date": "2026-08-25"}}, {"type": "Feature", "geometry": {"type": "Polygon", "coordinates": [[[2.166183237685547, 41.45604603714411], [2.166302957960143, 41.45604690489424], [2.166304111336158, 41.45595683921582], [2.1664238314504174, 41.45595770683864], [2.1664226782399827, 41.45604777251979], [2.1666621188153883, 41.45604950739715], [2.1666644245686966, 41.455869376022484], [2.167023584477635, 41.45587197738782], [2.167024736849692, 41.45578191169014], [2.167264176484023, 41.45578364530536], [2.1672664805501096, 41.45560351389475], [2.16714676106148, 41.45560264715489], [2.167150217618057, 41.455332450036366], [2.1670304986313926, 41.455331583180104], [2.1670293462855303, 41.455421648885], [2.16690962713853, 41.45542078190144], [2.166914237152842, 41.45506051908416], [2.167393111123094, 41.455063986227294], [2.167394262951286, 41.45497392050844], [2.1672745446164385, 41.45497305391224], [2.1672780005663075, 41.454702856755276], [2.167158282733408, 41.454701990042686], [2.167159434871792, 41.454611924323544], [2.1670397172096996, 41.45461105748911], [2.167040869508414, 41.45452099177125], [2.166921152017128, 41.45452012481498], [2.1669223044761714, 41.4544300590984], [2.1666828698404528, 41.45442832481759], [2.166685175405086, 41.45424819339105], [2.165966873610523, 41.4542429875917], [2.1659634122755165, 41.45451318468021], [2.165843694831411, 41.45451231660278], [2.165842540877017, 41.45460238229335], [2.16572282327259, 41.45460151408863], [2.1657193608812233, 41.45487171114346], [2.1655996427853355, 41.454870842805974], [2.165598488478815, 41.4549609084853], [2.1654787702226037, 41.454960040020495], [2.1654706887710105, 41.45559049971631], [2.165590408186238, 41.45559136820024], [2.1655892538377364, 41.45568143386803], [2.1659484126116335, 41.45568403858056], [2.165946104892353, 41.45586416992822], [2.166185544763493, 41.455865905791285], [2.166183237685547, 41.45604603714411]], [[2.165591562529493, 41.455501302531], [2.165711281784392, 41.45550217088762], [2.165710127606714, 41.45559223655958], [2.165590408186238, 41.45559136820024], [2.165591562529493, 41.455501302531]]]}, "properties": {"area_ha": 2.15, "dnbr_threshold_core": 0.35, "dnbr_threshold_grow": 0.22, "dnbr_mean": 0.6335, "dnbr_max": 1.0576, "severity": "alta", "severity_method": "dnbr_mean", "forest_mask": "esa_worldcover_2021_10_20", "part": 9, "fire_id": "662771", "burn_year": 2026, "source": "sentinel", "aoi_source": "effis", "dnbr_threshold": 0.35, "buffer_m": 1200.0, "post_windows": 1, "post_window_dates": [{"start": "2026-09-01", "end": "2026-09-23"}], "pre_window": {"start": "2026-06-11", "end": "2026-08-18"}, "fire_date": "2026-08-25"}}]}
