{"type": "FeatureCollection", "features": [{"type": "Feature", "geometry": {"type": "Polygon", "coordinates": [[[2.8732708343893933, 42.39651378389429], [2.8731493302051687, 42.39651364951835], [2.8731491488254064, 42.39660370972622], [2.8731489674448127, 42.39669376993268], [2.8730274629139507, 42.39669363542713], [2.873027281358791, 42.396783695631754], [2.8729057766550254, 42.396783560997], [2.8729055949252973, 42.39687362119977], [2.872905413194737, 42.396963681401125], [2.872905231463344, 42.39705374160107], [2.872905049731118, 42.39714380179958], [2.87290486799806, 42.39723386199667], [2.872904686264169, 42.39732392219234], [2.8730261920103644, 42.397324056829625], [2.8731476977573913, 42.397324191338136], [2.87314751637015, 42.39741425153323], [2.8731473349820775, 42.397504311726905], [2.8732688410774183, 42.39750444610748], [2.8732686598622577, 42.397594506300145], [2.8733901661321712, 42.39759464055237], [2.873389985089924, 42.39768470074405], [2.87351149153441, 42.3976848348679], [2.8736329979797253, 42.39768496886299], [2.8736328172841366, 42.397775029054074], [2.873754323904024, 42.3977751629208], [2.873875830524738, 42.39777529665874], [2.873875650175812, 42.39786535684925], [2.8738754698260593, 42.39795541703836], [2.8738752894754804, 42.39804547722603], [2.873753782333529, 42.39804534348682], [2.8737536018083762, 42.39813540367266], [2.8737534212823967, 42.39822546385708], [2.8736319137937767, 42.39822532998826], [2.873631733093221, 42.39831539017082], [2.8735102254316796, 42.3983152561728], [2.8735100445565465, 42.398405316353546], [2.8735098636805847, 42.39849537653285], [2.8736313716896262, 42.398495510531724], [2.873631190986587, 42.398585570710026], [2.87363101028272, 42.39867563088692], [2.8735095019261747, 42.39867549688721], [2.8735093210477265, 42.398765557062276], [2.873630829578025, 42.39876569106239], [2.873630648872502, 42.39885575123643], [2.8737521575773823, 42.398855885108205], [2.873751977044786, 42.39894594528125], [2.8738734859242476, 42.39894607902463], [2.8739949948045354, 42.398946212639245], [2.874116503685648, 42.39894634612508], [2.874116683696981, 42.39885628595077], [2.874116863707489, 42.39876622577504], [2.8741170437171717, 42.39867616559789], [2.87411722372603, 42.39858610541932], [2.8742387319129543, 42.39858623877469], [2.8743602401007027, 42.398586372001276], [2.8743604197612336, 42.39849631182045], [2.874238911747237, 42.39849617859429], [2.874239091580695, 42.39840611841245], [2.874360599420941, 42.3984062516382], [2.874360779079826, 42.39831619145453], [2.8742392714133294, 42.39831605822921], [2.87423945124514, 42.39822599804454], [2.8743609587378876, 42.39822613126945], [2.874361138395126, 42.398136071082945], [2.8743613180515415, 42.39804601089503], [2.8743614977071337, 42.39795595070568], [2.874361677361903, 42.39786589051489], [2.874361857015849, 42.397775830322715], [2.8744833636406866, 42.397775963416755], [2.874483184160485, 42.39786602360936], [2.87460469095989, 42.39786615657504], [2.874726197760116, 42.39786628941195], [2.874726376892827, 42.39777622921851], [2.8748478835201294, 42.397776361926226], [2.874847704561163, 42.397866422120075], [2.87496921136303, 42.39786655469942], [2.8750907181657155, 42.39786668714999], [2.8750908967771913, 42.397776626955306], [2.875091075387849, 42.3976865667592], [2.8750912539976885, 42.39759650656167], [2.8752127602799593, 42.397596638882206], [2.8752125818438636, 42.397686699080154], [2.875334088300696, 42.39768683127234], [2.8753342665630486, 42.39759677107397], [2.875334444824584, 42.397506710874204], [2.8754559509347466, 42.39750684293676], [2.8755774570457255, 42.39750697487055], [2.8755772791316754, 42.397597035071165], [2.87557710121681, 42.39768709527035], [2.8756986076760898, 42.39768722707619], [2.875820114136184, 42.39768735875325], [2.875819936567992, 42.39777741895185], [2.875819758998987, 42.397867479149006], [2.875819581429168, 42.397957539344766], [2.8758194038585354, 42.3980475995391], [2.87581922628709, 42.398137659731994], [2.8758190487148303, 42.39822771992348], [2.8756975412122583, 42.39822758824396], [2.8756973634654366, 42.3983176484336], [2.8755758557899296, 42.39831751662488], [2.8755756778685435, 42.39840757681269], [2.875575499946342, 42.398497636999096], [2.8755753220233258, 42.39858769718407], [2.875575144099494, 42.39867775736763], [2.8754536357297984, 42.39867762542846], [2.8754534576313984, 42.39876768561018], [2.875453279532183, 42.398857745790494], [2.875453101432151, 42.39894780596937], [2.8753315925420098, 42.398947673900174], [2.8753314142674067, 42.399037734077226], [2.8753312359919865, 42.399127794252855], [2.8753310577157505, 42.39921785442705], [2.8752095483051567, 42.39921772222783], [2.8752093698543457, 42.3993077824002], [2.8750878602708125, 42.39930765007178], [2.8749663506880974, 42.399307517614574], [2.874966171888951, 42.3993975777847], [2.8748446621332966, 42.39939744519828], [2.874844483159572, 42.399487505366565], [2.8747229732309783, 42.39948737265095], [2.8746014633032044, 42.39948723980654], [2.8746012839811397, 42.39957729997258], [2.8744797738804277, 42.399577166998974], [2.8743582637805383, 42.399577033896584], [2.8742367536814717, 42.3995769006654], [2.8742369335248172, 42.39948684050062], [2.874115423600335, 42.39948670714107], [2.874115603616616, 42.39939664697529], [2.874115783632072, 42.39930658680809], [2.873994274055932, 42.39930645332059], [2.8739940938667177, 42.399396513487375], [2.873872584117645, 42.39939637987067], [2.8738724037538455, 42.39948644003561], [2.8737508938318395, 42.3994863062897], [2.873750713293454, 42.399576366452806], [2.873750532754241, 42.399666426614495], [2.8737503522142007, 42.39975648677476], [2.8738718626574893, 42.39975662052193], [2.8738716822903845, 42.399846680681186], [2.873871501922453, 42.39993674083904], [2.8739930127140942, 42.399936874458255], [2.8739928325191006, 42.40002693461509], [2.874114343485331, 42.400027068105935], [2.874114163463277, 42.40011712826176], [2.874235674604097, 42.400117261624246], [2.8742358544523863, 42.400027201468], [2.874357365420265, 42.40002733470126], [2.8743571857457413, 42.40011739485793], [2.8744786968882083, 42.40011752796283], [2.8746002080314983, 42.400117660938946], [2.874600028703682, 42.40020772109503], [2.874599849375045, 42.400297781249705], [2.874478337884223, 42.40029764827276], [2.8743568263942234, 42.40029751516703], [2.874235314905047, 42.4002973819325], [2.874113803416695, 42.40029724856919], [2.873992291929167, 42.400297115077095], [2.873992472126637, 42.40020705492451], [2.8738709608137016, 42.40020692130403], [2.873870780442465, 42.4002969814562], [2.873870600070402, 42.400387041606926], [2.873870419697513, 42.40047710175625], [2.8737489078641016, 42.40047696800574], [2.873748727316617, 42.400567028153205], [2.873627215310264, 42.400566894273474], [2.873627034588183, 42.400656954419105], [2.8736268538652734, 42.400747014563336], [2.8736266731415356, 42.400837074706125], [2.8736264924169705, 42.4009271348475], [2.8736263116915772, 42.40101719498747], [2.8736261309653557, 42.40110725512599], [2.8736259502383064, 42.40119731526311], [2.873504437016377, 42.401197181251646], [2.873382923795276, 42.401197047111374], [2.8733827427198477, 42.40128710724623], [2.8732612293258017, 42.401286972976756], [2.8731397159325858, 42.40128683857849], [2.873139534508776, 42.40137689871108], [2.873261048075768, 42.40137703310978], [2.873260866824904, 42.401467093241365], [2.8733823805665035, 42.40146722751168], [2.8733821994885864, 42.40155728764227], [2.8732606855732095, 42.401557153371535], [2.873260504320685, 42.40164721350029], [2.87313899023236, 42.401647079100336], [2.8731388088052254, 42.40173713922723], [2.87326032306733, 42.40173727362761], [2.8733818373302644, 42.4017374078992], [2.8735033515940285, 42.40173754204198], [2.873503532499825, 42.40164748191382], [2.873625046590639, 42.401647615927374], [2.8736252273218286, 42.40155755579736], [2.87362540805219, 42.40146749566593], [2.873746921796275, 42.40146762954986], [2.873747102352032, 42.40137756941659], [2.8737472829069612, 42.40128750928189], [2.8737474634610636, 42.401197449145776], [2.873868976684648, 42.40119758289966], [2.873990489909059, 42.401197716524734], [2.8741120031342957, 42.401197850021035], [2.8741121831662477, 42.40110778988224], [2.8742336962185346, 42.40110792324932], [2.8743552092716453, 42.401108056487594], [2.874355388955225, 42.401017996346546], [2.874476901835385, 42.401018129455615], [2.8744767223255794, 42.40110818959708], [2.8745982353803363, 42.401108322577784], [2.8747197484359144, 42.40110845542968], [2.8747199275981727, 42.40101839528737], [2.8748414404807985, 42.40101852801007], [2.8748416194684627, 42.400928467865945], [2.874841798455307, 42.400838407720386], [2.8748419774413314, 42.40074834757341], [2.8749634898034606, 42.40074848016606], [2.8749636686148943, 42.40065842001724], [2.874842156426536, 42.400658287424996], [2.87484233541092, 42.40056822727518], [2.874963847425509, 42.400568359867], [2.8749640262353044, 42.40047829971535], [2.8749642050442805, 42.400388239562275], [2.8750857167121513, 42.400388372024466], [2.8750855380769433, 42.40047843217796], [2.875085359440917, 42.40056849233003], [2.875085180804072, 42.40065855248068], [2.8750850021664087, 42.40074861262992], [2.8750848235279274, 42.400838672777724], [2.875084644888627, 42.4009287329241], [2.8750844662485084, 42.401018793069056], [2.8750842876075717, 42.40110885321262], [2.875084108965816, 42.40119891335474], [2.8752056221984477, 42.40119904569188], [2.875205443729649, 42.40128910583301], [2.875083930323242, 42.40128897349545], [2.87508375167985, 42.40137903363473], [2.874962238100485, 42.401378901167966], [2.8749620592824976, 42.40146896130542], [2.8748405455301755, 42.40146882870944], [2.8748403665375912, 42.40155888884505], [2.8748401875441862, 42.40164894897925], [2.8747186734451278, 42.40164881625365], [2.8747184942771242, 42.40173887638599], [2.8747183151082987, 42.40182893651693], [2.8745968006625024, 42.401828803661694], [2.8745966213190757, 42.40191886379079], [2.8744751067003196, 42.401918730806344], [2.8744749271822894, 42.4020087909336], [2.8743534123905747, 42.402008657819934], [2.874231897599683, 42.40200852457748], [2.8742317177332652, 42.402098584702486], [2.874110202769415, 42.402098451330815], [2.87398868780639, 42.402098317830344], [2.873988507591582, 42.40218837795309], [2.8738669924555986, 42.4021882443234], [2.8737454773204423, 42.40218811056491], [2.8737452967572406, 42.4022781706854], [2.873745116193212, 42.402368230804456], [2.873866631675937, 42.40236836456378], [2.8738664512848664, 42.402458424681846], [2.8738662708929694, 42.402548484798494], [2.873987786724093, 42.40254861842987], [2.873987606505157, 42.402638678545514], [2.8739874262853946, 42.402728738659725], [2.8741089424649195, 42.40272887216313], [2.874230458645269, 42.402729005537736], [2.8743519748264426, 42.40272913878354], [2.8744734910084397, 42.40272927190054], [2.87447367053305, 42.402639211784646], [2.8745951865420816, 42.40263934477243], [2.8745953658920818, 42.402549284654704], [2.8747168817281477, 42.402549417513264], [2.8748383975650342, 42.40254955024303], [2.8748385765666398, 42.40245949012304], [2.8748387555674255, 42.40236943000164], [2.87496027105756, 42.40236956260176], [2.8749604498837407, 42.402279502478535], [2.8749606287091023, 42.402189442353865], [2.875082143852487, 42.40218957482436], [2.875082322503246, 42.40209951469787], [2.8750825011531864, 42.40200945456994], [2.8750826798023077, 42.40191939444061], [2.875204194425164, 42.40191952678107], [2.8752043728996863, 42.40182946664989], [2.875204551373391, 42.4017394065173], [2.8752047298462777, 42.40164934638328], [2.8753262439486114, 42.4016494785937], [2.875326422246902, 42.40155941845784], [2.8753266005443763, 42.40146935832057], [2.8753267788410333, 42.40137929818187], [2.875326957136873, 42.40128923804177], [2.8754484705449146, 42.401289370121724], [2.875448648666162, 42.40119930997977], [2.8755701619012446, 42.40119944193053], [2.8755703398479016, 42.40110938178674], [2.8755705177937436, 42.40101932164155], [2.8755706957387703, 42.400929261494916], [2.8756922084533465, 42.40092939331564], [2.8756923862237858, 42.400839333167184], [2.875692563993411, 42.40074927301731], [2.875814076361258, 42.400749404708414], [2.875814253956298, 42.40065934455669], [2.875814431550524, 42.400569284403566], [2.8758146091439367, 42.40047922424902], [2.8758147867365356, 42.400389164093035], [2.8759362984101187, 42.400389295653696], [2.8760578100845144, 42.400389427085564], [2.876057987328765, 42.40029936692735], [2.8760581645722034, 42.4002093067677], [2.87605834181483, 42.400119246606636], [2.876058519056645, 42.400029186444165], [2.876180030036788, 42.4000293177456], [2.876180207104026, 42.39993925758129], [2.876180384170453, 42.39984919741554], [2.8763018948038797, 42.399849328587365], [2.876302071695733, 42.39975926841981], [2.8763022485867755, 42.39966920825081], [2.8764237588734884, 42.39966933929301], [2.8764239355899597, 42.3995792791222], [2.8765454457037207, 42.39957941003521], [2.8765456222456223, 42.399489349862556], [2.8765457987867147, 42.3993992896885], [2.8765459753269984, 42.399309229513], [2.87666748492029, 42.399309360296], [2.8766676612860076, 42.39921930011867], [2.8766678376509165, 42.399129239939946], [2.8767893468975014, 42.399129370593336], [2.8767895230878464, 42.39903931041277], [2.876789699277384, 42.398949250230764], [2.8767898754661143, 42.398859190047354], [2.8767900516540377, 42.39876912986252], [2.8767902278411537, 42.39867906967626], [2.8767904040274628, 42.398589009488596], [2.8769119122323286, 42.398589140010735], [2.8769120882440795, 42.398499079821235], [2.8769122642550227, 42.39840901963031], [2.8770337721131933, 42.398409150022864], [2.877033947949581, 42.39831908983011], [2.8770341237851627, 42.39822902963593], [2.877034299619939, 42.39813896944033], [2.87703447545391, 42.39804890924332], [2.8770346512870755, 42.39795884904488], [2.8770348271194353, 42.397868788845024], [2.877035002950989, 42.39777872864375], [2.8770351787817376, 42.397688668441056], [2.877156685250737, 42.39768879870155], [2.877278191720541, 42.39768892883326], [2.8772783672029965, 42.39759886862833], [2.8772785426846483, 42.39750880842198], [2.8772787181654964, 42.3974187482142], [2.8774002241148757, 42.397418878215916], [2.877400399421179, 42.39732881800631], [2.877400574726679, 42.39723875779529], [2.87752208032938, 42.39723888766741], [2.877522255460337, 42.397148827454565], [2.8775224305904916, 42.397058767240296], [2.877522605719844, 42.39696870702459], [2.877522780848394, 42.39687864680749], [2.8776442857569435, 42.39687877654921], [2.8776444607109553, 42.39678871633027], [2.877644635664165, 42.3966986561099], [2.8776448106165735, 42.39660859588812], [2.877766315004718, 42.396608725499846], [2.8777664897825908, 42.39651866527624], [2.87764498556818, 42.396518535664924], [2.8776451605189854, 42.39642847544029], [2.8777666645596627, 42.396428605051206], [2.8777668393359344, 42.39633854482475], [2.877767014111405, 42.39624848459688], [2.8777671888860747, 42.396158424367584], [2.8777673636599443, 42.39606836413688], [2.877888867006497, 42.39606849361739], [2.8778890416058363, 42.395978433384855], [2.87801054477946, 42.3959785627362], [2.878010719204271, 42.395888502501826], [2.8780108936282827, 42.39579844226605], [2.878011068051496, 42.39570838202885], [2.8780112424739093, 42.39561832179021], [2.8778897399951946, 42.3956181924405], [2.877889565399055, 42.395708252678716], [2.877768062747414, 42.39570812319983], [2.8776465600965744, 42.39570799359217], [2.877646735040166, 42.39561793335476], [2.877525232563854, 42.395617803618734], [2.8775254076803694, 42.395527743380306], [2.8774039053785843, 42.395527613515924], [2.877404080668022, 42.39543755327648], [2.8772825785407647, 42.39543742328374], [2.877161076414311, 42.395437293162225], [2.877039574288662, 42.39543716291193], [2.876918072163818, 42.395437032532875], [2.876796570039781, 42.395436902025054], [2.8766750679165503, 42.39543677138847], [2.876674891584766, 42.395526831625446], [2.876553389288619, 42.39552670085968], [2.8764318869932803, 42.395526569965135], [2.8763103846987517, 42.395526438941836], [2.8763102078449836, 42.395616499176164], [2.876310030990405, 42.39570655940908], [2.8761885283492354, 42.395706428256176], [2.87618835132012, 42.39579648848725], [2.876066848506034, 42.39579635720517], [2.8760666713023806, 42.39588641743441], [2.876066494097915, 42.395976477662245], [2.875944990937185, 42.39597634625056], [2.8758234877772675, 42.39597621471012], [2.8758233102245314, 42.396066274935706], [2.8757018068916986, 42.396066143266076], [2.875701629164419, 42.39615620348983], [2.8755801256586704, 42.396156071690996], [2.875579947756846, 42.39624613191292], [2.875458444078182, 42.39624599998492], [2.8754582660018104, 42.396336060205], [2.875458087924624, 42.39642612042365], [2.8753365838993115, 42.396425988366055], [2.875336405647576, 42.39651604858288], [2.875336227395023, 42.39660610879829], [2.8752147230230602, 42.39660597661107], [2.8752145445959565, 42.39669603682465], [2.8752143661680356, 42.3967860970368], [2.8752141877392967, 42.396876157247526], [2.8750926828469447, 42.39687602493031], [2.8750925042436517, 42.3969660851392], [2.87509232563954, 42.39705614534668], [2.8750921470346107, 42.397146205552716], [2.874970641621863, 42.397146073105475], [2.874849136209934, 42.397145940529455], [2.8748493151623418, 42.39705588032424], [2.874727809924971, 42.397055747619866], [2.8747279890502964, 42.39696568741363], [2.8748494941139286, 42.39696582011759], [2.874849673064696, 42.396875759909534], [2.8748498520146435, 42.396785699700054], [2.874971356731622, 42.39678583227442], [2.87509286144942, 42.396785964719996], [2.8750930400510764, 42.39669590450825], [2.875093218651915, 42.396605844295095], [2.8749717142815876, 42.396605711850356], [2.8749718930553416, 42.3965156516362], [2.875093397251935, 42.396515784080535], [2.875093575851137, 42.39642572386453], [2.8749720718282767, 42.396425591420616], [2.8748505678062353, 42.39642545884792], [2.874729063785014, 42.39642532614645], [2.8746075597646135, 42.396425193316205], [2.874607739057926, 42.39633513310045], [2.874607918350418, 42.39624507288329], [2.8744864146783025, 42.39624493992511], [2.874364911007009, 42.39624480683816], [2.874365090646141, 42.396154746620404], [2.874243587149401, 42.39615461340508], [2.8742437669614396, 42.396064553186335], [2.8741222636392534, 42.39606441984267], [2.8741224436241977, 42.395974359622905], [2.8741226236083173, 42.395884299401715], [2.8740011206344134, 42.39588416593012], [2.8738796176613346, 42.39588403232976], [2.873758114689082, 42.39588389860063], [2.8737582951935594, 42.39579383837928], [2.8736367923958612, 42.39579370452179], [2.8736366117176564, 42.39588376474271], [2.8735151087470587, 42.395883630756046], [2.8735149278942975, 42.39597369097514], [2.873514747040708, 42.396063751192806], [2.8733932437234815, 42.396063617076514], [2.8733930626953335, 42.39615367729234], [2.8733928816663563, 42.396243737506744], [2.8733927006365496, 42.396333797719734], [2.8733925196059134, 42.396423857931296], [2.873392338574448, 42.39651391814145], [2.8732708343893933, 42.39651378389429]], [[2.8748489572567073, 42.39723600073326], [2.874727451671859, 42.39723586802805], [2.8746059460878315, 42.39723573519406], [2.8746061253885378, 42.39714567499109], [2.8747276307988257, 42.397145807824664], [2.874849136209934, 42.397145940529455], [2.8748489572567073, 42.39723600073326]], [[2.873512215003455, 42.39732459409099], [2.873633720753801, 42.397324728084385], [2.873633540061524, 42.39741478828117], [2.8735120341374367, 42.397414654287346], [2.8733905282141783, 42.39741452016475], [2.873390709253937, 42.397324459968814], [2.873512215003455, 42.39732459409099]], [[2.8752058006664285, 42.401108985549335], [2.8752059791335918, 42.401018925405374], [2.8753274920194922, 42.401019057612885], [2.875327313726103, 42.40110911775727], [2.8752058006664285, 42.401108985549335]], [[2.876307201206959, 42.39714752294246], [2.8764287066286633, 42.397147653973164], [2.876550212051178, 42.39714778487509], [2.8765503885712427, 42.3970577246641], [2.8766718938208267, 42.39705785543683], [2.876672070166345, 42.396967795223986], [2.8767935752429987, 42.39696792586754], [2.87691508032046, 42.39696805638233], [2.8769149043224176, 42.397058116595986], [2.876793399071219, 42.397057986080796], [2.8767932228986313, 42.397148046292614], [2.8767930467252367, 42.39723810650302], [2.876792870551035, 42.39732816671199], [2.876671364779424, 42.3973280360668], [2.876549859008622, 42.39732790529283], [2.8765496824861305, 42.39741796549957], [2.8764281765423956, 42.39741783459642], [2.876428353238628, 42.39732777439008], [2.8763068474694435, 42.39732764335855], [2.8763070243386064, 42.397237583151224], [2.876307201206959, 42.39714752294246]], [[2.8763066705994698, 42.39741770356448], [2.876185164657355, 42.39741757240376], [2.876185341701069, 42.39732751219825], [2.8763068474694435, 42.39732764335855], [2.8763066705994698, 42.39741770356448]]]}, "properties": {"area_ha": 14.03, "dnbr_threshold": 0.27, "part": 2, "fire_id": "2024170999", "burn_year": 2024, "source": "sentinel", "aoi_source": "official", "buffer_m": 800.0, "fire_date": "2024-09-14"}}, {"type": "Feature", "geometry": {"type": "Polygon", "coordinates": [[[2.8751005405818475, 42.392913374332686], [2.875100362014553, 42.39300343460408], [2.8752218594369623, 42.39300356690346], [2.8753433568601885, 42.393003699074086], [2.875343178639482, 42.3930937593449], [2.8754646762372276, 42.393093891387174], [2.8754644981894075, 42.39318395165697], [2.8755859959616727, 42.3931840835709], [2.875707493734753, 42.39318421535608], [2.8757073160335267, 42.3932742756253], [2.875828813981125, 42.39327440728213], [2.87582863645279, 42.39336446755033], [2.875828458923641, 42.3934545278171], [2.8758282813936793, 42.393544588082456], [2.8757067829249627, 42.39354445642439], [2.8755852844570597, 42.39354432463755], [2.8754637859899717, 42.39354419272197], [2.8753422875236994, 42.39354406067761], [2.875342109298094, 42.39363412093989], [2.8753419310716715, 42.39372418120076], [2.8753417528444323, 42.3938142414602], [2.8753415746163773, 42.39390430171822], [2.875463073777485, 42.39390443376423], [2.8755845729394087, 42.39390456568147], [2.8755843950579583, 42.3939946259389], [2.8757058943944074, 42.3939947577278], [2.875705716685854, 42.39408481798422], [2.8755842171756933, 42.39408468619491], [2.875584039292613, 42.394174746449494], [2.875583861408719, 42.39426480670266], [2.875462361551947, 42.39426467478376], [2.875340861695991, 42.394264542736096], [2.875219361840852, 42.39426441055967], [2.8752191834349996, 42.39435447081017], [2.875340683463853, 42.394354602987015], [2.875340505230899, 42.39444466323651], [2.8754620054342834, 42.394444795285], [2.8754618273742283, 42.3945348555335], [2.8754616493133573, 42.39462491578057], [2.87546147125167, 42.394714976026215], [2.8754612931891677, 42.394805036270455], [2.875339792290916, 42.3948049042203], [2.8753396140538787, 42.394894964462694], [2.875339435816025, 42.39498502470366], [2.8754609370617152, 42.394985156754636], [2.875582438308222, 42.39498528867685], [2.8755822604169925, 42.39507534891723], [2.8757037618380337, 42.39507548071109], [2.8758252632598897, 42.395075612376175], [2.875825085715288, 42.39516567261595], [2.8758249081698724, 42.395255732854324], [2.875946409939985, 42.39525586439148], [2.87606791171091, 42.39525599579986], [2.876189413482647, 42.39525612707946], [2.8761895905068964, 42.39516606683987], [2.876068088908881, 42.39516593556066], [2.876068266106041, 42.39507587532005], [2.8760684433023886, 42.39498581507802], [2.8759469420526274, 42.394985683670875], [2.8759471194218826, 42.39489562342784], [2.8758256183466533, 42.394895491892335], [2.8758257958888156, 42.3948054316483], [2.875704294988118, 42.39480529998445], [2.875704472703185, 42.394715239739384], [2.875825973430164, 42.394715371402825], [2.875826150970699, 42.394625311155934], [2.8757046504174375, 42.3946251794929], [2.8755831498649895, 42.39462504770111], [2.8755833277521443, 42.39453498745364], [2.8755835056384838, 42.39444492720473], [2.8757050058434994, 42.39444505899569], [2.875826506049329, 42.39444519065788], [2.875948006255972, 42.394445322191324], [2.8759481836203524, 42.394355261939765], [2.87594836098392, 42.394265201686785], [2.8760698608439466, 42.39426533309064], [2.876070038032988, 42.3941752728358], [2.8761915377201137, 42.39417540411047], [2.8763130374080492, 42.39417553525639], [2.8763128605664336, 42.39426559551203], [2.876434360428893, 42.39426572652959], [2.876555860292162, 42.3942658574184], [2.87667736015624, 42.39426598817841], [2.8766771838349565, 42.39435604843386], [2.876798683873556, 42.39435617906554], [2.876798860021125, 42.39426611880968], [2.876920359886817, 42.39426624931219], [2.8769205358598655, 42.394176189054484], [2.8769207118321085, 42.39408612879538], [2.877042211351181, 42.394086259168304], [2.8770423871489057, 42.39399619890736], [2.8771638864950715, 42.393996329151115], [2.8771640621182804, 42.39390626888835], [2.87728556129154, 42.39390639900292], [2.877407060465604, 42.393906528988744], [2.8775285596404703, 42.39390665884581], [2.877650058816139, 42.39390678857409], [2.8777715579926086, 42.393906918173634], [2.877771383237955, 42.39399697843844], [2.8778928825889367, 42.39399710790963], [2.8778930571698798, 42.393907047644404], [2.8780145563479502, 42.39390717698642], [2.878014730754383, 42.393817116719376], [2.878136229759542, 42.393817245932226], [2.878136403991467, 42.39372718566337], [2.878257902823715, 42.393727314747046], [2.8782580768811328, 42.39363725447635], [2.87837957554047, 42.393637383430864], [2.8783794016567605, 42.393727443701955], [2.878500900490603, 42.393727572528114], [2.8785010742006034, 42.39363751225661], [2.8785012479098087, 42.3935474519837], [2.87862274639703, 42.393547580680284], [2.878622919931732, 42.39345752040555], [2.878623093465639, 42.39336746012939], [2.8787445916062424, 42.39336758869641], [2.8787447649656492, 42.39327752841842], [2.8788662629333412, 42.39327765685628], [2.8788664361182494, 42.39318759657647], [2.8789879339130304, 42.393187724885166], [2.879109431708604, 42.39318785306511], [2.879109604545311, 42.393097792783074], [2.879231102167972, 42.39309792083386], [2.8792312748301843, 42.39300786055], [2.879352772279934, 42.393007988471616], [2.8794742697304736, 42.39300811626447], [2.87947444204449, 42.392918055978406], [2.8794746143577177, 42.3928279956909], [2.879474786670155, 42.39273793540198], [2.879474958981804, 42.39264787511164], [2.8795964557383282, 42.39264800277414], [2.879596627875488, 42.39255794248199], [2.8797181244591026, 42.39255807001534], [2.8798396210435047, 42.39255819741993], [2.879839449253743, 42.392648257712885], [2.8799609460126314, 42.392648384989116], [2.8799607743957822, 42.392738445281054], [2.8800822713291567, 42.39273857242893], [2.8800824427723057, 42.39264851213659], [2.8800826142146696, 42.39255845184284], [2.8802041108014302, 42.392558578861156], [2.88020428206931, 42.39246851856559], [2.880082785656248, 42.39246839154766], [2.8799612892439703, 42.39246826440098], [2.8799614608584605, 42.39237820410478], [2.879961632472165, 42.392288143807164], [2.8799618040850827, 42.39219808350813], [2.8799619756972143, 42.39210802320766], [2.8800834714147063, 42.39210815035275], [2.8800836428523575, 42.39201809005046], [2.8799621473085604, 42.39201796290578], [2.8799623189191195, 42.391927902602475], [2.879962490528893, 42.391837842297754], [2.8798409953332675, 42.39183771502511], [2.8798411671159463, 42.39174765471938], [2.8797196720948, 42.39174752731838], [2.8795981770744414, 42.39174739978863], [2.8794766820548716, 42.39174727213013], [2.879355187036091, 42.39174714434287], [2.8793550145586444, 42.39183720464702], [2.879233519366962, 42.39183707673061], [2.87911202417607, 42.39183694868545], [2.8791121970009006, 42.391746888382116], [2.8791123698249392, 42.391656828077366], [2.8789908749822226, 42.391656699904246], [2.8788693801402983, 42.391656571602404], [2.8787478852991675, 42.39165644317179], [2.8787480586434855, 42.391566382866806], [2.878748231987009, 42.391476322560415], [2.8787484053297385, 42.391386262252595], [2.878748578671674, 42.39129620194336], [2.8787487520128154, 42.391206141632715], [2.8786272580409222, 42.39120601307536], [2.8785057640698235, 42.391205884389265], [2.878505590381308, 42.39129594469911], [2.878384096237318, 42.391295815883865], [2.8782626020941247, 42.39129568693987], [2.878262428057438, 42.3913857472475], [2.8782622540199534, 42.391475807553704], [2.878262079981672, 42.39156586785847], [2.87814058531821, 42.39156573878451], [2.8780190906555454, 42.39156560958179], [2.8780189162690863, 42.391655669884344], [2.878018741881828, 42.39174573018547], [2.8780185674937706, 42.391835790485175], [2.8780183931049144, 42.391925850783466], [2.8781398884623446, 42.3919259799878], [2.8782613838205724, 42.391926109063384], [2.8782612097783042, 42.39201616936107], [2.8782610357352385, 42.392106229657315], [2.878382531441652, 42.39210635860496], [2.878382357571484, 42.39219641890019], [2.87838218370052, 42.39228647919402], [2.8785036797551204, 42.39228660801371], [2.8785035060570565, 42.392376668306525], [2.878382009828759, 42.39237653948642], [2.8783818359562017, 42.39246659977741], [2.8782603395550037, 42.39246647082814], [2.878260165507952, 42.39255653111731], [2.8782599914601024, 42.39264659140503], [2.8782598174114558, 42.39273665169134], [2.8782596433620116, 42.39282671197624], [2.87825946931177, 42.39291677225971], [2.878259295260731, 42.39300683254176], [2.8781377978181295, 42.393006703461324], [2.8780163003763253, 42.393006574252134], [2.8780161259770836, 42.39309663453195], [2.8780159515770425, 42.393186694810346], [2.878015777176202, 42.39327675508733], [2.878015602774563, 42.3933668153629], [2.8778941046387416, 42.39336668602331], [2.877894279214086, 42.393276625748165], [2.8778944537886306, 42.39318656547158], [2.877772956001019, 42.39318643600405], [2.87777278125277, 42.39327649628023], [2.877651283292254, 42.39327636668354], [2.8776511083694984, 42.39336642695788], [2.877529610236079, 42.39336629723203], [2.877408112103461, 42.393366167377415], [2.8774079368324923, 42.39345622764952], [2.8772864385269714, 42.39345609766574], [2.8771649402222543, 42.393455967553194], [2.877043441918342, 42.3934558373119], [2.8769219436152347, 42.393455706941836], [2.876922119581028, 42.39336564667136], [2.877043617710429, 42.39336577704102], [2.877043793501711, 42.39327571676871], [2.877043969292188, 42.39318565649498], [2.877044145081859, 42.39309559621984], [2.8771656426909518, 42.39309572645951], [2.877165818306115, 42.39300566618253], [2.8771659939204737, 42.392915605904136], [2.8772874911829653, 42.39291573601424], [2.877287666622818, 42.39282567573401], [2.877287842061867, 42.39273561545236], [2.877288017500112, 42.392645555169295], [2.8772881929375536, 42.392555494884824], [2.877166696369862, 42.392555364776356], [2.8770451998029754, 42.39255523453914], [2.8770453755870093, 42.39246517425405], [2.876923879194626, 42.392465043888485], [2.8768023828030485, 42.392464913394164], [2.876802206671618, 42.392554973678436], [2.876802030539381, 42.39264503396129], [2.8769235272783553, 42.392645164456425], [2.876923351319011, 42.39273522473826], [2.8769231753588604, 42.39282528501868], [2.8768016782724852, 42.39282515452273], [2.8768015021378273, 42.39291521480132], [2.876680004878558, 42.392915084176195], [2.8765585076200963, 42.39291495342231], [2.876437010362443, 42.39291482253967], [2.8764371870182055, 42.39282476226233], [2.876315689935063, 42.39282463125134], [2.8763155131055993, 42.39291469152828], [2.8763153362753258, 42.3930047518038], [2.876315159444242, 42.39309481207791], [2.876314982612348, 42.3931848723506], [2.876193484835206, 42.39318474120922], [2.8760719870588742, 42.39318460993906], [2.8760721642381757, 42.393094549667204], [2.8760723414166653, 42.393004489393924], [2.875950843988552, 42.39300435799584], [2.875829346561251, 42.39300422646901], [2.875829524086333, 42.39291416619513], [2.8757080268335478, 42.39291403453995], [2.875586529581576, 42.392913902756014], [2.8755867074532477, 42.39282384248154], [2.8755868853241044, 42.39273378220564], [2.87546538842035, 42.39273365029377], [2.8754655664640913, 42.392643590016874], [2.8754657445070166, 42.39255352973856], [2.875587241063373, 42.39255366164959], [2.8755870631941463, 42.39264372192832], [2.8757085599250156, 42.39264385371102], [2.8758300566567, 42.39264398536497], [2.875951553389197, 42.392644116890146], [2.876073050122506, 42.39264424828659], [2.8760732272969376, 42.39255418800621], [2.8760734044705565, 42.392464127724395], [2.8761949008572807, 42.39246425899124], [2.876316397244816, 42.39246439012934], [2.876437893633161, 42.39246452113868], [2.876559390022315, 42.39246465201927], [2.8765595665003336, 42.3923745917344], [2.876681062716599, 42.39237472248581], [2.8766812390201126, 42.39228466219911], [2.8765597429775434, 42.3922845314481], [2.8764382469357828, 42.392284400568336], [2.8763167508948317, 42.392284269559816], [2.876195254854691, 42.39228413842254], [2.876073758815361, 42.39228400715652], [2.8759522627768423, 42.392283875761734], [2.8758307667391363, 42.39228374423819], [2.8757092707022434, 42.392283612585906], [2.8755877746661644, 42.392283480804856], [2.8755875967993823, 42.392373541087856], [2.8755874189317847, 42.39246360136943], [2.875465922549127, 42.39246346945881], [2.8754661005904216, 42.392373409177644], [2.8754662786309004, 42.392283348895056], [2.875344782596452, 42.3922832168565], [2.875344604382277, 42.39237327713868], [2.8753444261672847, 42.39246333741943], [2.875344247951477, 42.39255339769876], [2.8752227513967528, 42.392553265530196], [2.875222573006429, 42.39264332580769], [2.875101076278823, 42.392643193509976], [2.875100897713983, 42.39273325378563], [2.875100719148324, 42.392823314059875], [2.8751005405818475, 42.392913374332686]], [[2.8757060721021466, 42.39390469746996], [2.8758275712656993, 42.393904829129674], [2.875827393731671, 42.393994889387926], [2.8757058943944074, 42.3939947577278], [2.8757060721021466, 42.39390469746996]], [[2.876921239743999, 42.39381594800953], [2.876921063774175, 42.39390600827289], [2.8769208878035446, 42.393996068534854], [2.87679938845899, 42.39399593803358], [2.8766778891152427, 42.393995807403535], [2.876678065433295, 42.3939057471424], [2.876678241750539, 42.393815686879854], [2.8767997407468657, 42.39381581750907], [2.8767999168895932, 42.39372575724469], [2.8768000930315134, 42.39363569697889], [2.876800269172627, 42.39354563671166], [2.876921767648635, 42.39354576721088], [2.8770432661254493, 42.39354589758136], [2.877043090331751, 42.393635957849405], [2.876921591681229, 42.393635827478526], [2.8769214157130176, 42.39372588774474], [2.876921239743999, 42.39381594800953]], [[2.8782587731028304, 42.393277013379404], [2.878380271067341, 42.393277142332295], [2.878380097186818, 42.39336720260908], [2.8782585990486025, 42.39336707365577], [2.8781371009111836, 42.39336694457371], [2.878137275139117, 42.39327688429774], [2.8782587731028304, 42.393277013379404]], [[2.8785048956192885, 42.39165618592432], [2.8785050693109873, 42.391566125620145], [2.8786265639768387, 42.391566254307854], [2.8786263904588307, 42.391656314612426], [2.8785048956192885, 42.39165618592432]], [[2.879233001408801, 42.39210725763332], [2.879233174062312, 42.39201719733384], [2.8792333467150324, 42.391927137032944], [2.8793548420804074, 42.39192726494974], [2.879476337446573, 42.39192739273779], [2.879476509751117, 42.39183733243468], [2.879598004944379, 42.39183746009357], [2.879719500138429, 42.391837587623726], [2.8797193281812707, 42.391927647927645], [2.879719156223324, 42.39201770823015], [2.8795976606818874, 42.392017580699196], [2.879597488549459, 42.39210764099988], [2.879597316416242, 42.39219770129914], [2.8794758205282047, 42.39219757363864], [2.8794756482205033, 42.39228763393608], [2.879354152159559, 42.392287506146424], [2.8793539796773713, 42.39237756644205], [2.879232483443521, 42.39237743852324], [2.8792326560994055, 42.39228737822802], [2.8792328287544984, 42.39219731793137], [2.8793543246409565, 42.39219744584938], [2.8793544971215637, 42.39210738555093], [2.879233001408801, 42.39210725763332]]]}, "properties": {"area_ha": 5.54, "dnbr_threshold": 0.27, "part": 17, "fire_id": "2024170999", "burn_year": 2024, "source": "sentinel", "aoi_source": "official", "buffer_m": 800.0, "fire_date": "2024-09-14"}}]}
