{"type": "FeatureCollection", "features": [{"type": "Feature", "geometry": {"type": "Polygon", "coordinates": [[[1.195426138121657, 42.37166255956111], [1.1951833457150196, 42.37165873664206], [1.1951678776283237, 42.37219883293961], [1.195410672113047, 42.37220265593054], [1.195413249810651, 42.37211263987284], [1.195534646897539, 42.37211455116961], [1.1955372244101667, 42.37202453510435], [1.19565862133568, 42.372026446266666], [1.1956534666449754, 42.372206478407605], [1.1957748639286387, 42.372208389453434], [1.1957722867387641, 42.37229840552755], [1.195893684207404, 42.37230031645091], [1.195896261224101, 42.37221030037079], [1.1961390558504181, 42.3722141218201], [1.1961339024979356, 42.37239415400274], [1.1963766978641475, 42.37239797496213], [1.1963741215165689, 42.37248799106312], [1.1962527236543863, 42.37248608064167], [1.1962501471218332, 42.372576096735116], [1.1963715451571955, 42.37257800716256], [1.1963638160083048, 42.37284805545161], [1.1962424174533994, 42.37284614500621], [1.1962398408736634, 42.37293616109347], [1.1968468346320489, 42.37294571206568], [1.1968494103458711, 42.37285569594847], [1.1969708089597444, 42.37285760575151], [1.1969682334191054, 42.372947621874715], [1.197575227531239, 42.37295716899274], [1.197580376868897, 42.37277713668497], [1.1977017753803232, 42.372779045711184], [1.1976966263890305, 42.372959078030924], [1.1978180252586093, 42.37296098694065], [1.1978154509184675, 42.37305100310419], [1.1979368499730156, 42.37305291189142], [1.1979317016037467, 42.37323294422581], [1.198174500440939, 42.37323676143878], [1.1981770742850943, 42.373146745260385], [1.1980556750337914, 42.37314483672413], [1.1980582490393488, 42.37305482055017], [1.1983010472073665, 42.373058637482245], [1.1983036208547708, 42.37296862129478], [1.1980608230331218, 42.37296480437466], [1.19806339701511, 42.37287478819761], [1.1981847957468594, 42.372876696715934], [1.198187369543881, 42.37278668053136], [1.1986729638959697, 42.37279431329598], [1.1986755369884796, 42.372704297085924], [1.1987969354327712, 42.372706204949914], [1.1987943625134443, 42.37279622116595], [1.1990371597837293, 42.372800036520474], [1.199032014602472, 42.372980068971806], [1.198789216639452, 42.37297625359335], [1.1987789247501146, 42.37333631842965], [1.1989003244184795, 42.373338226207025], [1.1988977515898849, 42.373428242418214], [1.1992619511852123, 42.37343396499744], [1.1992593788644055, 42.37352398122501], [1.199380778926258, 42.37352588850045], [1.1993756345956943, 42.37370592096294], [1.1994970350157033, 42.37370782812186], [1.199499607013682, 42.3736178118854], [1.1996210072722755, 42.37361971890987], [1.1996184354474873, 42.37370973515229], [1.199861236346377, 42.373713548827745], [1.199858664856198, 42.37380356508057], [1.2001014661485625, 42.37380737825407], [1.2000988949929956, 42.37389739451731], [1.2003416966788298, 42.37390120718885], [1.2003391258578786, 42.37399122346249], [1.2007033289944826, 42.37399694152414], [1.200700758681345, 42.37408695781416], [1.2008221599236095, 42.37408886358372], [1.2008195897718996, 42.37417887987818], [1.201305195551399, 42.37418650169556], [1.2012949175980527, 42.37454656695345], [1.20093071116741, 42.374540850711476], [1.2009281411300656, 42.374630867004164], [1.2011709457517947, 42.37463467797259], [1.20116580633461, 42.37481471057724], [1.2016253588802588, 42.374821922101596], [1.2016518338691504, 42.374807727954696], [1.2016539861265148, 42.37473231469462], [1.2015325835895132, 42.374730409782615], [1.2015351527726212, 42.374640393461604], [1.2017779575119851, 42.3746442031452], [1.201775388675278, 42.37473421947815], [1.2017772861161604, 42.374734249244625], [1.2019254818602467, 42.37464651757311], [1.2018993598993082, 42.37464610779429], [1.2019019285510557, 42.37455609145381], [1.2016591241345695, 42.37455228203911], [1.2016616931209552, 42.374462265709035], [1.2014188890979127, 42.37445845579236], [1.2014214584189329, 42.37436843947268], [1.201664262095579, 42.37437224937742], [1.2016668310584417, 42.37428223304426], [1.20142402772819, 42.37427842315147], [1.2014291663114167, 42.37409839050439], [1.2011863637210003, 42.37409458012156], [1.2011940725467842, 42.373824531175195], [1.2013154733165288, 42.37382643641293], [1.2013129038928911, 42.373916452735905], [1.2014343048475922, 42.37391835785114], [1.2014317355853856, 42.37400837417853], [1.2016745378764635, 42.3740121840355], [1.201671968948884, 42.37410220037331], [1.201914771633395, 42.3741060097283], [1.201912203040446, 42.3741960260765], [1.2020336045735374, 42.374197930567256], [1.202031036142026, 42.374287946919864], [1.202273839589878, 42.374291755527864], [1.2022764076749954, 42.37420173916332], [1.20264061241536, 42.37420745109381], [1.2026431799691324, 42.3741174347098], [1.202843519004551, 42.37412057604373], [1.202966768205435, 42.374054328404256], [1.2031339379353643, 42.373944367019924], [1.2031416198900533, 42.37367496673206], [1.2032630205015291, 42.373676869902226], [1.2032655871188147, 42.373586853479125], [1.2033869875688488, 42.373588756514835], [1.2033844211247553, 42.37367877294391], [1.2034812859461668, 42.37368029126667], [1.203506467877987, 42.37365801213055], [1.2035083880306325, 42.373590659422085], [1.2035808308855007, 42.37359179486022], [1.2036312126015403, 42.373542605893284], [1.2036323545901264, 42.37350254575832], [1.2035109542897857, 42.37350064298552], [1.2035135205371892, 42.373410626547404], [1.203392120421787, 42.37340872365208], [1.2033946868306324, 42.37331870721838], [1.2037588866925149, 42.37332441550101], [1.203756320803239, 42.373414431952604], [1.2037623970147036, 42.3734145271721], [1.2037876384209973, 42.373389883337055], [1.2039714318049477, 42.37316934688271], [1.204104061209517, 42.37296959770609], [1.2038905494168546, 42.372966252159266], [1.203887983747753, 42.373056268623], [1.2035237854093201, 42.373050560779454], [1.2035212192089104, 42.37314057722377], [1.203278420028988, 42.373136771340434], [1.2032707203181343, 42.37340682062829], [1.2031493202262318, 42.373404917476016], [1.2031441866805304, 42.37358495031492], [1.2030227862539982, 42.37358304702224], [1.2030253532059159, 42.373493030609524], [1.2029039529643262, 42.37349112719434], [1.2029065200776812, 42.373401110786055], [1.2027851200210342, 42.373399207248355], [1.2027825527344889, 42.37348922365067], [1.2025397523100763, 42.37348541617792], [1.202537184665396, 42.37357543256677], [1.2024157842976315, 42.37357352863171], [1.202413216468004, 42.373663545013045], [1.2022918159388036, 42.373661640943546], [1.202289247924228, 42.37375165731737], [1.2019250458875952, 42.37374594432009], [1.2019276144217472, 42.373655927964165], [1.2018062139395795, 42.37365402338075], [1.2018036452322352, 42.37374403973071], [1.2014394433367181, 42.3737383251917], [1.2014445817787947, 42.37355829252608], [1.201080381028287, 42.373552576866615], [1.2010778112935574, 42.37364259318228], [1.2009564108937252, 42.373640687699535], [1.2009692603156723, 42.37319060613562], [1.2008478607935515, 42.373188700554266], [1.2008504308158323, 42.37309868424282], [1.2007290314786636, 42.37309677853896], [1.2007367419944641, 42.37282672961328], [1.2003725456122274, 42.372821011784616], [1.2003751162801777, 42.37273099549089], [1.2002537176828192, 42.37272908929704], [1.2002562885121832, 42.372639073007726], [1.2001348900997761, 42.37263716669137], [1.200127177056826, 42.37290721553671], [1.1998843792282254, 42.372903402482734], [1.1998869506006808, 42.37281338621446], [1.1996441531655364, 42.37280957265855], [1.199651868251362, 42.37253952388027], [1.2000160628630974, 42.37254524396765], [1.2000186340152836, 42.37245522768722], [1.2005042263029992, 42.372462852647885], [1.2005067967506942, 42.37237283634201], [1.2003853988342916, 42.37237093030051], [1.200387969443398, 42.37228091399906], [1.2001451739922584, 42.37227710154263], [1.2001426030367932, 42.37236711783213], [1.2000212051556987, 42.372365211405224], [1.200023776284343, 42.372275195121695], [1.199902378588199, 42.372273288572316], [1.1999075211565307, 42.37209325601256], [1.199786123818514, 42.372091349346654], [1.199791266686112, 42.37191131679269], [1.2000340606812117, 42.37191512997214], [1.200026347401217, 42.372185178836624], [1.2002691424824603, 42.37218899153805], [1.2002717132412075, 42.37209897523948], [1.2005145080231734, 42.37210278741508], [1.2005196488126544, 42.37192275478941], [1.2010052371323763, 42.371930377551195], [1.2010129461502455, 42.37166032852941], [1.200891549572191, 42.371658423049595], [1.2008941193944591, 42.37156840671187], [1.20101551579934, 42.37157031218572], [1.2010257942780784, 42.37121024679554], [1.200783002865451, 42.37120643576716], [1.2007881427269123, 42.37102640308669], [1.2004239567352248, 42.37102068561646], [1.2004265271678103, 42.37093066929183], [1.2003051320339497, 42.370928763217464], [1.200307702627934, 42.37083874689726], [1.2001863076790087, 42.37083684070041], [1.200191449178003, 42.37065680806732], [1.2000700545871763, 42.37065490175396], [1.200067483670399, 42.37074491806529], [1.199824694177727, 42.37074110504122], [1.1998272654408342, 42.37065108874183], [1.1995844763415775, 42.37064727521586], [1.1995870479392412, 42.37055725892687], [1.1994656535804356, 42.370555351977174], [1.1994605100270075, 42.37073538454162], [1.1995819047321412, 42.37073729150329], [1.1995741898331935, 42.37100734035633], [1.199210004194619, 42.371001619032164], [1.199215148511356, 42.37082158650088], [1.1989723588371821, 42.370817771666374], [1.1989697863383693, 42.37090778792083], [1.198484206438688, 42.37090015668631], [1.1984816332354318, 42.3709901729153], [1.1983602381167942, 42.37098826477953], [1.1983576647285912, 42.371078281001], [1.1979934789238655, 42.371072555804965], [1.1979960528315698, 42.37098253960145], [1.197753262700337, 42.37097872217373], [1.197750688446298, 42.37106873836529], [1.197629293225192, 42.37106682945276], [1.197624144335424, 42.37124686181925], [1.1973813532358992, 42.371243043584855], [1.1973787784269974, 42.37133305975383], [1.1971359870282845, 42.3713292409936], [1.197138562183524, 42.3712392248366], [1.1967743756933829, 42.371233495750715], [1.1967718000186374, 42.37132351188978], [1.1961648219050687, 42.37131396081408], [1.196159668788506, 42.37149399302765], [1.1959168769329642, 42.37149017167417], [1.1959117230765337, 42.37167020385758], [1.195668930575497, 42.37166638196628], [1.1956740851246113, 42.371486349806815], [1.1957954810228888, 42.37148826080471], [1.1958032122385616, 42.37121821253595], [1.1954390261376477, 42.37121247921073], [1.1954338709666528, 42.37139251135552], [1.1953124752769442, 42.37139059997821], [1.195309897500577, 42.37148061604229], [1.1954312933634548, 42.3714825274256], [1.195426138121657, 42.37166255956111]], [[1.1962810647339703, 42.371495903511686], [1.196278488331166, 42.37158591962214], [1.1961570922125306, 42.371584009132114], [1.196159668788506, 42.37149399302765], [1.1962810647339703, 42.371495903511686]], [[1.1955526892381336, 42.37148443868044], [1.1955578440863905, 42.37130440652677], [1.19567923962653, 42.37130631764116], [1.1956740851246113, 42.371486349806815], [1.1955526892381336, 42.37148443868044]], [[1.2002228668124018, 42.373809284648104], [1.2002254377830055, 42.37371926837734], [1.2009538409740395, 42.37373070400769], [1.2009487010993718, 42.37391073661934], [1.2004630975394026, 42.3739031133319], [1.2004656681753914, 42.373813097050736], [1.2002228668124018, 42.373809284648104]], [[1.2002305796889023, 42.37353923583119], [1.200228008741839, 42.37362925210504], [1.200106608424383, 42.37362734572296], [1.2001040372923582, 42.3737173619893], [1.199982636813482, 42.37371545547275], [1.1999877794121414, 42.373535422950496], [1.2002305796889023, 42.37353923583119]], [[1.2003494090710654, 42.37363115835865], [1.2003519798449382, 42.373541142078814], [1.2004733800127447, 42.37354304819798], [1.2004708094120626, 42.373633064483776], [1.2003494090710654, 42.37363115835865]], [[1.1998689507462785, 42.37344350005998], [1.1998715221893672, 42.37335348380097], [1.2001143217498302, 42.373357296914705], [1.200111750653119, 42.373447313185665], [1.1998689507462785, 42.37344350005998]], [[1.2007187506261954, 42.37345684375156], [1.2007213208569627, 42.373366827450745], [1.200842720713693, 42.37336873317252], [1.2008401506561148, 42.37345874947932], [1.2007187506261954, 42.37345684375156]], [[1.199155986024982, 42.37289196023745], [1.1991585584365383, 42.37280194400503], [1.1992799571011243, 42.37280385136113], [1.1992773848627516, 42.3728938675995], [1.199155986024982, 42.37289196023745]], [[1.1964877907965823, 42.37275994966775], [1.1964903670063642, 42.372669933565405], [1.1966117652384962, 42.372671843741884], [1.196609189201895, 42.372761859850215], [1.1964877907965823, 42.37275994966775]], [[1.1980839884468009, 42.37215465872559], [1.1980865623227355, 42.37206464253464], [1.1979651651613878, 42.37206273394168], [1.197970313224257, 42.3718827015671], [1.1982131068660358, 42.37188651860061], [1.198210533186843, 42.37197653480063], [1.1983319301985818, 42.37197844313066], [1.198329356680782, 42.37206845933512], [1.198693548306213, 42.37207418357234], [1.198696121304485, 42.37198416734992], [1.1989389154339858, 42.371987982853774], [1.1989414880741274, 42.37189796661786], [1.1990628849833695, 42.3718998741711], [1.1990577400376599, 42.372079906653326], [1.1989363427820665, 42.372077999088134], [1.198931197442893, 42.37225803155224], [1.1990525950448412, 42.37225993912939], [1.1990500225307659, 42.3723499553651], [1.1989286247556388, 42.37234804778197], [1.1989260520566072, 42.372438064010154], [1.1986832561953296, 42.37243424844651], [1.1986806831381591, 42.3725242646612], [1.1988020812360887, 42.37252617251323], [1.1987995083403196, 42.372616188732344], [1.1980711188903725, 42.37260473965719], [1.1980685449437358, 42.37269475583888], [1.1977043498582898, 42.37268902954899], [1.1977069243244702, 42.372599013385255], [1.1978283225013198, 42.37260092227104], [1.1978308967825333, 42.37251090609978], [1.1979522947979873, 42.37251281485111], [1.1979574429787003, 42.37233278249199], [1.1978360453096049, 42.37233087375261], [1.1978411937895357, 42.37215084139927], [1.1980839884468009, 42.37215465872559]], [[1.1968571374165857, 42.372585647587584], [1.1968622887381033, 42.37240561533926], [1.1969836864860728, 42.37240752511238], [1.1969785355109142, 42.37258755737267], [1.1968571374165857, 42.372585647587584]], [[1.1997809809038262, 42.37227138189444], [1.1997784094288237, 42.372361398166014], [1.1998998072863758, 42.37236330484986], [1.1998972359727806, 42.37245332112587], [1.1996544399230902, 42.372449507617766], [1.1996595832312262, 42.37226947508812], [1.1997809809038262, 42.37227138189444]], [[1.1967460426226315, 42.37222367319516], [1.1967486184152965, 42.37213365707157], [1.196870015631942, 42.372135566955194], [1.1968674400124544, 42.37222558308476], [1.1967460426226315, 42.37222367319516]], [[1.1969914128603796, 42.37213747671035], [1.1969991391285701, 42.37186742829441], [1.1976061228499717, 42.371876975053354], [1.1976035483049048, 42.371966991223466], [1.1973607544346303, 42.37196317289332], [1.1973581795314256, 42.37205318904992], [1.1971153853619523, 42.372049370193935], [1.1971128101006079, 42.37213938633703], [1.1969914128603796, 42.37213747671035]], [[1.1961467857906714, 42.37194407353452], [1.19614936241383, 42.371854057436245], [1.1963921557019306, 42.37185787832376], [1.196387003136514, 42.37203791054274], [1.1962656061402182, 42.372036000151226], [1.1962681826019979, 42.37194598404851], [1.1961467857906714, 42.37194407353452]], [[1.1967563457225374, 42.371863608691555], [1.1967537699652493, 42.371953624819774], [1.1966323731067465, 42.37195171481965], [1.1966375249558787, 42.37177168257364], [1.1967589214680343, 42.37177359256178], [1.1967614972017384, 42.37168357643047], [1.1970042899150788, 42.371687396009385], [1.1970017145277199, 42.37177741215266], [1.1968803179919816, 42.37177550242146], [1.1968777424196584, 42.37186551855722], [1.1967563457225374, 42.371863608691555]], [[1.1985850168253933, 42.37162219452414], [1.198577297417071, 42.37189224318734], [1.1983345037045996, 42.37188842692465], [1.1983396506812907, 42.37170839450799], [1.1982182541890745, 42.371706486195905], [1.19822082783292, 42.37161646999124], [1.1983422241519635, 42.37161837829734], [1.1983447976108546, 42.37152836208515], [1.198466193768508, 42.371530270256805], [1.1984636204827879, 42.37162028647498], [1.1985850168253933, 42.37162219452414]], [[1.1997938381022524, 42.37182130051338], [1.199796409506621, 42.371731284232524], [1.199917806151936, 42.37173319087454], [1.1999152349207416, 42.37182320716137], [1.1997938381022524, 42.37182130051338]], [[1.197859213098066, 42.371520728113865], [1.1978643613658695, 42.371340695732705], [1.19798575713005, 42.37134260440627], [1.1979780352301814, 42.37161265299363], [1.1977352426745784, 42.37160883548217], [1.1977378169993287, 42.37151881929988], [1.197859213098066, 42.371520728113865]], [[1.200163170350955, 42.37164698747283], [1.2001683120617972, 42.37146695486756], [1.2004111043957824, 42.371470767216444], [1.2004136748872065, 42.37138075089954], [1.2005350708986804, 42.37138265687531], [1.2005299302504078, 42.371562689519514], [1.2004085338925903, 42.3715607835318], [1.2004059633776296, 42.37165079984561], [1.200163170350955, 42.37164698747283]], [[1.1981045791243459, 42.37143452915466], [1.1981071529060145, 42.371344512951346], [1.1982285486937625, 42.371346421367974], [1.1982259750852644, 42.371436437577266], [1.1981045791243459, 42.37143452915466]], [[1.199078319537854, 42.3713597766873], [1.1990834642951362, 42.37117974418033], [1.199326255378199, 42.37118355880574], [1.199321111313596, 42.371363591336625], [1.199078319537854, 42.3713597766873]]]}, "properties": {"area_ha": 9.897, "dnbr_threshold_core": 0.35, "dnbr_threshold_grow": 0.22, "dnbr_mean": 0.3773, "dnbr_max": 0.8707, "severity": "moderada", "severity_method": "dnbr_mean", "forest_mask": "esa_worldcover_2021_10_20", "part": 5, "fire_id": "292091", "burn_year": 2026, "source": "sentinel", "aoi_source": "effis", "dnbr_threshold": 0.35, "buffer_m": 1200.0, "post_windows": 2, "post_window_dates": [{"start": "2026-03-25", "end": "2026-04-17"}, {"start": "2026-04-17", "end": "2026-05-17"}], "pre_window": {"start": "2026-01-02", "end": "2026-03-11"}, "fire_date": "2026-03-18"}}]}
