{"type": "FeatureCollection", "features": [{"type": "Feature", "geometry": {"type": "Polygon", "coordinates": [[[0.8545017237256505, 41.971064623765564], [0.85462233153787, 41.971066878658874], [0.8546253530691295, 41.970976874786864], [0.8547459607255868, 41.97097912954649], [0.8547520034076672, 41.97079912178351], [0.8548726107388191, 41.97080137640239], [0.8548756318896418, 41.97071137251143], [0.854996239065032, 41.97071362699664], [0.8549992600325297, 41.97062362309702], [0.8551198670521594, 41.97062587744855], [0.8551319501061787, 41.970265861805814], [0.8548907374370256, 41.97026135303277], [0.8548937585051573, 41.97017134913225], [0.8547731523607915, 41.9701690945629], [0.854776173584679, 41.97007909066787], [0.8545349616763698, 41.97007458116353], [0.8545410047609446, 41.969894573396985], [0.8544203991665381, 41.969892318469064], [0.8544234208576852, 41.969802314590474], [0.8543028154465984, 41.96980005954303], [0.8543058372934956, 41.96971005566994], [0.8541852320657277, 41.969707800502974], [0.8541822100492965, 41.969797804368994], [0.8539409992960518, 41.96979329364111], [0.8539440216515511, 41.969703289789244], [0.8538234164651431, 41.9697010342425], [0.8538173714012877, 41.96988104193048], [0.8535761603917003, 41.969876530428834], [0.8535670916752858, 41.97014654190638], [0.8536876976817943, 41.970148797741736], [0.853684674918281, 41.97023880157146], [0.8533228564315148, 41.97023203366437], [0.8533258797036414, 41.970142029855865], [0.8532052737385054, 41.970139773640724], [0.8532113205804568, 41.96995976603311], [0.8529701093697087, 41.96995525325133], [0.8529761568346301, 41.96977524566566], [0.8528555515890157, 41.969772989099035], [0.852858575470319, 41.96968298531089], [0.8529791805464, 41.96968524187044], [0.8529822042443764, 41.969595238073616], [0.852861599337829, 41.96959298152116], [0.8528767184684634, 41.96914296254858], [0.8527561144233607, 41.96914070590494], [0.8527591383776343, 41.96905070211271], [0.8526385345158541, 41.96904844534956], [0.8526203895661159, 41.96958846803644], [0.8524997847009521, 41.96958621110419], [0.8524967603248448, 41.969676214872685], [0.852376155303946, 41.96967395780675], [0.852373130744509, 41.96976396156656], [0.852252525567874, 41.969761704366945], [0.8522555502968441, 41.96967170061422], [0.8521349453035406, 41.969669443295096], [0.8521379701882449, 41.96957943954785], [0.8520173653782729, 41.969577182109205], [0.8520203904187091, 41.96948717836748], [0.8517791811792264, 41.969482663124566], [0.851770104999325, 41.9697526743025], [0.8518907101207623, 41.96975493200851], [0.851887684869393, 41.96984493573839], [0.8520082901741642, 41.96984719332489], [0.8520052650785287, 41.96993719706025], [0.8522464760685391, 41.96994171186761], [0.8522313520787288, 41.970391730591395], [0.8524725648193033, 41.9703962449632], [0.8524695403190243, 41.97048624871733], [0.8527107534538667, 41.97049076259691], [0.8527137776150672, 41.9704007588286], [0.852954990466013, 41.9704052721876], [0.8529610380688734, 41.97022526461786], [0.8532022502968415, 41.970229777442135], [0.8531962033721358, 41.9704097850402], [0.8534374163334281, 41.970414297386384], [0.8534253236748345, 41.970774312620016], [0.853545930854332, 41.97077656863152], [0.8535429078247482, 41.97086657244304], [0.8536635151875804, 41.97086882833503], [0.8536574694261303, 41.971048835967416], [0.8537780771418412, 41.97105109174695], [0.8537810998599161, 41.970961087924486], [0.8539017074198713, 41.97096334357035], [0.8538926397329141, 41.97123335505423], [0.8540132478152948, 41.971235610594725], [0.8540102253949454, 41.971325614426576], [0.854372050233453, 41.97133238030967], [0.854378094043081, 41.97115237260191], [0.854498702011061, 41.97115462762891], [0.8545017237256505, 41.971064623765564]]]}, "properties": {"area_ha": 2.5, "dnbr_threshold_core": 0.35, "dnbr_threshold_grow": 0.22, "dnbr_mean": 0.3728, "dnbr_max": 0.74, "severity": "moderada", "severity_method": "dnbr_mean", "forest_mask": "esa_worldcover_2021_10_20", "part": 2, "fire_id": "561274", "burn_year": 2026, "source": "sentinel", "aoi_source": "effis", "dnbr_threshold": 0.35, "buffer_m": 1200.0, "post_windows": 2, "post_window_dates": [{"start": "2026-07-18", "end": "2026-08-10"}, {"start": "2026-08-10", "end": "2026-09-09"}], "pre_window": {"start": "2026-04-27", "end": "2026-07-04"}, "fire_date": "2026-07-11"}}, {"type": "Feature", "geometry": {"type": "Polygon", "coordinates": [[[0.8573237769518685, 41.97688121347526], [0.857326795295145, 41.97679120953545], [0.8578092707361934, 41.97680021746946], [0.8578032353926466, 41.976980225404], [0.8581650931355711, 41.976986980067274], [0.8581681103054345, 41.976896976079615], [0.8582887294110082, 41.97689922737372], [0.858300797274434, 41.976539211378864], [0.8584214157153874, 41.976541462518064], [0.8584244324772405, 41.976451458508315], [0.8583038142058814, 41.97644920737617], [0.8583098480274859, 41.976269199365994], [0.8581892301090761, 41.97626694812135], [0.8581922471688247, 41.976176944120944], [0.8580716294337695, 41.97617469275674], [0.8580806810392038, 41.97590468076716], [0.8582012982654886, 41.97590693211016], [0.858207332261112, 41.97572692409501], [0.8583279491619844, 41.97572917529725], [0.85833398276338, 41.97554916726161], [0.8584545993388415, 41.97555141832311], [0.8584606325460166, 41.975371410266945], [0.8585812487960696, 41.97537366118769], [0.8585963307252642, 41.97492364098411], [0.858716946141165, 41.97492589174291], [0.8587199623161414, 41.97483588769035], [0.8588405775762221, 41.974838138315455], [0.8588496255098567, 41.97456812612703], [0.8589702402749592, 41.97457037660433], [0.8589732560557419, 41.97448037253128], [0.8588526414602167, 41.974478122061036], [0.8588647051240722, 41.974118105781145], [0.8586234773309005, 41.974113604517306], [0.8586325259517638, 41.973843592333026], [0.858511912584535, 41.973841341532385], [0.8585179452687861, 41.9736613334157], [0.8583973322544586, 41.97365908250255], [0.8584063816863382, 41.973389070336765], [0.858285769194478, 41.9733868193182], [0.8582887858138163, 41.97329681526683], [0.8581681735052844, 41.9732945641287], [0.858171190280427, 41.9732045600828], [0.8579299660437829, 41.97320005744085], [0.8579329831442939, 41.97311005340747], [0.8578123712161821, 41.97310780190363], [0.8578153884724938, 41.97301779787574], [0.8581772237894252, 41.97302455198619], [0.8581983406374138, 41.97239452359793], [0.8583189512503193, 41.9723967746654], [0.8583219677182836, 41.97230677059649], [0.8582013572749366, 41.97230451953609], [0.8582134236874109, 41.9719445032728], [0.8583340334525323, 41.971946754304945], [0.8583400662370936, 41.97176674614962], [0.8579782380003378, 41.97175999271575], [0.8579872885999454, 41.9714899805344], [0.8578666797238741, 41.971487729157744], [0.8578606456654618, 41.9716677372661], [0.8577400364640503, 41.97166548574872], [0.857737019244647, 41.97175548979344], [0.8572545818984418, 41.97174648242956], [0.8572636355499814, 41.97147647037543], [0.8573842443572287, 41.97147872238509], [0.8573872620439906, 41.97138871835679], [0.8576284793606836, 41.97139322198219], [0.8576314966945806, 41.97130321793817], [0.857752105204025, 41.97130546955388], [0.8577551223546087, 41.9712154655012], [0.8579963390756903, 41.9712199683387], [0.8580144396556008, 41.97067994390431], [0.8572907957611842, 41.97066643412693], [0.8572877780150062, 41.97075643816091], [0.857167170577904, 41.97075418608117], [0.8571641526484157, 41.97084419010649], [0.8572847602550617, 41.970846442193306], [0.8572696712488395, 41.97129646233135], [0.857149062794458, 41.9712942102092], [0.8571430267565011, 41.97147421823914], [0.8569018092108451, 41.97146971358674], [0.8568987908321137, 41.97155971758518], [0.8567781819103887, 41.971557465062], [0.8567812004586711, 41.97146746107064], [0.856539982995634, 41.97146295565861], [0.8565369641082512, 41.97155295963584], [0.8564163552278395, 41.971550706732835], [0.8564133361571336, 41.9716407107014], [0.8562927271209432, 41.97163845766473], [0.8562866885991086, 41.97181846558295], [0.8561660792375884, 41.971816212405514], [0.8561690986749452, 41.971726208454264], [0.8560484894967513, 41.97172395515731], [0.8560545286692435, 41.9715439472642], [0.8561751375083345, 41.971546200547024], [0.8561781569043687, 41.97145619659101], [0.8564193742847725, 41.97146070276268], [0.8564223933279338, 41.97137069879092], [0.856301784800394, 41.97136844577546], [0.8563048039993316, 41.97127844180918], [0.856546020729085, 41.97128294769936], [0.8565520584074492, 41.97110293973375], [0.8567932745140977, 41.971107445089224], [0.8568113851841417, 41.97056742106932], [0.8566907781412001, 41.97056516849731], [0.8566937967075561, 41.97047516449548], [0.8558495489793668, 41.97045939299599], [0.8558465292262195, 41.970549396948314], [0.8557259222934619, 41.97054714336347], [0.8557229023569962, 41.97063714730714], [0.8556022952684733, 41.970634893588624], [0.855599275148688, 41.97072489752361], [0.8553580606738882, 41.97072038969264], [0.8553550402012394, 41.970810393611885], [0.8551138254424678, 41.97080588526034], [0.8551077837776541, 41.97098589306579], [0.8548665683958273, 41.970981384179524], [0.854857504777974, 41.971251395833264], [0.8547368965990952, 41.97124914117901], [0.8547278323485538, 41.97151915279718], [0.8544866150148547, 41.97151464306638], [0.8544805714340422, 41.97169465077555], [0.8543599624487701, 41.97169239570608], [0.854341830358167, 41.9722324187529], [0.8545830503771376, 41.972236928850144], [0.8545709633974689, 41.972596944239434], [0.8546915741058606, 41.972599199126456], [0.8546855308724355, 41.97277920682569], [0.8548061419337319, 41.97278146160025], [0.854800098984291, 41.972961469307265], [0.8549207103984935, 41.972963723969364], [0.8549176890726601, 41.97305372782755], [0.855038300670208, 41.97305598237012], [0.8550352795001547, 41.973145986233796], [0.8552765030757244, 41.973150494953224], [0.8552704613725294, 41.973330502704094], [0.8558735222482542, 41.97334177235766], [0.8558705022238156, 41.973431776266075], [0.8559911146098611, 41.97343402982402], [0.855969975240007, 41.97406405718782], [0.8562112024273999, 41.97406856402285], [0.8562081828014585, 41.974158567939746], [0.8564494103830987, 41.97416307428246], [0.8564433717681849, 41.974343082139725], [0.8563227576313297, 41.97434082901755], [0.8563197381336374, 41.97443083293671], [0.8559578952969994, 41.97442407278921], [0.85594279505825, 41.97487409225512], [0.8558221799590393, 41.97487183858402], [0.8558191597003775, 41.97496184246534], [0.855577929204133, 41.974957334729126], [0.8555688673279912, 41.97522734632111], [0.8554482515917966, 41.97522509224184], [0.8554452307692737, 41.97531509609558], [0.8556864625946083, 41.97531960414163], [0.8556743805233784, 41.97567961959723], [0.8557949971350525, 41.975681873458605], [0.8557889563559322, 41.97586188119099], [0.8556683394050845, 41.97585962731546], [0.8556653188252673, 41.9759496311722], [0.855785935945703, 41.9759518850548], [0.8557798950839073, 41.97613189277762], [0.8556592776242937, 41.97612963888087], [0.8556562570031369, 41.976219642732815], [0.8557768746323404, 41.976221896636645], [0.8557708336878674, 41.97640190434992], [0.8558914516700334, 41.97640415814125], [0.8558733295234687, 41.97694418128525], [0.8561145675642708, 41.97694868857292], [0.856108527416906, 41.977128696303126], [0.8568322439051288, 41.97714221521186], [0.8568382820173183, 41.9769622073968], [0.8572001394297891, 41.97696896509924], [0.8572031579564326, 41.97687896116812], [0.8573237769518685, 41.97688121347526]], [[0.8566424792067042, 41.97200523230982], [0.8567630889624224, 41.97200748499495], [0.8567600703315175, 41.97209748897676], [0.856639460406244, 41.97209523628456], [0.8566424792067042, 41.97200523230982]], [[0.8557138424649405, 41.97090715912856], [0.8559550577005791, 41.97091166622821], [0.8559520380480979, 41.971001670179646], [0.8557108224733685, 41.97099716306585], [0.8557138424649405, 41.97090715912856]]]}, "properties": {"area_ha": 16.38, "dnbr_threshold_core": 0.35, "dnbr_threshold_grow": 0.22, "dnbr_mean": 0.5546, "dnbr_max": 0.8732, "severity": "alta", "severity_method": "dnbr_mean", "forest_mask": "esa_worldcover_2021_10_20", "part": 4, "fire_id": "561274", "burn_year": 2026, "source": "sentinel", "aoi_source": "effis", "dnbr_threshold": 0.35, "buffer_m": 1200.0, "post_windows": 2, "post_window_dates": [{"start": "2026-07-18", "end": "2026-08-10"}, {"start": "2026-08-10", "end": "2026-09-09"}], "pre_window": {"start": "2026-04-27", "end": "2026-07-04"}, "fire_date": "2026-07-11"}}]}
