{"type": "FeatureCollection", "features": [{"type": "Feature", "geometry": {"type": "Polygon", "coordinates": [[[0.7373566140431163, 41.23875188200427], [0.7374758563679416, 41.23875422627498], [0.7374727507691128, 41.23884423454619], [0.7373535082809528, 41.2388418902681], [0.7372342658068799, 41.23883954586663], [0.737231159867294, 41.23892955412148], [0.7373504025047024, 41.238931898530325], [0.7373472967143645, 41.23902190679095], [0.7373441909099394, 41.23911191504996], [0.7374634338881076, 41.239114259350195], [0.7374603282329322, 41.239204267614994], [0.7374572225636704, 41.23929427587818], [0.7374541168803216, 41.23938428413975], [0.737334873412138, 41.2393819398174], [0.7373317675513628, 41.23947194806999], [0.7372125239339278, 41.239469603616854], [0.737209417895724, 41.23955961186048], [0.7370901741290363, 41.23955726727659], [0.7370932803305806, 41.23946725904034], [0.7369740367413229, 41.23946491434046], [0.7369771430921175, 41.239374906110015], [0.7368578996802895, 41.239372561294125], [0.7368610061803328, 41.239282553069444], [0.736741762945934, 41.23928020813756], [0.7366225197256262, 41.239277863082314], [0.7366256265382553, 41.23918785487079], [0.7367448695952248, 41.23919019991867], [0.7367479762304242, 41.23910019169816], [0.7366287333367916, 41.239097846657664], [0.7366318401212362, 41.23900783844294], [0.7367510828515321, 41.23901018347605], [0.7367541894585499, 41.23892017525233], [0.7367572960514761, 41.23883016702702], [0.736876538469192, 41.23883251192199], [0.7368796448846929, 41.23874250368769], [0.7369988871531656, 41.238744848451894], [0.7370019933912426, 41.2386548402086], [0.7370050996152309, 41.23856483196371], [0.7370082058251297, 41.23847482371721], [0.7368889640466556, 41.23847247897515], [0.7367697222822718, 41.23847013410971], [0.736766615745709, 41.23856014234144], [0.7366473738320836, 41.23855779734525], [0.7366504805319782, 41.2384677891209], [0.7365312387957761, 41.23846544400871], [0.7365281319325501, 41.238555452225675], [0.7364088900471083, 41.23855310698273], [0.73628964817576, 41.238550761616416], [0.7362927553656498, 41.238460753414216], [0.7361735136717268, 41.238458407931915], [0.7361766210108541, 41.2383683997355], [0.736057379494356, 41.2383660541372], [0.7360542719918977, 41.23845606232623], [0.7359350303261639, 41.23845371659719], [0.7359319226462795, 41.238543724777216], [0.7360511644753442, 41.238546070513664], [0.7360480569446954, 41.2386360786995], [0.7360449493999517, 41.23872608688372], [0.7360418418411132, 41.23881609506633], [0.7360387342681778, 41.23890610324735], [0.7360356266811476, 41.238996111426765], [0.7360325190800225, 41.23908611960456], [0.7360294114648013, 41.239176127780766], [0.7360263038354841, 41.23926613595538], [0.7361455469853246, 41.23926848162752], [0.7361486544513041, 41.23917847344553], [0.7362678974519011, 41.23918081898692], [0.7363871404665924, 41.23918316440491], [0.7365063834953771, 41.23918550969954], [0.736503276519411, 41.23927551790368], [0.7363840333272885, 41.23927317260166], [0.7362647901492592, 41.239270827176284], [0.7362616828325229, 41.23936083536404], [0.7362585755016933, 41.239450843550195], [0.7362554681567678, 41.23954085173476], [0.736136224502816, 41.23953850616384], [0.7361393320110808, 41.239448497986665], [0.7361424395052503, 41.239358489807884], [0.7360231961920716, 41.23935614412837], [0.7360200885345636, 41.23944615229975], [0.7360169808629589, 41.23953616046954], [0.7360138731772585, 41.239626168637734], [0.7361331169804561, 41.2396285143394], [0.7361300094440009, 41.239718522513364], [0.7361269018934502, 41.23980853068572], [0.7361237943288045, 41.239898538856465], [0.7362430386361228, 41.23990088445692], [0.7362399312207246, 41.239990892633465], [0.7362368237912321, 41.24008090080839], [0.7363560684393331, 41.24008324630023], [0.7363591757054818, 41.23999323811792], [0.7364784202043327, 41.23999558347899], [0.7364753131015286, 41.240085591668695], [0.7365945577778176, 41.24008793691378], [0.7367138024681988, 41.240090282035474], [0.7367106956779919, 41.24018029023834], [0.7365914508242649, 41.24017794510926], [0.7365883438566196, 41.24026795330312], [0.7367075888736927, 41.24027029843959], [0.7367044820553014, 41.24036030663924], [0.7367013752228178, 41.24045031483729], [0.7368206205806769, 41.240452659865134], [0.7369398659526283, 41.24045500476961], [0.7370591113386696, 41.2404573495507], [0.7371783567388015, 41.2404596942084], [0.7371752505456193, 41.24054970243437], [0.7372944961231896, 41.24055204697606], [0.7372913900792665, 41.24064205520783], [0.7374106358342744, 41.24064439963353], [0.7374075299396134, 41.240734407871045], [0.7374044240308647, 41.24082441610695], [0.7375236701266619, 41.24082676042404], [0.7376429162365457, 41.240829104617745], [0.7376398106404121, 41.24091911286681], [0.7376367050301917, 41.24100912111429], [0.7377559514808676, 41.24101146519935], [0.737875197945629, 41.24101380916103], [0.7378720926480286, 41.24110381742167], [0.7378689873363427, 41.24119382568069], [0.7379882341418973, 41.241196169533744], [0.7379851289794808, 41.24128617779854], [0.7381043759624749, 41.241288521535594], [0.7381012709493299, 41.24137852980616], [0.7380981659221004, 41.24146853807513], [0.7380950608807862, 41.241558546342496], [0.7382143083679342, 41.241560889978295], [0.7383335558691656, 41.24156323349071], [0.7383304511404845, 41.24165324177122], [0.7383273463977199, 41.241743250050135], [0.7384465942397509, 41.24174559345391], [0.7385658420958646, 41.2417479367343], [0.7385627376657362, 41.24183794502637], [0.7385596332215267, 41.24192795331683], [0.7385565287632353, 41.24201796160568], [0.7386757771235118, 41.242020304784816], [0.738672672814501, 41.24211031307945], [0.7387919213522215, 41.24211265614256], [0.7387888171924923, 41.24220266444296], [0.7386695684914094, 41.24220032137247], [0.7385503198044076, 41.242197978178574], [0.7385472153038712, 41.242287986462614], [0.7386664641542368, 41.24229032966388], [0.7386633598029821, 41.2423803379537], [0.738782608830793, 41.24238268103895], [0.7387857130186829, 41.242292672741755], [0.7389049618972098, 41.242295015696236], [0.7390242107898157, 41.242297358527324], [0.7391434596965009, 41.24229970123503], [0.739262708617264, 41.242302043819336], [0.7393819575521053, 41.24230438628025], [0.739501206501023, 41.24230672861778], [0.7396204554640171, 41.24230907083191], [0.7397397044410858, 41.24231141292265], [0.7398589534322294, 41.24231375489001], [0.7399782024374462, 41.24231609673397], [0.740097451456736, 41.24231843845454], [0.740216700490099, 41.24232078005173], [0.7403359495375329, 41.242323121525516], [0.7404551985990379, 41.24232546287591], [0.7405744476746124, 41.24232780410292], [0.740693696764257, 41.24233014520654], [0.7408129458679695, 41.242332486186754], [0.7409321949857504, 41.24233482704359], [0.7410514441175985, 41.24233716777703], [0.7410545451874853, 41.24224715933815], [0.7410576462433063, 41.242157150897675], [0.7411768950624912, 41.24215949149299], [0.7411737941700342, 41.24224949994083], [0.7411706932635127, 41.242339508387076], [0.741289942423492, 41.24234184887374], [0.7414091915975365, 41.242344189236995], [0.741406091003681, 41.242434197696376], [0.74140299039576, 41.24252420615416], [0.7415222399106022, 41.24252654640877], [0.7416414894395071, 41.24252888653998], [0.7416383891442577, 41.24261889501088], [0.7416352888349458, 41.24270890348018], [0.7417545387046496, 41.24271124350274], [0.7418737885884155, 41.2427135834019], [0.7418706885917783, 41.24280359188434], [0.7419899386529754, 41.242805931667476], [0.741986838805647, 41.24289594015567], [0.7421060890442749, 41.242898279822775], [0.7422253392969623, 41.242900619366495], [0.7422222397623147, 41.24299062786782], [0.7423414901924335, 41.2429929672955], [0.7423383908070977, 41.24308297580258], [0.7424576414146464, 41.243085315114236], [0.742454542178625, 41.24317532362708], [0.7425737929636043, 41.24317766282271], [0.7426930437626414, 41.24318000189494], [0.7426899448393084, 41.24327001042089], [0.7428091958157752, 41.243272349377094], [0.7429284468062982, 41.243274688209894], [0.7429253481956569, 41.24336469674898], [0.7428060970417596, 41.24336235790883], [0.7428029982536879, 41.24345236643895], [0.74292224957096, 41.24345470528648], [0.7430415009022873, 41.24345704401061], [0.7431607522476703, 41.24345938261134], [0.74315765393567, 41.24354939116196], [0.7430384024269114, 41.24354705255385], [0.74303530393748, 41.243637061095505], [0.7431545556096152, 41.243639399710965], [0.7432738072958046, 41.24364173820302], [0.7432707091190732, 41.24373174675779], [0.743389960982693, 41.24373408513381], [0.7433868629552872, 41.243824093694336], [0.7435061149963382, 41.24382643195432], [0.7435030171182582, 41.24391644052061], [0.7434999192261257, 41.24400644908529], [0.7436191716079878, 41.244008787236595], [0.7436160738651848, 41.244098795807034], [0.7437353264244794, 41.2441011338423], [0.743732228831005, 41.24419114241851], [0.7437291312234816, 41.24428115099309], [0.7437260336019061, 41.24437115956608], [0.7438452866653977, 41.24437349750003], [0.7439645397429394, 41.24437583531058], [0.7440837928345316, 41.24437817299773], [0.7442030459401715, 41.24438051056148], [0.7441999489580808, 41.244470519162306], [0.744196851961942, 41.24456052776153], [0.744316105408399, 41.244562865216594], [0.7444353588689033, 41.244565202548266], [0.7445546123434541, 41.24456753975652], [0.7445515158234237, 41.24465754837621], [0.7444322621854874, 41.244655211160584], [0.7444291654880245, 41.24474521977132], [0.7445484192893479, 41.2447475569943], [0.744667673104717, 41.24474989409386], [0.7447869269341315, 41.244752231070045], [0.7447838307127838, 41.24484223970125], [0.7449030847196303, 41.24484457656137], [0.7448999886476259, 41.24493458519832], [0.7450192428319039, 41.24493692194241], [0.7451384970302262, 41.24493925856308], [0.7451354012709562, 41.245029267213134], [0.7451323054976429, 41.24511927586161], [0.7452515600367862, 41.24512161237359], [0.7452484644128209, 41.2452116210278], [0.745367719129397, 41.24521395742373], [0.7453646236547815, 41.245303966083696], [0.7453615281661239, 41.24539397474207], [0.7453584326634256, 41.245483983398834], [0.7454776878842186, 41.24548631969342], [0.745596943119053, 41.24548865586461], [0.7455938479291003, 41.24557866453447], [0.7455907527251074, 41.24566867320274], [0.7457100083007702, 41.24567100926523], [0.7458292638904725, 41.24567334520431], [0.7458261689992304, 41.245763353885685], [0.7458230740939492, 41.24585336256546], [0.7459423300244814, 41.24585569839583], [0.7459454247663664, 41.24576568970871], [0.7460646805475405, 41.245768025408324], [0.7460615859690518, 41.245858034102795], [0.7461808419276589, 41.24586036968637], [0.7463000979003032, 41.24586270514652], [0.7462970036345716, 41.2459527138541], [0.7462939093548038, 41.246042722560084], [0.7464131656682792, 41.24604505791152], [0.7464162597846488, 41.2459550491982], [0.7465355159487613, 41.245957384418894], [0.7466547721269081, 41.24595971951618], [0.7466516783373345, 41.24604972824421], [0.7465324219957892, 41.24604739313957], [0.7465293280287831, 41.24613740185864], [0.7465262340477422, 41.24622741057612], [0.7465231400526666, 41.246317419292], [0.7465200460435565, 41.246407428006265], [0.7465169520204109, 41.246497436718926], [0.7465138579832312, 41.24658744543], [0.7465107639320161, 41.24667745413945], [0.7465076698667663, 41.24676746284731], [0.7466269275155225, 41.24676979801075], [0.7467461851783128, 41.24677213305078], [0.7467430914258372, 41.24686214177175], [0.7466238335996419, 41.246859806724366], [0.7465045757874809, 41.24685747155357], [0.7465014816941603, 41.24694748025822], [0.7464983875868052, 41.247037488961276], [0.7464952934654143, 41.24712749766272], [0.7466145517677939, 41.24712983285557], [0.7466176457257778, 41.24703982414677], [0.7466207396697268, 41.246949815436366], [0.7467399976593279, 41.246952150491104], [0.7467369038787851, 41.24704215920885], [0.7467338100842081, 41.247132167925], [0.746853068414656, 41.247134502871035], [0.7469723267591375, 41.247136837693645], [0.7469692332773427, 41.24722684642288], [0.7469661397815144, 41.24731685515054], [0.7469630462716547, 41.24740686387658], [0.7470823051203943, 41.24740919859782], [0.7470792117599118, 41.24749920732961], [0.7471984707860938, 41.247501541934795], [0.7471953775749903, 41.247591550672325], [0.7471922843498551, 41.247681559408264], [0.7473115437168916, 41.24768389390473], [0.7474308030979587, 41.24768622827777], [0.7474277101856175, 41.24777623702681], [0.7475469697441269, 41.24777857128379], [0.7475438769811696, 41.247868580038556], [0.7476631367171218, 41.24787091417947], [0.7476600441035488, 41.24796092293999], [0.7476569514759476, 41.24805093169892], [0.7477762115527579, 41.24805326573111], [0.7478954716435964, 41.24805559963987], [0.7478923793287975, 41.248145608411875], [0.747889286999972, 41.248235617182296], [0.7480085474316701, 41.24823795098234], [0.7480116395970792, 41.24814794220458], [0.7480147317484614, 41.24805793342522], [0.7480178238858176, 41.24796792464426], [0.7481370838412936, 41.24797025829884], [0.7481401758012091, 41.24788024950894], [0.7480209160091471, 41.24787791586169], [0.7479016562311114, 41.24787558209104], [0.7479047485038279, 41.24778557331422], [0.7479078407625178, 41.24769556453579], [0.7479109330071803, 41.24760555575577], [0.7479140252378165, 41.24751554697414], [0.7479171174544257, 41.24742553819091], [0.7480363764154003, 41.24742787192484], [0.7481556353904004, 41.24743020553534], [0.748274894379426, 41.247432539022434], [0.7482718026530496, 41.2475225478277], [0.7483910618195112, 41.247524881198714], [0.7483941533824758, 41.247434872386116], [0.7485134123995507, 41.247437205626376], [0.7486326714306475, 41.24743953874322], [0.7486295801945043, 41.24752954757052], [0.7487488394030347, 41.2475318805713], [0.7488680986255866, 41.24753421344866], [0.7488711895349074, 41.247444204606666], [0.748990448608069, 41.24744653735326], [0.7489873578621599, 41.247536546202596], [0.7491066171127531, 41.247538878833126], [0.7491035265162357, 41.2476288876882], [0.7491004359056985, 41.247718896541684], [0.7492196954971363, 41.24772122906348], [0.7493389551025926, 41.24772356146186], [0.7493358648048638, 41.247813570328425], [0.7493327744931166, 41.247903579193384], [0.7494520344394204, 41.247905911483016], [0.7494489442770703, 41.24799592035372], [0.7493296841673517, 41.24799358805674], [0.7493265938275679, 41.248083596918484], [0.7492073335684518, 41.24808126449074], [0.7492104240716513, 41.24799125563632], [0.749213514560832, 41.24790124678031], [0.7492166050359933, 41.247811237922704], [0.7490973452811418, 41.24780890539357], [0.7489780855403099, 41.247806572741], [0.7488588258134986, 41.24780423996503], [0.7487395661007079, 41.247801907065636], [0.748736474971889, 41.247891915893874], [0.7488557348480933, 41.24789424880061], [0.7488526438686675, 41.24798425763459], [0.7488495528752205, 41.24807426646697], [0.7489688130922769, 41.248076599264984], [0.7490880733233545, 41.248078931939574], [0.7490849826427194, 41.24816894078503], [0.748965722248225, 41.248166608103105], [0.7488464618677521, 41.248164275297746], [0.7488433708462617, 41.248254284126936], [0.748962631390152, 41.24825661693962], [0.7490818919480637, 41.2482589496289], [0.7490788012393881, 41.24834895847117], [0.749075710516693, 41.24843896731182], [0.7489564496319447, 41.248436634607856], [0.7489533587318092, 41.248526643439575], [0.7489502678176532, 41.24861665226969], [0.7489471768894763, 41.2487066610982], [0.7488279155284882, 41.248704328248785], [0.7487086541815225, 41.24870199527594], [0.7487117454365411, 41.24861198646212], [0.7485924842670183, 41.24860965337321], [0.7485893928485785, 41.24869966217968], [0.7485863014161152, 41.24878967098456], [0.7487055629124801, 41.248792004088166], [0.7488248244228686, 41.24879433706834], [0.7488217333032263, 41.24888434588631], [0.7488186421695626, 41.24897435470267], [0.7489379040208183, 41.24897668757411], [0.7490571658860949, 41.24897902032213], [0.7491764277653924, 41.248981352946736], [0.7491733371079785, 41.24907136178351], [0.7492925991647202, 41.249073694292036], [0.7492895086567106, 41.24916370313458], [0.7492864181346828, 41.2492537119755], [0.7492833275986357, 41.24934372081482], [0.7494025901596738, 41.24934605322195], [0.7493994997730342, 41.24943606206701], [0.7495187625115175, 41.24943839435806], [0.7495156722742872, 41.249528403208856], [0.7496349351902172, 41.24953073538382], [0.7496318451023981, 41.24962074424036], [0.7497511081957733, 41.249623076299244], [0.749748018257366, 41.24971308516153], [0.7498672815281879, 41.24971541710433], [0.7498641917391947, 41.249805425972355], [0.7499834551874633, 41.24980775779906], [0.749980365547885, 41.24989776667282], [0.7500996291736007, 41.24990009838344], [0.7501027186497474, 41.24981008950235], [0.7502219821260458, 41.249812421082204], [0.7502188928133304, 41.24990242997064], [0.750215803486601, 41.24999243885749], [0.7502127141458578, 41.25008244774271], [0.7502096247911002, 41.25017245662635], [0.7503288889351429, 41.25017478811214], [0.7503257997298058, 41.25026479700152], [0.7504450640512961, 41.25026712837122], [0.7504419749953806, 41.250357137266334], [0.7505612394943196, 41.25035946851994], [0.7505581505878274, 41.25044947742079], [0.7506774152642143, 41.25045180855832], [0.7507966799546123, 41.2504541395724], [0.7509159446590215, 41.25045647046307], [0.7510352093774398, 41.250458801230295], [0.7511544741098681, 41.25046113187411], [0.7511513860065491, 41.25055114081004], [0.7511482978892212, 41.25064114974438], [0.751145209757885, 41.25073115867711], [0.7512644749946356, 41.250733489219485], [0.7512613870127303, 41.250823498157956], [0.7513806524269275, 41.250825828584254], [0.7513775645944546, 41.25091583752845], [0.751374476747974, 41.25100584647105], [0.7514937425030608, 41.25100817678858], [0.7514968301860997, 41.25091816783865], [0.7516160957917517, 41.250920498025415], [0.751613008272153, 41.25101050698268], [0.7517322740552526, 41.25101283705335], [0.7518515398523564, 41.2510151670006], [0.751848452645636, 41.251105175970935], [0.7518453654249118, 41.251195184939675], [0.7519646315629047, 41.25119751477815], [0.752083897714902, 41.25119984449319], [0.7522031638809025, 41.2512021740848], [0.7522062506112985, 41.25111216509406], [0.7522093373276918, 41.25102215610171], [0.7522124240300835, 41.250932147107775], [0.7522155107184724, 41.250842138112226], [0.7522185973928589, 41.250752129115085], [0.7522216840532437, 41.250662120116345], [0.7521024188678905, 41.25065979056874], [0.7519831536965402, 41.2506574608977], [0.7519862406698006, 41.250567451912005], [0.7518669756758918, 41.25056512212487], [0.7518700627985863, 41.25047511314493], [0.751750797982119, 41.250472783241705], [0.7517538852542461, 41.25038277426749], [0.7517569725123694, 41.25029276529166], [0.7516377080367792, 41.25029043527967], [0.7516407954443325, 41.2502004263096], [0.7515215311461835, 41.250198096181514], [0.7515246187031668, 41.250108087217164], [0.7514053545824574, 41.250105756972985], [0.7512860904757555, 41.250103426605385], [0.7511668263830608, 41.25010109611435], [0.7511699144163385, 41.250011087170414], [0.7511730024356083, 41.24992107822486], [0.7510537386837874, 41.24991874762508], [0.7510568268524809, 41.249828738685274], [0.7510599150071663, 41.249738729743854], [0.7511791784321233, 41.24974106032897], [0.7511822664093696, 41.24965105137861], [0.7511853543726084, 41.24956104242665], [0.7511884423218387, 41.24947103347311], [0.7511915302570614, 41.24938102451794], [0.751072267485822, 41.24937869396218], [0.7510753555704649, 41.249288685012765], [0.751078443641099, 41.24919867606175], [0.7509591812107219, 41.24919634539723], [0.7509560929766607, 41.24928635434091], [0.7509530047285905, 41.249376363283], [0.7508337419853687, 41.24937403248039], [0.7507144792561559, 41.24937170155435], [0.7505952165409538, 41.249369370504894], [0.7505983052793056, 41.24927936158482], [0.750479042741542, 41.249277030419286], [0.7504821316293094, 41.24918702150494], [0.7504852205030659, 41.249097012589], [0.7504883093628094, 41.249007003671466], [0.7504913982085424, 41.248916994752314], [0.7506106600926042, 41.24891932588851], [0.7506137487609015, 41.24882931696043], [0.7504944870402629, 41.24882698583157], [0.7503752253336359, 41.2488246545793], [0.7502559636410207, 41.248822323203605], [0.750259052785575, 41.24873231429594], [0.7501397912703955, 41.248729982804164], [0.7501428805643587, 41.248639973902236], [0.7501459698443086, 41.248549964998695], [0.7500267086699851, 41.24854763339818], [0.7500297980993418, 41.24845762450039], [0.7499105371024531, 41.24845529278379], [0.749913626681214, 41.24836528389174], [0.749916716245961, 41.24827527499808], [0.7500359769160114, 41.24827760669999], [0.7501552376000763, 41.2482799382785], [0.7501521483621667, 41.248369947186845], [0.7501490591102444, 41.248459956093576], [0.7502683201351609, 41.24846228756333], [0.7503875811740901, 41.24846461890967], [0.7505068422270309, 41.24846695013259], [0.7505099309886946, 41.24837694120384], [0.7505130197363471, 41.24828693227349], [0.750516108469989, 41.248196923341524], [0.7503968479073048, 41.248194592140614], [0.7502775873586326, 41.248192260816296], [0.7502806764050974, 41.248102251897414], [0.7502837654375499, 41.24801224297694], [0.7502868544559905, 41.24792223405485], [0.7502899434604188, 41.24783222513117], [0.7502930324508347, 41.24774221620588], [0.7501737727332541, 41.24773988479483], [0.7501768618730715, 41.24764987587529], [0.7500576023329178, 41.24764754434816], [0.7499383428067768, 41.24764521269763], [0.7498190832946511, 41.24764288092368], [0.7496998237965399, 41.2476405490263], [0.7497029135759954, 41.24755054013452], [0.7498221729106936, 41.24755287202455], [0.7498252625127211, 41.247462863123815], [0.7499445216980231, 41.247465194883084], [0.7500637808973385, 41.247467526518946], [0.7500668701585294, 41.24737751760192], [0.7501861292084474, 41.24737984910702], [0.7503053882723778, 41.24738218048871], [0.7504246473503202, 41.24738451174697], [0.7504277361072651, 41.247294502806334], [0.7504308248501989, 41.247204493864096], [0.7503115660990777, 41.2472021626205], [0.7503146549914104, 41.24711215368399], [0.7503177438697308, 41.2470221447459], [0.7501984854594386, 41.24701981339357], [0.7502015744871553, 41.2469298044612], [0.7502046635008605, 41.24683979552722], [0.7502077525005528, 41.24674978659166], [0.7502108414862333, 41.24665977765449], [0.7500915837435796, 41.2466574462081], [0.7500946728786524, 41.24656743727667], [0.7500977619997127, 41.24647742834364], [0.7499785045978805, 41.246475096788515], [0.7498592472100615, 41.24647276510999], [0.7498623366439156, 41.24638275619004], [0.7498654260637552, 41.24629274726847], [0.7499846831247687, 41.24629507893231], [0.7501039401997956, 41.24629741047275], [0.750223197288835, 41.24629974188977], [0.7502262862044562, 41.246209732944585], [0.7502293751060659, 41.2461197239978], [0.7503486318823139, 41.24612205527673], [0.7503517206065111, 41.246032046321005], [0.7503548093166978, 41.245942037363676], [0.7503578980128739, 41.24585202840474], [0.7503609866950393, 41.245762019444214], [0.7502417305723876, 41.24575968819463], [0.7501224744637475, 41.245757356821656], [0.7501255634586973, 41.24566734787419], [0.7501286524396343, 41.245577338925145], [0.7500093966718002, 41.24557500744342], [0.7498901409179792, 41.2455726758383], [0.7498870516102493, 41.24566268477267], [0.7498839622885051, 41.245752693705455], [0.7497647062219032, 41.24575036196225], [0.749761616722748, 41.24584037088607], [0.7496423605067629, 41.24583803901211], [0.7496392708301948, 41.24592804792701], [0.7495200144648263, 41.2459257159223], [0.7495231043047934, 41.24583570701475], [0.7495261941307434, 41.2457456981056], [0.7496454501693159, 41.245748030095626], [0.7496485398178534, 41.24565802117753], [0.7496516294523765, 41.245568012257834], [0.7496547190728851, 41.24547800333654], [0.7496578086793784, 41.24538799441362], [0.7497770640783823, 41.245390326250885], [0.7498963194914, 41.24539265796473], [0.7500155749184302, 41.24539498955517], [0.750012485802122, 41.245484998500096], [0.7501317414065599, 41.24548732997449], [0.7501348303594743, 41.2453973210222], [0.7501379192983764, 41.24530731206834], [0.7500186640207273, 41.245304980608644], [0.7500217531090109, 41.24521497166053], [0.7500248421832825, 41.245124962710804], [0.7501440971341451, 41.245127294155814], [0.75026335209902, 41.245129625477404], [0.7502664408324955, 41.24503961651141], [0.7501471860310125, 41.24503728519714], [0.7501502749138684, 41.244947276236864], [0.7501533637827132, 41.24485726727499], [0.7502726182574133, 41.24485959857458], [0.7502757069488567, 41.24476958960376], [0.7503949612741777, 41.244771920772614], [0.7503980497882209, 41.24468191179286], [0.7505173039641619, 41.244684242830964], [0.7505203923008072, 41.24459423384226], [0.7506396463273688, 41.24459656474963], [0.750642734486618, 41.24450655575198], [0.7506458226318575, 41.24441654675274], [0.7505265689320714, 41.24441421586006], [0.7505296572266901, 41.24432420686656], [0.7505327455073003, 41.24423419787145], [0.7504134921482947, 41.24423186687004], [0.7502942388032982, 41.24422953574522], [0.7501749854723112, 41.24422720449701], [0.7500557321553358, 41.24422487312539], [0.7500588210754762, 41.24413486415804], [0.7499395679358966, 41.24413253267036], [0.749820314810329, 41.24413020105928], [0.7497010616987748, 41.24412786932479], [0.7495818086012341, 41.24412553746691], [0.7494625555177075, 41.24412320548562], [0.749465645240755, 41.244033196553374], [0.7494687349497878, 41.24394318761952], [0.7494718246448052, 41.24385317868407], [0.749591077238183, 41.243855510643336], [0.7497103298455754, 41.243857842479194], [0.7497134191998149, 41.24376783352745], [0.749594166755804, 41.24376550169894], [0.7494749143258078, 41.24376316974701], [0.7494780039927956, 41.243673160808356], [0.749481093645768, 41.24358315186809], [0.7493618415565472, 41.243580819807455], [0.7493649313588843, 41.243490810872935], [0.7492456794470572, 41.243488478696236], [0.7492487693987573, 41.243398469767456], [0.749251859336441, 41.243308460837085], [0.7492549492601092, 41.24321845190509], [0.7492580391697611, 41.2431284429715], [0.7491387879254585, 41.243126110700786], [0.74914187798447, 41.24303610177294], [0.7492611290653978, 41.243038434036315], [0.7493803801603411, 41.243040766176286], [0.7493834698785868, 41.24295075723216], [0.7492642189470179, 41.24294842509953], [0.7492673088146228, 41.24285841616112], [0.7492703986682119, 41.24276840722113], [0.7493896492730336, 41.24277073933909], [0.7495088998918706, 41.24277307133365], [0.7495119894046994, 41.242683062377374], [0.7495150789035143, 41.24259305341948], [0.7493958286114216, 41.24259072143961], [0.7492765783333438, 41.24258838933633], [0.749157328069281, 41.24258605710966], [0.7491542380803514, 41.242676066045526], [0.749034987666933, 41.24267373368812], [0.7490380778192341, 41.242583724759605], [0.7489188275832044, 41.24258139228615], [0.7489219178848593, 41.24249138336337], [0.7489250081724966, 41.242401374439], [0.7490442580817855, 41.24240370689776], [0.7490473481920362, 41.24231369796445], [0.7490504382882702, 41.24222368902952], [0.7489311887057188, 41.242221356585425], [0.7489342789513036, 41.24213134765625], [0.748815029546137, 41.24212901509612], [0.7488181199410711, 41.242039006172675], [0.7489373691828713, 41.242041338725464], [0.7490566184386884, 41.24204367115487], [0.7490597084928726, 41.241953662215124], [0.7489404594004221, 41.24195132979308], [0.7489435496039551, 41.241861320859094], [0.7489466397934712, 41.2417713119235], [0.7489497299689709, 41.241681302986294], [0.7489528201304536, 41.2415912940475], [0.748833571705477, 41.24158896153142], [0.7488366620163046, 41.24149895259838], [0.7487174137687079, 41.241496619966256], [0.7485981655351279, 41.24149428721074], [0.7486012561586625, 41.24140427829077], [0.7486043467681771, 41.2413142693692], [0.7486074373636726, 41.241224260446025], [0.7487266851071693, 41.24122659317951], [0.7488459328646843, 41.2412289257896], [0.748849023119443, 41.24113891685013], [0.7488521133601843, 41.24104890790906], [0.7487328659293878, 41.24104657531367], [0.7487359563194697, 41.24095656637834], [0.7486167090660484, 41.24095423366689], [0.7486197996054695, 41.240864224737315], [0.7485005525294243, 41.240861891909816], [0.7484974618266462, 41.240951900832066], [0.7483782146012631, 41.24094956787384], [0.7483813054673984, 41.240859558958945], [0.7483843963195139, 41.240769550042444], [0.7483874871576094, 41.24067954112434], [0.7483905779816855, 41.240589532204645], [0.7483936687917413, 41.24049952328333], [0.7483967595877772, 41.24040951436044], [0.7485160058330298, 41.24041184727459], [0.7486352520923008, 41.24041418006536], [0.7486383425476133, 41.24032417112616], [0.7485190964516945, 41.24032183834273], [0.7483998503697944, 41.24031950543592], [0.7484029411377913, 41.24022949650981], [0.7482836952332628, 41.240227163486956], [0.7482867861505915, 41.2401371545666], [0.7481675404234334, 41.24013482142771], [0.7481706314900919, 41.240044812513084], [0.7480513859403053, 41.24004247925816], [0.7480482947102962, 41.240132488165436], [0.7479290490111814, 41.24013015477978], [0.7479259576038, 41.24022016367811], [0.7478067117553562, 41.24021783016172], [0.7476874659209358, 41.24021549652194], [0.7476843741728295, 41.24030550540399], [0.7475651281890808, 41.24030317163348], [0.747445882219358, 41.240300837739596], [0.7474489742941666, 41.24021082887226], [0.7473297285018198, 41.24020849486232], [0.7472104827234992, 41.24020616072902], [0.7472135751109833, 41.24011615187477], [0.7470943295100395, 41.24011381762544], [0.7469750839231232, 41.240111483252704], [0.7468558383502351, 41.2401091487566], [0.7468589312137404, 41.2400191399228], [0.7467396858182306, 41.24001680531065], [0.7467427788310559, 41.2399267964826], [0.746623533612924, 41.23992446175443], [0.7466266267750672, 41.23983445293212], [0.7466297199231801, 41.23974444410821], [0.7465104750457731, 41.239742109271354], [0.7463912301823972, 41.23973977431111], [0.7463881367075904, 41.23982978312032], [0.7462688916948996, 41.239827448029345], [0.746271985333053, 41.23973743922749], [0.746152740497741, 41.23973510402049], [0.7460334956764625, 41.239732768690104], [0.7460304017116157, 41.23982277747726], [0.7460273077327356, 41.239912786262806], [0.7459080625987962, 41.23991045079434], [0.7457888174788921, 41.23990811520249], [0.7456695723730236, 41.239905779487245], [0.7456726668419458, 41.23981577072376], [0.745791911784467, 41.23981810643165], [0.7459111567410237, 41.23982044201614], [0.7459142508692174, 41.239730433236346], [0.7457950060760069, 41.239728097659196], [0.7457981003535114, 41.239638088885144], [0.7458011946169796, 41.23954808010949], [0.7456819501644951, 41.23954574442368], [0.7456788557376819, 41.23963575319197], [0.7456757612968317, 41.23972576195867], [0.7455565165316932, 41.23972342613475], [0.7454372717805904, 41.23972109018746], [0.7453180270435266, 41.23971875411679], [0.7453211219744131, 41.23962874537215], [0.7453242168912607, 41.23953873662592], [0.745327311794071, 41.239448727878084], [0.7453304066828427, 41.239358719128646], [0.7452111626131932, 41.23935638296401], [0.7450919185575827, 41.23935404667599], [0.7450888233421243, 41.23944405541073], [0.7449695791372103, 41.239441718991976], [0.7449664837443688, 41.23953172771775], [0.7449633883374875, 41.23962173644191], [0.7448441438199258, 41.23961939988507], [0.7448410482356582, 41.23970940860028], [0.7447218035687925, 41.239707071912704], [0.7447248993164053, 41.23961706320485], [0.7446056548269262, 41.23961472640125], [0.7446087507238415, 41.23952471769914], [0.7447279950499757, 41.23952705449539], [0.7447310907695042, 41.23943704578433], [0.7446118466067126, 41.23943470899545], [0.7444926024579648, 41.23943237208317], [0.7444956984901375, 41.23934236338522], [0.7443764545187748, 41.23934002635692], [0.7442572105614553, 41.239337689205264], [0.7441379666181812, 41.23933535193021], [0.7440187226889529, 41.23933301453178], [0.7440218193604493, 41.23924300586165], [0.7440249160178996, 41.23915299718993], [0.7441441596204456, 41.239155334573645], [0.7442634032370365, 41.239157671833986], [0.74426649955376, 41.23906766314594], [0.7443857430210558, 41.23907000027554], [0.7443888391603961, 41.23897999157854], [0.7442695958564393, 41.2389776544563], [0.7441503525665283, 41.238975317210674], [0.7440311092906617, 41.23897297984168], [0.743911866028841, 41.23897064234931], [0.7437926227810667, 41.238968304733554], [0.74378952582503, 41.23905831339376], [0.7436702824279645, 41.239055975647275], [0.7436671852945402, 41.239145984298524], [0.7435479417481826, 41.23914364642128], [0.743428698215874, 41.239141308420685], [0.7434317956759778, 41.239051299784165], [0.7434348931220323, 41.238961291146026], [0.7433156499304521, 41.238958953036764], [0.743196406752922, 41.23895661480413], [0.7431995045116028, 41.238866606179116], [0.7433187475257955, 41.2388689444044], [0.7434379905540371, 41.2388712825063], [0.7434410879719926, 41.238781273864966], [0.7434441853758984, 41.23869126522202], [0.7434472827657546, 41.23860125657748], [0.7433280402275235, 41.238598918497665], [0.7433311377666665, 41.23850890985887], [0.743334235291759, 41.238418901218495], [0.7432149930942464, 41.23841656303002], [0.7430957509107847, 41.23841422471817], [0.7430988487484952, 41.2383242160909], [0.7431019465721543, 41.238234207462035], [0.7429827047294112, 41.238231869041535], [0.7428634629007197, 41.23822953049766], [0.742860364750395, 41.23831953911181], [0.7428572665860177, 41.23840954772435], [0.7427380244447124, 41.23840720904238], [0.7427411227724238, 41.238317200437194], [0.7427442210860807, 41.23822719183042], [0.7427473193856848, 41.23813718322203], [0.742750417671236, 41.238047174612035], [0.7427535159427328, 41.237957166000456], [0.7427566142001777, 41.23786715738725], [0.7427597124435686, 41.237777148772444], [0.7428789534415545, 41.23777948740289], [0.7428758553614926, 41.23786949602505], [0.7429950965368604, 41.237871834539476], [0.7429919986060753, 41.2379618431674], [0.7431112399588247, 41.237964181565815], [0.743108142177319, 41.238054190199485], [0.7431050443817621, 41.23814419883156], [0.7432242860752252, 41.23814653712132], [0.7432211884289491, 41.23823654575915], [0.7433404302997945, 41.238238883932915], [0.7434596721846891, 41.23824122198329], [0.7434565748510295, 41.238331230634245], [0.743575816913306, 41.2383335685686], [0.7435727197289308, 41.23842357722531], [0.7436919619685901, 41.238425915043656], [0.7438112042222971, 41.23842825273863], [0.7438081073505429, 41.238518261408466], [0.7439273497816314, 41.23852059898742], [0.7439242530591663, 41.238610607663], [0.7440434956676367, 41.23861294512593], [0.7441627382901521, 41.2386152824655], [0.7441658346859464, 41.2385252737752], [0.7442850771591714, 41.23852761098403], [0.7442881733775859, 41.23843760228477], [0.7442912695819562, 41.238347593583896], [0.7444105117425557, 41.238349930654636], [0.7445297539171984, 41.23835226760199], [0.7445328497808567, 41.238262258884816], [0.7446520918062077, 41.23826459570144], [0.7446551874924916, 41.23817458697529], [0.7446582831647333, 41.23808457824755], [0.7447775248774605, 41.238086914926086], [0.7447744293685514, 41.238176923661186], [0.7447713338456006, 41.238266932394694], [0.7447682383086092, 41.23835694112659], [0.7447651427575773, 41.238446949856886], [0.7448843851376791, 41.23844928644148], [0.7448874805253772, 41.23835927770382], [0.7448905758990344, 41.23826926896457], [0.7448936712586515, 41.23817926022372], [0.745012913162792, 41.23818159666286], [0.7450160083450358, 41.238091587913054], [0.7451352500998828, 41.238093924221474], [0.7451383451047566, 41.2380039154627], [0.7451414400955922, 41.237913906702325], [0.7451445350723885, 41.237823897940345], [0.7451476300351471, 41.237733889176766], [0.7451507249838678, 41.237643880411575], [0.74515381991855, 41.23755387164479], [0.7450345791436829, 41.23755153538051], [0.7449153383828547, 41.237549198992845], [0.7449122431215165, 41.23763920774491], [0.7447930022114002, 41.23763687122653], [0.7447960976360667, 41.23754686248182], [0.7447991930466926, 41.23745685373549], [0.7446799524772723, 41.23745451710844], [0.7446830480371847, 41.237364508367875], [0.7445638076451315, 41.23736217162482], [0.7445669033543288, 41.23727216289], [0.7444476631396425, 41.237269826030925], [0.7444507589981231, 41.23717981730187], [0.7443315189608035, 41.23717748032678], [0.7443346149685663, 41.23708747160347], [0.7442153751086136, 41.23708513451238], [0.744212278937527, 41.23717514322832], [0.7440930389282945, 41.23717280600649], [0.7439737989331061, 41.237170468661304], [0.7438545589519626, 41.23716813119273], [0.743735318984865, 41.237165793600795], [0.743738415809247, 41.23707578491428], [0.7437415126195827, 41.236985776226156], [0.7436222729931784, 41.23698343852557], [0.7435030333808216, 41.23698110070161], [0.7435061305037547, 41.23689109202662], [0.7433868910687674, 41.23688875408665], [0.7433837937825123, 41.23697876275428], [0.7432645541982517, 41.23697642468359], [0.7431453146280407, 41.23697408648952], [0.7431422170010913, 41.237064095140845], [0.7430229772816077, 41.23706175681606], [0.7430198794772852, 41.23715176545839], [0.7429006396085295, 41.23714942700287], [0.7427813997538254, 41.23714708842397], [0.742784497884795, 41.237057079796344], [0.7427875960017111, 41.236967071167115], [0.7427906941045755, 41.236877062536294], [0.742909933469312, 41.23687940109309], [0.7430291728481005, 41.23688173952654], [0.7431484122409395, 41.236884077836606], [0.7432676516478286, 41.23688641602332], [0.7432707490833563, 41.23679640736143], [0.743389988340974, 41.23679874541741], [0.7433930855991325, 41.236708736746564], [0.7435123247074776, 41.2367110746718], [0.7436315638298705, 41.23671341247368], [0.7436346607473407, 41.236623403786524], [0.7436377576507636, 41.236533395097744], [0.7437569964605644, 41.23653573276154], [0.7437600931866228, 41.236445724063785], [0.7437631898986339, 41.23635571536446], [0.7437662865966002, 41.236265706663524], [0.7438855249304938, 41.23626804418186], [0.7440047632784327, 41.23627038157685], [0.74400785963572, 41.23618037285958], [0.7438886214510975, 41.23617803547197], [0.7437693832805198, 41.236175697960974], [0.7437724799503938, 41.23608568925684], [0.7436532419571776, 41.23608335162984], [0.743656338776321, 41.23599334293145], [0.7437755766062223, 41.235995680551085], [0.7438948144501694, 41.23599801804735], [0.7438979109286388, 41.23590800933264], [0.7437786732480056, 41.23590567184372], [0.7437817698757424, 41.23581566313477], [0.7437848664894338, 41.23572565442422], [0.7436656291494723, 41.23572331682667], [0.7436687259124299, 41.23563330812187], [0.7435494887498273, 41.235630970408295], [0.7435463918235569, 41.23572097910575], [0.7435432948832404, 41.23581098780157], [0.7435401979288774, 41.235900996495815], [0.7434209602903831, 41.235898658636806], [0.7433017226659364, 41.23589632065445], [0.7431824850555387, 41.23589398254871], [0.7430632474591907, 41.23589164431962], [0.7430663450668062, 41.23580163565483], [0.7430694426603717, 41.23571162698843], [0.742950205404698, 41.23570928865071], [0.7429471076478207, 41.23579929730974], [0.742827870242886, 41.23579695884128], [0.7428309681630757, 41.2357069501896], [0.7428340660692142, 41.23561694153633], [0.7429533031475257, 41.23561927999007], [0.7430725402398879, 41.23562161832044], [0.7430756378053536, 41.235531609650835], [0.7430787353567703, 41.23544160097963], [0.7430818328941365, 41.235351592306834], [0.7432010695106185, 41.235353930491755], [0.7433203061411493, 41.235356268553325], [0.7433234033378495, 41.23526625986419], [0.7434426398191205, 41.23526859779502], [0.7435618763144376, 41.23527093560251], [0.7435649731704742, 41.23518092689705], [0.7435680700124638, 41.23509091818998], [0.7435711668404074, 41.23500090948132], [0.7435742636543045, 41.234910900771055], [0.7435773604541545, 41.23482089205919], [0.7434581247753697, 41.23481855428851], [0.7433388891106305, 41.23481621639448], [0.7433419862230437, 41.234726207695715], [0.7433450833214091, 41.23463619899536], [0.7432258479973262, 41.23463386099268], [0.7432227507356571, 41.23472386968569], [0.74321965345994, 41.234813878377075], [0.7431004178232978, 41.234811540236315], [0.7430973203702278, 41.234901548918735], [0.7429780845843299, 41.23489921064726], [0.7429811822007046, 41.2348092019722], [0.742861946592162, 41.23480686358472], [0.7427427109976682, 41.23480452507388], [0.7427396130546846, 41.23489453373422], [0.742620377310939, 41.234892195092655], [0.7426172791905985, 41.234982203744025], [0.7426141810562056, 41.23507221239381], [0.7426110829077597, 41.235162221041975], [0.7426079847452622, 41.23525222968854], [0.7426048865687118, 41.2353422383335], [0.7424856500224848, 41.235339899531766], [0.7424887483623435, 41.23524989089416], [0.7423695119934781, 41.23524755197643], [0.7422502756386663, 41.23524521293534], [0.7421310392979099, 41.23524287377088], [0.7420118029712083, 41.23524053448307], [0.7418925666585635, 41.23523819507188], [0.7418894675021653, 41.235328203672665], [0.7417702310402695, 41.23532586413077], [0.7416509945924318, 41.235323524465485], [0.7416540940754447, 41.23523351587945], [0.7416571935443992, 41.2351435072918], [0.7415379574372334, 41.2351411675179], [0.7414187213441268, 41.235138827620645], [0.7414218211256356, 41.23504881904613], [0.7413025852098954, 41.23504647903288], [0.7411833493082145, 41.23504413889627], [0.7410641134205953, 41.2350417986363], [0.7409448775470389, 41.23503945825297], [0.7409479779677072, 41.23494944970632], [0.7408287422715178, 41.234947109207], [0.7407095065893915, 41.23494476858431], [0.7405902709213291, 41.23494242783827], [0.7404710352673315, 41.234940086968884], [0.7404679341934441, 41.235030095486046], [0.7403486983902078, 41.23502775448592], [0.7403455971389488, 41.235117762994115], [0.7402263611864736, 41.23511542186326], [0.7401071252480657, 41.23511308060905], [0.740110226825935, 41.23502307211558], [0.7401133283897364, 41.23493306362051], [0.7399940927920056, 41.23493072225768], [0.7398748572083436, 41.23492838077148], [0.7397556216387504, 41.234926039161934], [0.7397587236783941, 41.23483603068738], [0.7396394882861753, 41.23483368896183], [0.7396425904750523, 41.23474368049306], [0.7395233552602054, 41.23474133865153], [0.7394041200594305, 41.234738996686644], [0.7394072225608407, 41.234648988230994], [0.7394103250481789, 41.23455897977375], [0.7392910901880788, 41.23455663770025], [0.7392879875374399, 41.234646646150125], [0.7392848848727284, 41.23473665459839], [0.7391656497000982, 41.23473431238679], [0.7390464145415412, 41.234731970051826], [0.7390433115361525, 41.23482197848374], [0.7389240762283683, 41.23481963601804], [0.7388048409346584, 41.234817293428996], [0.7388017375885891, 41.23490730184455], [0.7387986342284438, 41.23499731025851], [0.7386793986222042, 41.23499496753134], [0.7386762950846782, 41.23508497593633], [0.738557059329211, 41.235082633078434], [0.7385539556143039, 41.23517264147442], [0.7385508518853192, 41.235262649868815], [0.7385477481422563, 41.23535265826161], [0.7385446443851166, 41.23544266665279], [0.7384254079905026, 41.23544032364202], [0.7384223040559765, 41.23553033202423], [0.7383030675121334, 41.23552798888274], [0.7381838309823696, 41.23552564561788], [0.7381807267071482, 41.23561565398372], [0.7382999634002199, 41.235617997255964], [0.7382968592742276, 41.23570800562758], [0.7381776224178463, 41.23570566234796], [0.7380583855755455, 41.23570331894498], [0.7379391487473248, 41.235700975418645], [0.7379360441173236, 41.23579098376652], [0.7380552811088538, 41.235793327300236], [0.7381745181144647, 41.235795670710594], [0.7382937551341554, 41.235798013997595], [0.7384129921679266, 41.235800357161224], [0.7385322292157755, 41.2358027002015], [0.7385291253882458, 41.23589270858466], [0.7385260215466369, 41.23598271696623], [0.7384067841721657, 41.23598037391121], [0.7384036801531668, 41.23607038228379], [0.7382844426294611, 41.23606803909802], [0.7381652051198357, 41.236065695788895], [0.7381683094654591, 41.23597568743107], [0.7380490721332263, 41.23597334400596], [0.7379298348150751, 41.23597100045749], [0.7379267301428274, 41.236061008800554], [0.7380459676242918, 41.236063352356396], [0.7380428631012745, 41.23615336070525], [0.7380397585641765, 41.236243369052495], [0.7380366540129978, 41.23633337739813], [0.7380335494477359, 41.23642338574217], [0.7380304448683934, 41.236513394084604], [0.7381496831805098, 41.23651573755397], [0.7382689215067072, 41.236518080899984], [0.7383881598469842, 41.236520424122645], [0.7383850557435103, 41.23661043248559], [0.7385042942611835, 41.236612775592256], [0.738623532792935, 41.23661511857556], [0.7386266365697763, 41.23652511019783], [0.7387458749522895, 41.23652745305039], [0.7387427713387656, 41.23661746143548], [0.738739667711164, 41.23670746981897], [0.7387365640694856, 41.23679747820084], [0.7387334604137292, 41.23688748658111], [0.7387303567438949, 41.236977494959795], [0.7387272530599835, 41.23706750333687], [0.7386080136975581, 41.23706516044006], [0.7386111175447903, 41.236975152070364], [0.7386142213779441, 41.23688514369906], [0.7386173251970195, 41.23679513532616], [0.7384980863386313, 41.236792792328124], [0.7384949823562372, 41.236882800693635], [0.7384918783597635, 41.236972809057576], [0.7383726391888156, 41.236970465921395], [0.7383757433486091, 41.236880457564844], [0.7382565043550605, 41.236878114312695], [0.7382534000319478, 41.23696812266187], [0.7382502956947549, 41.23705813100943], [0.7382471913434812, 41.23714813935538], [0.7382440869781267, 41.23723814769973], [0.7382409825986916, 41.23732815604248], [0.7383602224088452, 41.237330499331534], [0.7384794622330791, 41.237332842497196], [0.7385987020713922, 41.23733518553951], [0.738595598167846, 41.23742519390279], [0.7385924942502214, 41.23751520226446], [0.7385893903185178, 41.23760521062453], [0.7387086306608824, 41.2376075535656], [0.7387055268784258, 41.23769756193144], [0.7387024230818914, 41.237787570295666], [0.7386993192712782, 41.237877578658306], [0.7385800784389345, 41.23787523569512], [0.7384608376206694, 41.23787289260855], [0.7384639417579372, 41.23778288426066], [0.7384670458811246, 41.237692875911186], [0.7383478054035931, 41.237690532716], [0.7383509096760268, 41.23760052437229], [0.7383540139343798, 41.23751051602698], [0.7383571181786525, 41.237420507680056], [0.7382378782051754, 41.237418164383634], [0.7382347737975784, 41.23750817272317], [0.7382316693759003, 41.23759818106112], [0.7382285649401417, 41.23768818939744], [0.7381093244907716, 41.237685845955525], [0.7381062198776052, 41.23777585428287], [0.7381031152503567, 41.237865862608636], [0.7379838744884153, 41.237863519028586], [0.7379807696837579, 41.237953527345354], [0.7381000106090267, 41.23795587093277], [0.7380969059536144, 41.2380458792553], [0.7379776648650175, 41.2380435356605], [0.7379745600321939, 41.238133543974065], [0.7380938012841195, 41.238135887576256], [0.738090696600543, 41.23822589589558], [0.7379714551852872, 41.238223552286016], [0.7378522137841144, 41.238221208553085], [0.7378491087597935, 41.238311216856054], [0.737968350324297, 41.238313560596374], [0.7379652454492245, 41.23840356890512], [0.7378460037213896, 41.23840122515744], [0.737726762007639, 41.23839888128636], [0.7377236567918191, 41.23848888957875], [0.7376044149288217, 41.23848654557692], [0.7376013095355848, 41.23857655386032], [0.7375982041282616, 41.23866656214212], [0.7374789619526841, 41.238664218002164], [0.7373597197911925, 41.238661873738835], [0.7373566140431163, 41.23875188200427]], [[0.7364815272930435, 41.23990557528769], [0.7366007716426446, 41.23990792051801], [0.7365976647172781, 41.23999792871669], [0.7364784202043327, 41.23999558347899], [0.7364815272930435, 41.23990557528769]], [[0.7386788814184421, 41.241930296488576], [0.7387981296294385, 41.24193263953695], [0.7387950254978699, 41.24202264784055], [0.7386757771235118, 41.242020304784816], [0.7386788814184421, 41.241930296488576]], [[0.7487519304757665, 41.247441871736655], [0.7487550215344777, 41.247351862900395], [0.7486357626527683, 41.24734952991431], [0.7485165037850817, 41.24734719680482], [0.7483972449314182, 41.24734486357189], [0.7484003364663363, 41.24725485475607], [0.748281077790106, 41.24725252140708], [0.7482779860917785, 41.24734253021556], [0.7481587272661623, 41.24734019673582], [0.7481618191278999, 41.247250187934675], [0.748164910975612, 41.24716017913195], [0.7481680028092991, 41.24707017032762], [0.7480487444879343, 41.247067836746496], [0.7480518364710038, 41.246977827947916], [0.7481710946289607, 41.24698016152169], [0.7482903528009428, 41.246982494972045], [0.748409610986949, 41.24698482829899], [0.748412702465773, 41.24689481947677], [0.7484157939305741, 41.24680481065293], [0.7484188853813514, 41.2467148018275], [0.7484219768181053, 41.246624793000464], [0.7484250682408373, 41.24653478417182], [0.7485443256238405, 41.24653711733863], [0.7485412343645136, 41.246627126174616], [0.7486604919249433, 41.24662945922535], [0.7486635830208673, 41.24653945038204], [0.7487828404319151, 41.246541783302014], [0.7487797494993949, 41.24663179215269], [0.7488990070878676, 41.24663412495661], [0.7490182646903601, 41.24663645763711], [0.7490213552960725, 41.24654644877174], [0.7491406127491803, 41.2465487813215], [0.7491375223068726, 41.246638790194204], [0.749256779937403, 41.246641122627885], [0.7493760375819513, 41.24664345493816], [0.7494952952405182, 41.246645787125004], [0.7496145529131002, 41.24664811918846], [0.7497338105996986, 41.24665045112849], [0.7498530683003113, 41.246652782945105], [0.7498499788244151, 41.24674279186025], [0.7498468893345046, 41.246832800773795], [0.7497276313070804, 41.246830468942505], [0.7497245416397482, 41.24692047784711], [0.7496052834629321, 41.24691814588506], [0.7496021936181775, 41.24700815478072], [0.7497214519584009, 41.24701048675012], [0.7497183622630389, 41.24710049565152], [0.7498376207806848, 41.24710282750484], [0.7498345312347167, 41.24719283641198], [0.7498314416747334, 41.247282845317535], [0.749712182830268, 41.247280513449525], [0.7497152725536605, 41.24719050455133], [0.7495960138866209, 41.24718817256725], [0.749476755233597, 41.24718584045975], [0.74935749659459, 41.24718350822884], [0.7493544063809681, 41.247273517105015], [0.7492351475925699, 41.247271184743354], [0.7491158888181892, 41.24726885225827], [0.7489966300578285, 41.24726651964977], [0.7488773713114871, 41.24726418691787], [0.7488742804302077, 41.247354195763066], [0.7488711895349074, 41.247444204606666], [0.7487519304757665, 41.247441871736655]], [[0.7495385532943896, 41.24538566245297], [0.7494192979234156, 41.245383330368895], [0.7494223878426818, 41.24529332145907], [0.749541643050262, 41.245295653535806], [0.749660898271857, 41.24529798548913], [0.7496578086793784, 41.24538799441362], [0.7495385532943896, 41.24538566245297]], [[0.742734926102948, 41.23849721764596], [0.7426156838123625, 41.23849487883325], [0.742618782317461, 41.23840487023703], [0.7427380244447124, 41.23840720904238], [0.742734926102948, 41.23849721764596]], [[0.7429625962917044, 41.235349253998535], [0.74296569397833, 41.235259245331484], [0.7430849304174539, 41.235261583632415], [0.7430818328941365, 41.235351592306834], [0.7429625962917044, 41.235349253998535]], [[0.7385229176909505, 41.23607272534618], [0.7386421552428133, 41.236075068285224], [0.7386390515363613, 41.23616507667095], [0.7386359478158313, 41.236255085055085], [0.7385167099373423, 41.23625274210129], [0.7385136060394208, 41.23634275047643], [0.7383943680116954, 41.23634040739191], [0.7383974720729316, 41.23625039902414], [0.7384005761200886, 41.23616039065477], [0.7384036801531668, 41.23607038228379], [0.7385229176909505, 41.23607272534618]], [[0.7403607655441647, 41.24160305432338], [0.740241517803626, 41.241600712908564], [0.740244619904497, 41.241510704508435], [0.7401253723413883, 41.241508362977605], [0.7401284745915462, 41.24141835458326], [0.7402477219912968, 41.24142069610672], [0.740366969405119, 41.2414230375068], [0.7403638674816769, 41.24151304591589], [0.7404831150729267, 41.24151538719994], [0.7406023626782462, 41.24151772836062], [0.7405992610674513, 41.24160773678285], [0.740480013298773, 41.24160539561481], [0.7404769115105501, 41.241695404028064], [0.7404738097082576, 41.2417854124397], [0.7403545616269296, 41.24178307113353], [0.7403576635925821, 41.24169306272926], [0.7403607655441647, 41.24160305432338]], [[0.7388726245632145, 41.23977243976919], [0.7389918688678376, 41.239774782517145], [0.7391111131865389, 41.23977712514172], [0.7391080097195604, 41.23986713349858], [0.7389887652375154, 41.239864790866626], [0.7388695207695484, 41.23986244811129], [0.7387502763156597, 41.23986010523257], [0.7387533802726687, 41.23977009689785], [0.7388726245632145, 41.23977243976919]], [[0.7394116617162387, 41.23798164225194], [0.7394085588574432, 41.23807165065561], [0.7394054559845727, 41.23816165905769], [0.7392862145777827, 41.238159316812606], [0.7392893176139829, 41.2380693084179], [0.7392924206361076, 41.237979300021614], [0.7394116617162387, 41.23798164225194]], [[0.7391731795700511, 41.2379769576679], [0.7390539385180702, 41.237974615190815], [0.7389346974801656, 41.23797227259036], [0.7389378009782006, 41.23788226421458], [0.739057041852777, 41.23788460680766], [0.7391762827414297, 41.23788694927737], [0.7392955236441583, 41.2378892916237], [0.7392924206361076, 41.237979300021614], [0.7391731795700511, 41.2379769576679]], [[0.7388185601177006, 41.237879921498134], [0.7388216637649864, 41.23778991312812], [0.7388247673981946, 41.237699904756504], [0.7389440079320405, 41.2377022474582], [0.7389409044621593, 41.23779225583719], [0.7389378009782006, 41.23788226421458], [0.7388185601177006, 41.237879921498134]], [[0.7390632484799632, 41.23770459003653], [0.7391824890419617, 41.23770693249148], [0.7393017296180354, 41.23770927482306], [0.7393048325838619, 41.23761926642036], [0.7394240730106837, 41.2376216086212], [0.7394209702081835, 41.23771161703129], [0.7394178673916094, 41.23780162543976], [0.7392986266381343, 41.237799283224184], [0.7391793858987334, 41.23779694088521], [0.7390601451734082, 41.23779459842289], [0.7390632484799632, 41.23770459003653]], [[0.7390694550508448, 41.237524573258995], [0.7389502148295735, 41.23752223069541], [0.7389533182572252, 41.237432222311625], [0.7388340782133545, 41.237429879632046], [0.7388371817902537, 41.23733987125401], [0.7388402853530754, 41.23724986287437], [0.7388433889018197, 41.237159854493136], [0.7388464924364871, 41.2370698461103], [0.7389657318270679, 41.23707218876037], [0.738962628455722, 41.23716219715059], [0.7389595250702996, 41.2372522055392], [0.7390787648015997, 41.23725454808064], [0.739198004546975, 41.23725689049873], [0.7391949014741225, 41.23734689890049], [0.7393141413968956, 41.23734924120259], [0.7394333813337438, 41.2373515833813], [0.7394302785734639, 41.237441591796205], [0.7393110384732922, 41.23743924961011], [0.739307935535614, 41.23752925801603], [0.739188695286192, 41.2375269156992], [0.7390694550508448, 41.237524573258995]], [[0.7386806961119537, 41.238417628800434], [0.7387999379383549, 41.238419971684515], [0.7387968341925252, 41.23850998004329], [0.7387937304326168, 41.238599988400466], [0.73879062665863, 41.238689996756044], [0.7386713843422291, 41.238687653849844], [0.7386744882795496, 41.238597645501635], [0.7385552461405613, 41.23859530247944], [0.7385583502271357, 41.23850529413701], [0.7384391082655603, 41.238502950998814], [0.7384422125013874, 41.23841294266216], [0.738561454299631, 41.23841528579299], [0.7386806961119537, 41.238417628800434]], [[0.7369460789501141, 41.24027498834237], [0.7369429724584161, 41.24036499655679], [0.7368237272498132, 41.240362651659716], [0.7368268339048577, 41.24027264345268], [0.7369460789501141, 41.24027498834237]], [[0.7376708659678577, 41.24001903030387], [0.7377901106216955, 41.24002137430776], [0.7377870053156841, 41.24011138257866], [0.7376677604985009, 41.24010903856738], [0.7376708659678577, 41.24001903030387]], [[0.7379217757194374, 41.239663685059156], [0.7379186706331097, 41.23975369334385], [0.7379155655326969, 41.23984370162694], [0.7379124604181994, 41.2399337099084], [0.7377932159136215, 41.239931366035265], [0.7376739714231281, 41.23992902203875], [0.7376770768643123, 41.23983901377204], [0.737680182291411, 41.239749005503704], [0.7376832877044238, 41.23965899723378], [0.7378025317048879, 41.23966134120816], [0.7379217757194374, 41.239663685059156]], [[0.7363653901954965, 41.239813221748484], [0.7363684974193628, 41.239723213561355], [0.7362492534246345, 41.23972086809904], [0.7362523607977485, 41.23963085991771], [0.7363716046291354, 41.23963320537263], [0.7364908484746162, 41.23963555070417], [0.7364877414281854, 41.23972555890028], [0.7364846343676612, 41.239815567094794], [0.7363653901954965, 41.239813221748484]], [[0.738776910313295, 41.2356273691113], [0.7387800137719742, 41.23553736070857], [0.7387831172165763, 41.23544735230424], [0.7389023536534217, 41.23544969494491], [0.7389054569206404, 41.2353596865316], [0.7390246932082537, 41.235362029041546], [0.7391439295099415, 41.23536437142813], [0.739140826569338, 41.23545437985619], [0.739260063048408, 41.235456722126784], [0.7392569602570381, 41.23554673056062], [0.7391377236146601, 41.23554438828265], [0.739134620645908, 41.2356343967075], [0.7390153838542952, 41.2356320542988], [0.7390122807081595, 41.235722062714686], [0.7390091775479487, 41.23581207112895], [0.7388899404437911, 41.235809728582126], [0.7387707033537086, 41.23580738591194], [0.7387675998528004, 41.235897394309866], [0.7387644963378149, 41.23598740270618], [0.7386452589351874, 41.235985059897885], [0.7386483626134843, 41.23589505150895], [0.7386514662777037, 41.2358050431184], [0.7386545699278453, 41.23571503472626], [0.73865767356391, 41.235625026332514], [0.738776910313295, 41.2356273691113]], [[0.7382782342225995, 41.23624805582362], [0.7381589963863479, 41.23624571249974], [0.7381621007601323, 41.236155704145126], [0.7382813384330701, 41.23615804746163], [0.7382782342225995, 41.23624805582362]], [[0.7390198009072498, 41.238964707299694], [0.7390166974036246, 41.239054715663606], [0.7388974544057239, 41.23905237297464], [0.738900558072687, 41.23896236461811], [0.7390198009072498, 41.238964707299694]], [[0.7389173778545148, 41.24193498246192], [0.7390366260936703, 41.241937325263514], [0.739033522288825, 41.24202733358188], [0.7389142738863076, 41.24202499077291], [0.7389173778545148, 41.24193498246192]], [[0.7389080659076552, 41.24220500739007], [0.7389111699040212, 41.2421149990823], [0.739030418469901, 41.24211734189862], [0.7391496670498585, 41.242119684591586], [0.7391465633802187, 41.2422096929141], [0.739027314636898, 41.24220735021378], [0.7389080659076552, 41.24220500739007]], [[0.7395229285608156, 41.24167667018278], [0.7395260316559121, 41.24158666182851], [0.7396452793120138, 41.24158900398365], [0.7396421763802762, 41.241679012345294], [0.7395229285608156, 41.24167667018278]], [[0.7397011296765937, 41.239968853199755], [0.7396980269981884, 41.24005886159027], [0.7398172718913749, 41.24006120349669], [0.739814169362243, 41.24015121189297], [0.7396949243057104, 41.24014886997918], [0.7395756792632509, 41.24014652794201], [0.7395787821190758, 41.24005651956047], [0.7395818849608261, 41.239966511177336], [0.7397011296765937, 41.239968853199755]], [[0.740402808392526, 41.23692027397629], [0.7405220476393959, 41.236922615007835], [0.7405189464193676, 41.23701262349711], [0.740515845185274, 41.23710263198477], [0.7403966056117608, 41.23710029093849], [0.7402773660523156, 41.23709794976884], [0.740158126506938, 41.237095608475826], [0.7401612282309968, 41.23700560001027], [0.7402804676130529, 41.237007941295914], [0.740399707009177, 41.23701028245819], [0.740402808392526, 41.23692027397629]], [[0.7401767366402626, 41.23655555765846], [0.740295975205722, 41.23655789890726], [0.7402928737153238, 41.23664790738819], [0.7402897722108577, 41.23673791586753], [0.7401705333187617, 41.236735574604], [0.7401674316369088, 41.23682558307436], [0.7400481925955621, 41.236823241680085], [0.7400512944407348, 41.236733233217095], [0.7400543962718371, 41.236643224752505], [0.7400574980888707, 41.2365532162863], [0.7401767366402626, 41.23655555765846]], [[0.7392117374863659, 41.24031951780423], [0.7393309828132946, 41.24032186022629], [0.73932787958855, 41.240411868588275], [0.7392086340982723, 41.240409526158835], [0.7390893886220726, 41.24040718360601], [0.7390924921735131, 41.24031717525878], [0.7390955957108774, 41.24022716690995], [0.7392148408603816, 41.24022950944803], [0.7392117374863659, 41.24031951780423]], [[0.7391018027433728, 41.240047150207474], [0.7392210475661847, 41.24004949273079], [0.7392179442203213, 41.240139501090205], [0.739098699234164, 41.24013715855951], [0.7391018027433728, 41.240047150207474]], [[0.7390676633678133, 41.2410372419917], [0.7390707670177977, 41.240947233655696], [0.7390738706537042, 41.240857225318095], [0.7391931169466577, 41.24085956790779], [0.7391900134741036, 41.24094957625277], [0.7391869099874725, 41.241039584596145], [0.7390676633678133, 41.2410372419917]], [[0.7401657004958793, 41.24033825372604], [0.7402849459353936, 41.240340595161044], [0.7402818440174387, 41.24043060358201], [0.7402787420854137, 41.24052061200136], [0.7401594963192007, 41.24051827055161], [0.7400402505670577, 41.240515928978475], [0.7400433528257817, 41.24042592057387], [0.7400464550704349, 41.24033591216766], [0.7400495573010161, 41.24024590375983], [0.7401688025631123, 41.240248245310845], [0.7401657004958793, 41.24033825372604]], [[0.7401781086803881, 41.239978220055654], [0.7401812106913394, 41.239888211634046], [0.7400619660826289, 41.239885870112516], [0.7400650682428538, 41.239795861696685], [0.7401843126882209, 41.23979820321084], [0.7403035571476577, 41.239800544601614], [0.740300455314121, 41.23989055303219], [0.7402973534665148, 41.239980561461174], [0.7402942516048397, 41.24007056988854], [0.7402911497290939, 41.24016057831432], [0.740171904616275, 41.24015823689405], [0.7400526595175261, 41.24015589535041], [0.7399334144328488, 41.24015355368338], [0.7399365167986338, 41.24006354527972], [0.740055761719965, 41.24006588693937], [0.7400588639083323, 41.23997587852675], [0.7401781086803881, 41.239978220055654]], [[0.7425444143159449, 41.24056507610366], [0.7426636603634199, 41.240567415085735], [0.742660561684349, 41.24065742365082], [0.742657462991222, 41.24074743221433], [0.7426543642840394, 41.24083744077623], [0.7426512655628019, 41.24092744933651], [0.7426481668275088, 41.2410174578952], [0.7427674137058059, 41.241019796790695], [0.7428866605981579, 41.241022135562815], [0.7428835621755204, 41.24111214413462], [0.7428804637388284, 41.24120215270484], [0.7428773652880825, 41.241292161273435], [0.7427581179056615, 41.241289822479224], [0.7426388705372946, 41.24128748356165], [0.7426419693147551, 41.24119747500776], [0.7425227221238015, 41.241195135974145], [0.7425258210505625, 41.24110512742603], [0.7425289199632674, 41.241015118876305], [0.742409673113082, 41.241012779734035], [0.742412772175085, 41.24092277119008], [0.7422935255023116, 41.24092043193177], [0.7422966247136114, 41.24083042339359], [0.7421773782182495, 41.24082808401927], [0.7421804775788444, 41.24073807548684], [0.7421835769253814, 41.24064806695279], [0.7421866762578603, 41.24055805841715], [0.7423059222631643, 41.240560397769364], [0.7424251682825264, 41.2405627369982], [0.7425444143159449, 41.24056507610366]], [[0.7420736292160965, 41.24037570188018], [0.7420705297483844, 41.24046571041166], [0.7420674302666135, 41.24055571894154], [0.7419481842894268, 41.24055337934254], [0.7419512839345482, 41.24046337082003], [0.7419543835656108, 41.24037336229591], [0.7420736292160965, 41.24037570188018]], [[0.7422703529209982, 41.23812782734875], [0.742389594516087, 41.238130166502124], [0.7423864957264871, 41.23822017508843], [0.7423833969228323, 41.238310183673114], [0.742264155001079, 41.23830784450501], [0.7422672539680664, 41.238217835927685], [0.7421480122237022, 41.23821549664356], [0.7420287704933944, 41.23821315723607], [0.7420318697729891, 41.23812314867186], [0.7421511113399646, 41.238125488071994], [0.7422703529209982, 41.23812782734875]], [[0.7412451111380989, 41.24017930523466], [0.7412420105550657, 41.24026931371779], [0.7411227651663611, 41.240266973277215], [0.7410035197917209, 41.240264632713256], [0.74100662070145, 41.24017462424487], [0.741125865912742, 41.240176964801464], [0.7412451111380989, 41.24017930523466]], [[0.7425088361252316, 41.23813250553214], [0.7426280777484309, 41.23813484443877], [0.742624979285495, 41.238224853039796], [0.7425057374989638, 41.2382225141258], [0.7425088361252316, 41.23813250553214]], [[0.7426807494681299, 41.2366046979761], [0.742677651244103, 41.23669470660437], [0.7427968902681471, 41.236697045269814], [0.7427937921933868, 41.23678705390386], [0.7426745530060231, 41.236784715231046], [0.7425553138327128, 41.23678237643486], [0.7425584122341126, 41.23669236781555], [0.7425615106214586, 41.236602359194634], [0.742564608994751, 41.23651235057213], [0.7426838476781032, 41.23651468934622], [0.7426807494681299, 41.2366046979761]], [[0.7427303191414233, 41.23516455970563], [0.742733417126562, 41.2350745510501], [0.7428526532109713, 41.235076889583006], [0.742849555389139, 41.23516689824591], [0.7427303191414233, 41.23516455970563]], [[0.7436470482767519, 41.23626336902181], [0.7436439514154694, 41.23635337771539], [0.7435247129463513, 41.23635103994295], [0.7435278099709509, 41.23626103125673], [0.7436470482767519, 41.23626336902181]], [[0.7432614567346245, 41.23706643334227], [0.7433806964822083, 41.237068771420326], [0.7433775991678558, 41.237158780084755], [0.7432583592569486, 41.237156441999346], [0.7432614567346245, 41.23706643334227]], [[0.7464255420495476, 41.2456850230486], [0.7465447977234703, 41.24568735824724], [0.7465417038126019, 41.245777366972725], [0.7465386098876985, 41.245867375696605], [0.7464193538869838, 41.245865040483274], [0.7464224479752833, 41.24577503176673], [0.7464255420495476, 41.2456850230486]], [[0.7471998424217514, 41.24398886560227], [0.7470805897820516, 41.2439865311603], [0.7470836827587252, 41.24389652237336], [0.7472029352350438, 41.243898856807974], [0.7471998424217514, 41.24398886560227]], [[0.746787791803658, 41.242089342694776], [0.7466685426509283, 41.24208700791358], [0.7465492935122301, 41.24208467300899], [0.7465461999993079, 41.24217468179124], [0.7464269507112751, 41.2421723467559], [0.7464300443875637, 41.24208233798101], [0.7464331380498196, 41.24199232920452], [0.746436231698043, 41.241902320426426], [0.7465554804959798, 41.2419046554397], [0.7466747293079472, 41.241906990329596], [0.7466778226154099, 41.24181698153519], [0.7466809159088416, 41.241726972739194], [0.7466840091882426, 41.24163696394157], [0.7466871024536119, 41.24154695514237], [0.7468063506261594, 41.24154928987947], [0.7469255988127371, 41.24155162449318], [0.7470448470133451, 41.24155395898349], [0.74716409522798, 41.24155629335043], [0.7472833434566445, 41.241558627593946], [0.7472802510080846, 41.24164863642989], [0.7472771585454969, 41.24173864526427], [0.7473964071149128, 41.24174097939911], [0.7473933148016625, 41.2418309882392], [0.7473902224743851, 41.2419209970777], [0.7472709735782407, 41.241918662928164], [0.7471517246961246, 41.24191632865523], [0.7470324758280363, 41.2419139942589], [0.747029382996637, 41.24200400307375], [0.7469101339792126, 41.242001668546685], [0.7469070409704183, 41.24209167735259], [0.746787791803658, 41.242089342694776]], [[0.7448116961993142, 41.244032161962714], [0.7449309487357012, 41.244034498756626], [0.7449278527900893, 41.24412450740802], [0.7448086000903216, 41.24412217060674], [0.7446893474045972, 41.24411983368207], [0.7446924436769714, 41.24402982504541], [0.7448116961993142, 41.244032161962714]], [[0.7452839818772332, 41.24070885020196], [0.7452808867778826, 41.24079885892737], [0.7454001334751492, 41.240801195086306], [0.7455193801864554, 41.240803531121834], [0.7455224749590974, 41.24071352238172], [0.7456417215210863, 41.24071585828653], [0.7456386269117984, 41.240805867034], [0.7457578736511787, 41.24080820282276], [0.7457609680971122, 41.24071819406794], [0.7457640625290092, 41.24062818531152], [0.7458833089557172, 41.2406305209622], [0.745880214687174, 41.24072052972598], [0.7458771204045954, 41.24081053848815], [0.7459963671720478, 41.24081287403015], [0.745993273038789, 41.24090288279807], [0.7461125199836313, 41.240905218224036], [0.7461094259996944, 41.2409952269977], [0.746228673121927, 41.24099756230763], [0.7462255792873128, 41.24108757108704], [0.7462224854386648, 41.24117757986487], [0.7461032379897178, 41.24117524454022], [0.7461063320017229, 41.24108523576976], [0.7459870847301678, 41.2410829003291], [0.7459839905548045, 41.2411729090922], [0.7458647431339258, 41.2411705735208], [0.7458678374726467, 41.241080564765035], [0.7457485902291624, 41.24107822907759], [0.745751684717204, 41.24098822032758], [0.7456324376511126, 41.2409858845241], [0.7455131905990579, 41.24098354859725], [0.7453939435610413, 41.24098121254699], [0.7452746965370632, 41.240978876373354], [0.745155449527125, 41.240976540076325], [0.7451585448179092, 41.2408865313615], [0.7451616400946537, 41.24079652264505], [0.7451647353573592, 41.24070651392701], [0.7452839818772332, 41.24070885020196]], [[0.745886403210225, 41.24054051219684], [0.7460056494876156, 41.240542847716775], [0.7460025553964607, 41.2406328564895], [0.7458833089557172, 41.2406305209622], [0.745886403210225, 41.24054051219684]], [[0.7440667430539504, 41.24140555106977], [0.7441859907542885, 41.241407888514075], [0.7441828940723837, 41.24149789716044], [0.7441797973764331, 41.2415879058052], [0.7440605493493746, 41.24158556834618], [0.7440636462086864, 41.241495559708774], [0.7439443983590359, 41.241493222133734], [0.7439474953676593, 41.24140321350209], [0.7440667430539504, 41.24140555106977]], [[0.7443207208507161, 41.240960182542324], [0.7444399677623593, 41.24096251970305], [0.7445592146880466, 41.2409648567404], [0.7445623107956081, 41.24087484806234], [0.744565406889127, 41.24078483938269], [0.744684653502148, 41.240787176281934], [0.744681557571984, 41.240877184968944], [0.7448008043624027, 41.24087952175216], [0.7447977085815515, 41.24096953044493], [0.7447946127866577, 41.24105953913609], [0.7449138599178308, 41.241061875810644], [0.7449107642722512, 41.24115188450756], [0.74490766861263, 41.24124189320288], [0.7450269160845597, 41.241244229768746], [0.7450238205742552, 41.24133423846982], [0.7450207250499101, 41.24142424716929], [0.7450176295115241, 41.24151425586715], [0.7448983815495174, 41.24151191927921], [0.744779133601552, 41.24150958256789], [0.7447760377224033, 41.24159959124943], [0.7446567896251208, 41.24159725440737], [0.7445375415418818, 41.241594917441915], [0.7445406377477517, 41.24150490877508], [0.7444213898419172, 41.24150257169359], [0.744302141950128, 41.241500234488704], [0.7443052384686731, 41.24141022583499], [0.744308334973173, 41.241320217179656], [0.7443114314636267, 41.24123020852273], [0.7443145279400349, 41.2411401998642], [0.7441952807157249, 41.24113786256536], [0.7440760335054606, 41.24113552514314], [0.7440791302945373, 41.241045516497714], [0.7440822270695668, 41.24095550785069], [0.7442014739531182, 41.24095784525821], [0.7443207208507161, 41.240960182542324]], [[0.7438158589231929, 41.24176091029854], [0.7438189561373214, 41.24167090167908], [0.743938204299645, 41.24167323939223], [0.7439351072488773, 41.24176324801906], [0.7438158589231929, 41.24176091029854]], [[0.7457702513506949, 41.240448167793886], [0.7457733457404836, 41.24035815903265], [0.745776440116237, 41.24026815026983], [0.7457795344779542, 41.240178141505396], [0.7458987800879046, 41.2401804771193], [0.7458956858895367, 41.24027048589109], [0.7458925916771346, 41.24036049466128], [0.7458894974506971, 41.240450503429855], [0.7457702513506949, 41.240448167793886]], [[0.746041354802311, 41.24297541961294], [0.7460444490950162, 41.24288541087453], [0.7461636996479011, 41.24288774633886], [0.7461606055185688, 41.24297775508462], [0.746157511375201, 41.24306776382878], [0.7461544172177987, 41.24315777257134], [0.7460351661747935, 41.24315543708495], [0.7460382604955702, 41.24306542834975], [0.745919009629975, 41.24306309274731], [0.7459221041000891, 41.242973084017855], [0.746041354802311, 41.24297541961294]], [[0.7454791468646527, 41.241973644597394], [0.7455983957136711, 41.24197598060514], [0.7455953009078594, 41.24206598933017], [0.74559220608801, 41.24215599805359], [0.7457114552777967, 41.24215833395267], [0.7457083606072751, 41.242248342681854], [0.745589111254122, 41.24224600677542], [0.7454698619150071, 41.242243670745594], [0.745472956912261, 41.24215366203112], [0.7453537077505511, 41.24215132588527], [0.7453568028971318, 41.24206131717655], [0.7453598980296727, 41.24197130846624], [0.7454791468646527, 41.241973644597394]], [[0.745730023006143, 41.241618281543985], [0.7457269284198444, 41.24170829028278], [0.7456076800468786, 41.24170595442047], [0.7456107747965393, 41.24161594568902], [0.7454915266009721, 41.24161360971068], [0.7454946214999557, 41.241523600985], [0.745613869532162, 41.24152593695599], [0.7457331175784049, 41.24152827280359], [0.745730023006143, 41.241618281543985]], [[0.7461963138627565, 41.24541032616119], [0.7461932195038096, 41.24550033486944], [0.7460739641987831, 41.24549799931528], [0.7460770587211231, 41.2454079906144], [0.7461963138627565, 41.24541032616119]], [[0.7469458712456474, 41.244434240468856], [0.7469427780214075, 41.24452424923886], [0.7468235244294644, 41.244521914505995], [0.7468266178170898, 41.244431905743355], [0.7469458712456474, 41.244434240468856]], [[0.7481989203748072, 41.24617008219616], [0.7480796636874815, 41.24616774868849], [0.7480827555302975, 41.24607773987389], [0.7482020120542239, 41.2460800733742], [0.7481989203748072, 41.24617008219616]], [[0.7480191527339665, 41.24445524744535], [0.7480222444737071, 41.24436523860764], [0.7479029910822836, 41.2443629050001], [0.7479060829713852, 41.244272896168134], [0.7480253361994244, 41.24427522976833], [0.7481445894414873, 41.24427756324513], [0.7482638426975743, 41.2442798965985], [0.7482669340824982, 41.244189887742905], [0.7483861871892231, 41.244192220965544], [0.748383095967683, 41.2442822298285], [0.748502349251814, 41.24428456293509], [0.7484992581796376, 41.24437457180379], [0.7486185116411757, 41.244376904794315], [0.7486154207183636, 41.24446691366875], [0.7487346743573078, 41.244469246543225], [0.7487315835838614, 41.24455925542341], [0.7487284927963951, 41.24464926430199], [0.7488477467761337, 41.24465159706775], [0.7488508374002122, 41.244561588181824], [0.748970091230582, 41.24456392081684], [0.7489670007698914, 41.244653929710104], [0.7490862547776674, 41.24465626222906], [0.7490893450749705, 41.24456625332845], [0.7492085989333773, 41.24456858571665], [0.7493278528058008, 41.24457091798145], [0.7493309427623123, 41.24448090906454], [0.7493340327048069, 41.24439090014605], [0.7494532862644734, 41.24439323227276], [0.749572539838155, 41.24439556427607], [0.7495694502224328, 41.24448557320925], [0.7496887039735158, 41.24448790509649], [0.7498079577386123, 41.24449023686034], [0.7498048684356496, 41.24458024580662], [0.7496856145071656, 41.24457791403543], [0.749682525026802, 41.244667922972745], [0.749679435532424, 41.24475793190847], [0.7495601812911777, 41.24475559999918], [0.7494409270639455, 41.24475326796651], [0.7494378372287742, 41.244843276885945], [0.7493185828521692, 41.24484094472251], [0.7493154928395918, 41.244930953633016], [0.7491962383136131, 41.244928621338836], [0.74919932848958, 41.24483861243569], [0.7492024186515295, 41.244748603530944], [0.7490831644663469, 41.244746271128065], [0.7489639102951818, 41.244743938601765], [0.7489608198064539, 41.244833947491834], [0.7488415654859188, 41.24483161483478], [0.7487223111794029, 41.24482928205433], [0.7486030568869076, 41.244826949150486], [0.7486061478658027, 41.24473694028246], [0.7484868937507168, 41.24473460726255], [0.7484899848789788, 41.244644598400264], [0.7483707309413029, 41.2446422652643], [0.7482514770176494, 41.24463993200492], [0.7482545684586644, 41.24454992315573], [0.7482576598856572, 41.24445991430492], [0.7481384063028005, 41.24445758093684], [0.7480191527339665, 41.24445524744535]], [[0.7485394410243014, 41.24320445638575], [0.7485425319142077, 41.24311444749622], [0.7485456227900938, 41.24302443860508], [0.7485487136519596, 41.242934429712356], [0.7484294628185167, 41.24293209671594], [0.7483102119990942, 41.24292976359613], [0.7483133031736868, 41.242839754716485], [0.7483163943342577, 41.24274974583524], [0.748319485480807, 41.2426597369524], [0.7484387358101124, 41.242662070050166], [0.7485579861534378, 41.24266440302455], [0.7485610769592241, 41.242574394125405], [0.7486803271531985, 41.242576726969055], [0.7486834177815946, 41.24248671806096], [0.7488026678262177, 41.24248905077386], [0.748799577361193, 41.24257905968929], [0.7487964868821486, 41.242669068603135], [0.748915737267532, 41.24267140120733], [0.7489126469378422, 41.24276141012689], [0.7487933963890868, 41.24275907751535], [0.7487903058820063, 41.24284908642597], [0.7487872153609071, 41.24293909533499], [0.7487841248257896, 41.24302910424241], [0.7489033758646653, 41.243031436875974], [0.7490226269175589, 41.24303376938615], [0.7490195366951722, 41.24312377830667], [0.7489002854789034, 41.24312144578914], [0.7488971950791238, 41.243211454700706], [0.7488941046653261, 41.24330146361067], [0.7488910142375101, 41.243391472519015], [0.7487717625451302, 41.24338913985606], [0.7487748531363233, 41.24329913095506], [0.7486556016213393, 41.24329679817606], [0.74865869236189, 41.2432067892808], [0.7485394410243014, 41.24320445638575]], [[0.7485641677509901, 41.24248438522466], [0.7485672585287362, 41.242394376322316], [0.7486865083959715, 41.24239670915127], [0.7486834177815946, 41.24248671806096], [0.7485641677509901, 41.24248438522466]], [[0.7484480086755216, 41.24239204336997], [0.748451099602617, 41.24230203447337], [0.7485703492924632, 41.24230436741838], [0.7485672585287362, 41.242394376322316], [0.7484480086755216, 41.24239204336997]], [[0.7473146367786148, 41.247593885161436], [0.7473177298263068, 41.24750387641656], [0.7474369888805517, 41.2475062107749], [0.7474338959962696, 41.24759621952713], [0.7473146367786148, 41.247593885161436]], [[0.7478672181992214, 41.24193033244194], [0.7477479692469748, 41.24192799878597], [0.7476287203087529, 41.241925665006605], [0.7476318123093011, 41.24183565615342], [0.7475125635484686, 41.241833322258], [0.747515655698355, 41.24174331341056], [0.7476349042958241, 41.241745647298615], [0.7477541529073176, 41.24174798106329], [0.7478734015328358, 41.24175031470458], [0.7479926501723769, 41.24175264822246], [0.747989558675946, 41.24184265709929], [0.7479864671654922, 41.241932665974524], [0.7481057161457849, 41.24193499938371], [0.7481026247846735, 41.24202500826469], [0.7479833756410147, 41.24202267484815], [0.7479802841025145, 41.24211268372019], [0.747861034809512, 41.2421103501729], [0.7477417855305343, 41.242108016502236], [0.7477448773957666, 41.2420180076449], [0.7478641265113787, 41.242020341308226], [0.7478672181992214, 41.24193033244194]], [[0.7470001674638418, 41.246326759058284], [0.7468809105899988, 41.24632442430183], [0.7467616537301877, 41.24632208942197], [0.7467647473984624, 41.246232080691385], [0.7468840040948733, 41.2462344155639], [0.7470032608053165, 41.24623675031301], [0.7470001674638418, 41.246326759058284]], [[0.7476410882267955, 41.241565629584215], [0.7476379962683226, 41.24165563844222], [0.747518747834217, 41.241653304561495], [0.7475218399560524, 41.241563295710854], [0.7476410882267955, 41.241565629584215]], [[0.7476724144736687, 41.24760088788828], [0.7477916737334107, 41.247603221883736], [0.7477885813253358, 41.24769323065641], [0.7476693219021812, 41.24769089665362], [0.7476724144736687, 41.24760088788828]], [[0.7477033394169925, 41.24670080014685], [0.7477002469857857, 41.246790808928196], [0.7476971545405507, 41.24688081770796], [0.7475778966021066, 41.24687848364788], [0.7475809892107466, 41.246788474875466], [0.7475840818053583, 41.24669846610146], [0.747587174385941, 41.246608457325856], [0.7477064318341715, 41.24661079136389], [0.7477033394169925, 41.24670080014685]], [[0.7478782554645647, 41.24508297559815], [0.7478751634492353, 41.2451729844157], [0.747994418311156, 41.245175318089366], [0.748113673187101, 41.24517765163962], [0.748110581484531, 41.245267660470255], [0.7479913264451926, 41.245265326912644], [0.7478720714198804, 41.24526299323165], [0.7477528164085937, 41.24526065942723], [0.7477559086013404, 41.24517065061863], [0.7476366537674721, 41.245168316698155], [0.7476397461095841, 41.245078307895305], [0.7477590007800612, 41.245080641808435], [0.7478782554645647, 41.24508297559815]], [[0.7480902592000026, 41.24238504377257], [0.7480933506172041, 41.24229503489801], [0.7482126002649866, 41.242297368213194], [0.7482095090111536, 41.242387377095106], [0.7480902592000026, 41.24238504377257]], [[0.748753218703569, 41.24392919322849], [0.7487501280142411, 41.24401920211829], [0.7486308751922196, 41.244016869280536], [0.7486339660449303, 41.24392686039808], [0.748753218703569, 41.24392919322849]], [[0.7491838774695715, 41.24528865693541], [0.7493031326491186, 41.24529098925895], [0.7493000425664581, 41.24538099816142], [0.7492969524697805, 41.245471007062314], [0.7491776969634453, 41.24546867472408], [0.7491807872235174, 41.245378665830536], [0.7491838774695715, 41.24528865693541]], [[0.7489391859928292, 41.245464009677406], [0.7489422765796903, 41.24537400079855], [0.7489453671525316, 41.24528399191811], [0.7490646223040421, 41.245286324488454], [0.7490615318945948, 41.24537633337625], [0.7490584414711279, 41.245466342262446], [0.7489391859928292, 41.245464009677406]], [[0.7496979722884807, 41.244217878270135], [0.7498172255634199, 41.244220210011946], [0.7498141363024967, 41.24431021896303], [0.7496948828641727, 41.24430788721385], [0.7496979722884807, 41.244217878270135]], [[0.7491980619747378, 41.248351291044365], [0.7493173227241061, 41.24835362349414], [0.7493142323282488, 41.248443632349485], [0.7493111419183728, 41.248533641203224], [0.7494304030085992, 41.248535973544264], [0.7494273127481246, 41.24862598240376], [0.7494242224736325, 41.24871599126164], [0.7493049610565643, 41.248713658905906], [0.7493080514944778, 41.24862365005538], [0.7491887902548503, 41.24862131758356], [0.7491918808421655, 41.24853130873876], [0.7491949714154612, 41.24844129989237], [0.7491980619747378, 41.248351291044365]], [[0.7498685154695814, 41.2462027383453], [0.7498716048613937, 41.24611272942054], [0.7499908615956047, 41.2461150610697], [0.749987772367193, 41.246205070001814], [0.7498685154695814, 41.2462027383453]], [[0.7496176427017912, 41.24655811028638], [0.7496207324764668, 41.24646810138271], [0.7497399898362568, 41.24647043330806], [0.7497369002249851, 41.246560442219064], [0.7496176427017912, 41.24655811028638]], [[0.7499198057966928, 41.24818526610283], [0.7498005453040751, 41.24818293428483], [0.7498036350042095, 41.248092925395305], [0.7499228953334104, 41.24809525720596], [0.7499198057966928, 41.24818526610283]], [[0.7439397365310318, 41.238160564269045], [0.7438204947532778, 41.23815822671953], [0.7438235915688446, 41.238068218043296], [0.7439428331832665, 41.23807055558545], [0.7439397365310318, 41.238160564269045]], [[0.7447837158531582, 41.23790689745107], [0.744786811319946, 41.237816888711166], [0.7449060525567206, 41.23781922524426], [0.744902957253263, 41.23790923399153], [0.7448998619357657, 41.2379992427372], [0.744780620372329, 41.237996906189395], [0.7446613788229339, 41.2379945695182], [0.7445421372875803, 41.23799223272365], [0.7445452330950703, 41.237902224000045], [0.7446644744670934, 41.23790456078724], [0.7447837158531582, 41.23790689745107]], [[0.7445390414660478, 41.23808224144563], [0.7444197997814044, 41.23807990452035], [0.744422895766268, 41.23798989580572], [0.7445421372875803, 41.23799223272365], [0.7445390414660478, 41.23808224144563]]]}, "properties": {"area_ha": 77.47, "dnbr_threshold": 0.27, "part": 8, "fire_id": "2024430998", "burn_year": 2024, "source": "sentinel", "aoi_source": "official", "buffer_m": 800.0, "fire_date": "2024-09-12"}}]}
