{"type": "FeatureCollection", "features": [{"type": "Feature", "geometry": {"type": "Polygon", "coordinates": [[[0.677301111859998, 41.87242135651509], [0.6772978519977335, 41.87251135104789], [0.6775386676258698, 41.87251622374324], [0.6775354080859883, 41.87260621828972], [0.6782578563386379, 41.8726208333947], [0.6782545977956277, 41.87271082798544], [0.678615822628321, 41.8727181338582], [0.6786125645763261, 41.87280812847026], [0.6787329730522125, 41.87281056351657], [0.6787297151539914, 41.87290055813465], [0.6784888978798214, 41.87289568790061], [0.6784856396295041, 41.872985682501785], [0.6782448220774864, 41.872980811747944], [0.6782415634750699, 41.873070806332194], [0.6778803367525601, 41.87306349923257], [0.6778738184914175, 41.873243488350326], [0.677633000076179, 41.87323861628936], [0.6776232215612948, 41.87350859990796], [0.6778640409882969, 41.8735134720148], [0.6778705593385654, 41.87333348290678], [0.6779909687370929, 41.87333591875572], [0.6779877097380135, 41.87342591331819], [0.6781081193200224, 41.87342834904865], [0.6780983427395493, 41.87369833274927], [0.6783391629598988, 41.87370320387769], [0.6783261286603784, 41.87406318218363], [0.6784465394673584, 41.87406561758924], [0.6784400225657559, 41.87424560674777], [0.6785604337248563, 41.87424804204254], [0.678563692014449, 41.874158047456426], [0.6788045140399296, 41.874162917652264], [0.6788110299000286, 41.87398292844462], [0.6790518513103704, 41.873987798105354], [0.6790551088808815, 41.87389780348382], [0.6791755194396908, 41.87390023811736], [0.6791787768267228, 41.873810243486545], [0.6790583664365453, 41.873807808860654], [0.6790648815033312, 41.87362781960946], [0.6791852915562478, 41.87363025422006], [0.679191806226388, 41.87345026494709], [0.679071396510731, 41.87344783035178], [0.6790746539921603, 41.873357835720505], [0.6788338349426432, 41.87335296616676], [0.6788403505354699, 41.87317297692992], [0.6793219873448745, 41.873182715471735], [0.679328501529305, 41.873002726167265], [0.6795693193485768, 41.87300759465086], [0.6795790895021449, 41.872737610636115], [0.6796994979281744, 41.872740044665804], [0.6796962413937843, 41.87283003934664], [0.6802982845896683, 41.87284220764139], [0.6803080516189716, 41.87257222347941], [0.6804284597967986, 41.872574656737065], [0.6804317152749352, 41.87248466200553], [0.6807929393915724, 41.87249196099886], [0.6807994492916116, 41.872311971485075], [0.6809198570229226, 41.87231440421532], [0.6809263665263833, 41.872134414679785], [0.6810467739352897, 41.87213684726864], [0.6810728100068575, 41.87141688900052], [0.6808319979017213, 41.87141202381887], [0.6808385074457305, 41.871232034266164], [0.6805976960743766, 41.87122716861059], [0.6806042062334876, 41.871047179081955], [0.6800021797508308, 41.871035012812335], [0.6800054356511744, 41.870945018083766], [0.6796442204454684, 41.87093771683152], [0.6796474768367938, 41.87084772212426], [0.6794066671110764, 41.87084285400747], [0.6794131805236264, 41.87066286461864], [0.6789315625991568, 41.8706531269328], [0.6789380773011677, 41.87047313759862], [0.6784564609630609, 41.870463397956094], [0.6784597189662077, 41.87037340331715], [0.6783393150874036, 41.87037096809888], [0.6783425732443028, 41.87028097346596], [0.678101765868446, 41.87027610266637], [0.6781050243476975, 41.87018610804713], [0.6779846208506455, 41.8701836724658], [0.677987879483647, 41.870093677852566], [0.6778674761700463, 41.87009124215278], [0.6778739937286906, 41.869911252936745], [0.6777535907671395, 41.86990881712615], [0.6777601086035687, 41.86972882791892], [0.6775193033994126, 41.86972395594997], [0.6775258218508123, 41.86954396676684], [0.6770442129695177, 41.86953422137681], [0.6770507327102495, 41.86935423224837], [0.6768099290331153, 41.8693493588273], [0.6768164493887865, 41.869169369722975], [0.6765756464454532, 41.869164495828066], [0.6765821674160503, 41.86898450674786], [0.6763413652065163, 41.86897963237913], [0.676347886792028, 41.86879964332304], [0.6762274860467287, 41.86879720596481], [0.6762242250928155, 41.86888720048602], [0.6761038241937904, 41.86888476299403], [0.6761070853162917, 41.868794768480484], [0.6758662839000056, 41.8687898931335], [0.6758858523459196, 41.86824992610992], [0.6756450530121088, 41.86824505035036], [0.6756483147049017, 41.86815505585606], [0.6752871163214224, 41.86814774129392], [0.6752903785050942, 41.868057746820945], [0.6751699792422494, 41.86805530838901], [0.6751634545228761, 41.868235297318016], [0.6744410572350921, 41.868220663986406], [0.6744475839774394, 41.86804067514928], [0.6737251892480499, 41.86802603736987], [0.6737186604827338, 41.8682060261151], [0.6734778616842935, 41.868201145815846], [0.6734745969421564, 41.8682911401707], [0.6732337978660695, 41.868286259351706], [0.6732174722463596, 41.86873623102502], [0.6733378726198811, 41.868738671535866], [0.6733280775752428, 41.86900865454335], [0.6734484784694053, 41.86901109495109], [0.6734256240245614, 41.8696410552987], [0.6736664282177951, 41.869645935843096], [0.6736631635747696, 41.869735930187296], [0.6735427613021195, 41.86973348997049], [0.6735394964756211, 41.86982348430542], [0.6734190940492563, 41.86982104395484], [0.6734125640144285, 41.8700010326045], [0.6735329667779846, 41.870003472970396], [0.6735264370208293, 41.87018346162887], [0.6736468401364599, 41.870185901883964], [0.6736337811179858, 41.8705458792121], [0.6737541849228944, 41.870548319371736], [0.6737509202996788, 41.870638313707374], [0.673871324288068, 41.87064075374855], [0.6738680598185757, 41.87073074809022], [0.6741088681771925, 41.87073562780955], [0.6741023398679878, 41.87091561651869], [0.6743431489605268, 41.870920495764196], [0.6743333573967782, 41.87119047886163], [0.6744537624711786, 41.87119291831821], [0.6744504987554527, 41.87128291268842], [0.6745709040133353, 41.87128535202653], [0.674551322418264, 41.87182531825976], [0.6747921350019734, 41.87183019664952], [0.6747888716879611, 41.87192019103135], [0.6749092781707389, 41.87192263004471], [0.6749060150104667, 41.87201262443258], [0.6752672350538732, 41.87201994073888], [0.6752639723845728, 41.8721099351481], [0.6755047861584255, 41.87211481207036], [0.675501523811487, 41.87220480649326], [0.6758627450896266, 41.8722121209537], [0.6758594832336692, 41.87230211539794], [0.6759798905247325, 41.87230455330683], [0.6759766288225263, 41.87239454775711], [0.6764582588099032, 41.87240429816208], [0.6764615198376382, 41.8723143036812], [0.6767023345832697, 41.87231917811165], [0.6766990738927708, 41.87240917260784], [0.6768194814564967, 41.87241160964153], [0.6768227419783773, 41.87232161513769], [0.6771839642528606, 41.872328925459094], [0.6771807042368346, 41.87241891998588], [0.677301111859998, 41.87242135651509]], [[0.6786386285765139, 41.87208817152838], [0.6787590357034411, 41.87209060651355], [0.6787525201297233, 41.87227059577404], [0.6789933351025922, 41.87227546539658], [0.6789900776306983, 41.87236546003968], [0.6791104853080216, 41.87236789466941], [0.6791072279899012, 41.87245788931853], [0.6793480437263246, 41.87246275821491], [0.6793415297200299, 41.87264274753884], [0.6786190806654667, 41.872628139244526], [0.6786255966952114, 41.87244815001231], [0.6781439656381042, 41.87243840868812], [0.678157000217296, 41.872078430326525], [0.6782774072848248, 41.87208086581617], [0.6782839241480786, 41.871900876610354], [0.6784043308932264, 41.8719033119586], [0.6784075891339634, 41.8718133173456], [0.6786484023315799, 41.871818187648415], [0.6786386285765139, 41.87208817152838]], [[0.6788989881983398, 41.871553073506334], [0.6791398005030561, 41.87155794275435], [0.6791365433185443, 41.87164793741806], [0.678895730676603, 41.87164306815477], [0.6788989881983398, 41.871553073506334]]]}, "properties": {"area_ha": 19.65, "dnbr_threshold_core": 0.35, "dnbr_threshold_grow": 0.22, "dnbr_mean": 0.5608, "dnbr_max": 0.8976, "severity": "alta", "severity_method": "dnbr_mean", "forest_mask": "esa_worldcover_2021_10_20", "part": 9, "fire_id": "272191_9", "burn_year": 2025, "source": "sentinel", "aoi_source": "effis", "dnbr_threshold": 0.35, "buffer_m": 1200.0, "post_windows": 2, "post_window_dates": [{"start": "2025-06-27", "end": "2025-07-20"}, {"start": "2025-07-20", "end": "2025-08-19"}], "pre_window": {"start": "2025-04-06", "end": "2025-06-13"}, "fire_date": "2025-06-20", "aoi_id": "272191", "seed_id": "272191"}}]}
