{"type": "FeatureCollection", "features": [{"type": "Feature", "geometry": {"type": "Polygon", "coordinates": [[[1.1786310568713074, 41.37574352117327], [1.1786335692100356, 41.37565349028366], [1.1787530941037112, 41.37565538261059], [1.1787556062663833, 41.37556535171348], [1.1787581184176454, 41.37547532081484], [1.1788776429934387, 41.37547721300579], [1.1789971675806408, 41.37547910507265], [1.17899465575867, 41.375569135983206], [1.179114180521925, 41.375571027931954], [1.1792337052965873, 41.375572919756635], [1.1792311937925009, 41.37566295067756], [1.179350718743216, 41.375664842384126], [1.1794702437053375, 41.375666733966604], [1.1794677325191392, 41.37575676489789], [1.1794652213215355, 41.375846795827634], [1.1795847466243568, 41.37584868729795], [1.179704271938582, 41.3758505786442], [1.1797017610588714, 41.37594060958432], [1.1796992501677572, 41.37603064052289], [1.1798187758226848, 41.37603253175696], [1.179938301489015, 41.37603442286696], [1.1800578271667488, 41.37603631385287], [1.1801773528558832, 41.37603820471472], [1.180179863088398, 41.37594817375234], [1.180182373309513, 41.3758581427884], [1.180184883519227, 41.37576811182295], [1.1801873937175404, 41.375678080855955], [1.1803069187594801, 41.375679971569916], [1.1803044087258145, 41.375770002542865], [1.1803018986807485, 41.37586003351427], [1.1804214240633846, 41.37586192411606], [1.1804239339438014, 41.375771893138705], [1.1804264438128196, 41.375681862159816], [1.1804289536704387, 41.375591831179364], [1.1804314635166586, 41.37550180019741], [1.1805509882521041, 41.37550369065132], [1.1806705129989472, 41.37550558098116], [1.1806730225044773, 41.37541554998576], [1.180675531998611, 41.375325518988795], [1.180678041481346, 41.37523548799032], [1.1806805509526852, 41.375145456990296], [1.1806830604126268, 41.37505542598873], [1.1805635364890041, 41.375053535688636], [1.1805660461021903, 41.37496350469147], [1.1804465223546077, 41.37496161427324], [1.180449032121037, 41.37487158328051], [1.1803295085494943, 41.37486969274416], [1.1803320184691655, 41.37477966175583], [1.1802124950736614, 41.37477777110136], [1.1802150051465734, 41.374687740117444], [1.1800954819271088, 41.374685849344864], [1.1800979921532595, 41.374595818365364], [1.1799784691098334, 41.374593927474656], [1.179980979489222, 41.374503896499554], [1.1799834898572088, 41.37441386552293], [1.1798639671544595, 41.37441197452006], [1.179744444463112, 41.37441008339311], [1.1797469551489705, 41.374320052426846], [1.1797494658234264, 41.374230021459034], [1.1796299434727529, 41.37422813021994], [1.1796324543004408, 41.374138099256534], [1.1795129321258053, 41.37413620789931], [1.1795154431067245, 41.37404617694033], [1.1793959211081264, 41.37404428546499], [1.1792763991209334, 41.3740423938656], [1.1792738878107465, 41.37413242481268], [1.1791543656703247, 41.37413053308326], [1.1790348435413094, 41.37412864122976], [1.1790323318904485, 41.374218672163394], [1.1790298202281808, 41.37430870309549], [1.1791493426864663, 41.37431059496088], [1.1791468311774274, 41.37440062589738], [1.1792663538117547, 41.374402517644675], [1.179263842455946, 41.374492548585586], [1.1792613310887319, 41.374582579524976], [1.1793808540637392, 41.3745844711601], [1.1793783428497575, 41.37467450210389], [1.179375831624371, 41.374764533046154], [1.1792563083200869, 41.37476264139912], [1.1791367850272085, 41.374760749628024], [1.1790172617457362, 41.37475885773286], [1.1788977384756711, 41.37475696571362], [1.1787782152170152, 41.37475507357031], [1.1787757031570252, 41.374845104481274], [1.1787731910856267, 41.37493513539067], [1.1786536675090993, 41.37493324311139], [1.1785341439439814, 41.37493135070804], [1.1785316315318928, 41.375021381604], [1.1784121078135446, 41.37501948907061], [1.1784095952254032, 41.37510951995909], [1.1782900713538247, 41.37510762729568], [1.1782875585896297, 41.37519765817665], [1.1781680345648209, 41.37519576538321], [1.1781655216245712, 41.37528579625669], [1.1780459974465327, 41.37528390333322], [1.1779449309182288, 41.37528230262142], [1.178059428082979, 41.375376402925006], [1.1783130747492616, 41.37554865126303], [1.1783853839865592, 41.375589069703864], [1.1785100905894381, 41.37571806397112], [1.178538224252879, 41.3757420513413], [1.1786310568713074, 41.37574352117327]]]}, "properties": {"area_ha": 2.43, "dnbr_threshold": 0.27, "part": 8, "fire_id": "2024430996", "burn_year": 2024, "source": "sentinel", "aoi_source": "official", "buffer_m": 800.0, "fire_date": "2024-06-27"}}, {"type": "Feature", "geometry": {"type": "Polygon", "coordinates": [[[1.180058795595572, 41.371712935508555], [1.1800562855695924, 41.37180296653134], [1.1800537755322131, 41.37189299755259], [1.1801732936368288, 41.37189488826478], [1.1801707837526663, 41.37198491929044], [1.1801682738571055, 41.372074950314556], [1.1802877923023518, 41.37207684091458], [1.1802852825600103, 41.37216687194311], [1.1802827728062697, 41.372256902970115], [1.1801632540317863, 41.37225501235819], [1.1800437352687019, 41.372253121622194], [1.180041225174325, 41.37234315263575], [1.1799217062580216, 41.37234126176975], [1.1799191959876254, 41.37243129277582], [1.1800387150685487, 41.372433183647765], [1.1800362049513724, 41.37252321465824], [1.1800336948227959, 41.37261324566719], [1.1801532142443618, 41.37261513642697], [1.1802727336773262, 41.372617027062695], [1.180270223866594, 41.372707058082014], [1.180267714044464, 41.37279708909977], [1.1802652042109352, 41.372887120116005], [1.1802626943660077, 41.37297715113069], [1.1802601845096818, 41.373067182143835], [1.1802576746419573, 41.37315721315544], [1.1802551647628337, 41.37324724416551], [1.1803746853595678, 41.37324913471883], [1.1803771950740651, 41.37315910370281], [1.1804967155175707, 41.37316099412611], [1.1804942059677008, 41.37325102514808], [1.1804916964064336, 41.37334105616851], [1.1806112171905911, 41.37334294647965], [1.1806087077825547, 41.3734329775045], [1.1807282287427379, 41.37343486769752], [1.1807307379861456, 41.373344836666725], [1.1808502587930956, 41.37334672672973], [1.1809697796114411, 41.37334861666868], [1.1809722885141973, 41.373258585624455], [1.1810918091793101, 41.37326047543339], [1.1812113298558156, 41.373262365118265], [1.1812088212823149, 41.37335239617439], [1.1812063126974217, 41.373442427228966], [1.181203804101135, 41.37353245828201], [1.1813233252829198, 41.37353434786065], [1.1814428464760969, 41.373536237315236], [1.1814403381976775, 41.373626268378636], [1.1814378299078663, 41.373716299440495], [1.1814353216066644, 41.37380633050081], [1.1814328132940706, 41.3738963615596], [1.181552335157165, 41.3738982509139], [1.1816718570316502, 41.37390014014413], [1.1817913789175263, 41.3739020292503], [1.1817888710874405, 41.37399206032539], [1.1816693490369314, 41.37399017121327], [1.1815498269978122, 41.37398828197709], [1.1814303049700847, 41.37398639261685], [1.1814277966347073, 41.374076423672555], [1.181308274453737, 41.3740745341823], [1.1813057659423325, 41.374164565230515], [1.1811862436081209, 41.37416267561025], [1.1811837349206882, 41.37425270665099], [1.1813032574195355, 41.37425459627721], [1.181300748885346, 41.37434462732235], [1.1814202715602222, 41.37434651683046], [1.1814177631792766, 41.37443654788001], [1.1815372860301825, 41.37443843726997], [1.1816568088924793, 41.37444032653588], [1.1816593169441505, 41.37435029547444], [1.1816618249844317, 41.374260264411454], [1.181781347528846, 41.37426215354141], [1.1817838553931004, 41.37417212247094], [1.1817863632459655, 41.37408209139893], [1.1819058854724989, 41.37408398039291], [1.1819083931493395, 41.37399394931342], [1.1819109008147919, 41.37390391823239], [1.1820304227234464, 41.37390580709043], [1.1820279152226274, 41.37399583817741], [1.182147437307303, 41.3739977269173], [1.1821499446434878, 41.3739076958244], [1.1822694665749178, 41.373909584434294], [1.182388988517734, 41.37391147292011], [1.1823914955132655, 41.37382144181378], [1.1822719737350826, 41.373819553333895], [1.18227448088386, 41.37372952223197], [1.1823940024974111, 41.3737314107059], [1.1825135241223474, 41.37373329905578], [1.1826330457586691, 41.3737351872816], [1.182635552402166, 41.37364515616029], [1.1826380590342789, 41.373555125037456], [1.1826405656550072, 41.373465093913076], [1.1826430722643524, 41.373375062787154], [1.182762593253536, 41.37337695086513], [1.1828821142541026, 41.37337883881904], [1.182884620522806, 41.37328880767971], [1.1828871267801266, 41.373198776538835], [1.1830066474628191, 41.3732006643568], [1.1830091535441298, 41.37311063320844], [1.1830116596140599, 41.373020602058546], [1.1831311799788793, 41.37302248974056], [1.1831336858728012, 41.3729324585832], [1.1831361917553433, 41.37284242742429], [1.1832557118022926, 41.37284431497037], [1.183258217508829, 41.37275428380398], [1.1832607232039853, 41.37266425263605], [1.1833802429330664, 41.37266614004619], [1.1833827484522206, 41.37257610887078], [1.1835022680280578, 41.37257799615091], [1.1835047733712099, 41.37248796496803], [1.1835072787029843, 41.37239793378361], [1.1836267979609552, 41.37239982092781], [1.1837463172303035, 41.37240170794794], [1.1838658365110288, 41.37240359484401], [1.1838633316731195, 41.37249362604625], [1.1837438122277724, 41.37249173914424], [1.1836242927938028, 41.37248985211816], [1.1836217876152721, 41.37257988330698], [1.1836192824253646, 41.37266991449426], [1.1836167772240793, 41.372759945680016], [1.1834972573076175, 41.37275805851206], [1.1834947519303305, 41.37284808969032], [1.1836142720114167, 41.37284997686421], [1.1837337921038813, 41.37285186391404], [1.1838533122077226, 41.3728537508398], [1.183850807312933, 41.372943782034355], [1.1838483024067672, 41.373033813227366], [1.183967822851237, 41.373035700040944], [1.1840873433070815, 41.373037586730455], [1.1842068637743008, 41.3730394732959], [1.184326384252894, 41.37304135973729], [1.184445904742861, 41.373043246054614], [1.1845654252442004, 41.373045132247874], [1.1846849457569117, 41.37304701831706], [1.1848044662809938, 41.3730489042622], [1.1849239868164465, 41.373050790083255], [1.1850435073632681, 41.373052675780265], [1.1850460106231675, 41.372962644527895], [1.1850485138716986, 41.372872613273984], [1.1850510171088615, 41.372782582018544], [1.1850535203346555, 41.37269255076155], [1.1851730402343437, 41.37269443631076], [1.1851705371731738, 41.37278446757368], [1.1851680341006368, 41.37287449883507], [1.1852875543409427, 41.37287638427207], [1.1852900572488538, 41.372786353004756], [1.1852925601453985, 41.3726963217359], [1.1852950630305763, 41.372606290465505], [1.1852975659043863, 41.372516259193596], [1.1854170854975614, 41.3725181444828], [1.185536605102103, 41.372520029647944], [1.1856561247180097, 41.37252191468903], [1.1857756443452816, 41.37252379960607], [1.1857781465492345, 41.372433768308866], [1.185897666023247, 41.372435653095906], [1.1858951639839168, 41.37252568439904], [1.1858926619332235, 41.37261571570061], [1.1860121817478457, 41.372617600375456], [1.1861317015738306, 41.372619484926226], [1.1861291998410224, 41.37270951623814], [1.1861266980968528, 41.37279954754852], [1.1862462182634494, 41.37280143198709], [1.1863657384414066, 41.37280331630159], [1.186368239856326, 41.37271328497936], [1.1864877598810188, 41.372715169163875], [1.186490261119953, 41.37262513783416], [1.1866097809913805, 41.3726270218887], [1.186612282054331, 41.37253699055153], [1.1866147831059233, 41.37244695921282], [1.186495263563743, 41.372445075170155], [1.1864977647685993, 41.372355043835846], [1.1863782454024001, 41.37235315967505], [1.1863807467605183, 41.37226312834511], [1.1862612275703015, 41.37226124406618], [1.1862587260475617, 41.37235127539018], [1.1862562245134614, 41.372441306712645], [1.1861367050053608, 41.372439422297795], [1.186139206704084, 41.37234939098126], [1.1860196873719675, 41.372347506448286], [1.1860221892239504, 41.37225747513615], [1.1860246910645706, 41.37216744382247], [1.1861442100674449, 41.372169328343595], [1.1862637290816804, 41.37217121274065], [1.1862662305816987, 41.372081181413584], [1.1862687320703555, 41.37199115008498], [1.1861492133853597, 41.371989265699774], [1.1860296947117246, 41.37198738119052], [1.1859101760494521, 41.37198549655721], [1.1859076740669368, 41.37207552786803], [1.1859051720730591, 41.3721655591773], [1.185902670067818, 41.37225559048503], [1.1857831509230485, 41.37225370570986], [1.1857856530929103, 41.37216367440806], [1.1857881552514076, 41.37207364310471], [1.1857906573985417, 41.371983611799834], [1.1856711387589953, 41.37198172691839], [1.1855516201308125, 41.371979841912896], [1.1855541225958197, 41.37188981061834], [1.1855566250494614, 41.37179977932225], [1.1855591274917385, 41.37170974802461], [1.1856786456260688, 41.37171163301231], [1.185676143348408, 41.371801664315875], [1.1857956616587189, 41.37180354918545], [1.1857931595343123, 41.37189358049341], [1.185912678020604, 41.371895465244855], [1.1860321965182585, 41.37189734987225], [1.18603469831343, 41.37180731855241], [1.1861542166578292, 41.37180920304981], [1.1862737350135892, 41.37181108742315], [1.1862762364681654, 41.371721056089925], [1.186156718277022, 41.371719171722525], [1.1861592198848536, 41.37162914039369], [1.186039701869688, 41.371627255908166], [1.1859201838658837, 41.37162537129857], [1.1858006658734423, 41.37162348656492], [1.1856811478923646, 41.37162160170721], [1.1855616299226504, 41.37161971672545], [1.1855641323421973, 41.37152968542474], [1.18556663475038, 41.37143965412249], [1.185569137147197, 41.37134962281871], [1.1855716395326503, 41.37125959151339], [1.1854521222327572, 41.3712577064313], [1.1853326049442294, 41.37125582122515], [1.1853351076475422, 41.37116578993015], [1.1854546247714577, 41.37116767513038], [1.185574141906738, 41.37116956020653], [1.185576644269462, 41.37107952889815], [1.1856961612514967, 41.37108141384431], [1.185698663438245, 41.370991382528445], [1.1857011656136296, 41.37090135121104], [1.1858206822778066, 41.37090323602129], [1.1858231842772178, 41.37081320469642], [1.1859427007881485, 41.370815089376684], [1.1859452026115884, 41.37072505804436], [1.1860647189692726, 41.37072694259464], [1.1860672206167429, 41.37063691125483], [1.185947704423667, 41.37063502671048], [1.1859502062243832, 41.37054499537506], [1.185830690207277, 41.37054311071258], [1.1858281882419532, 41.370633142042074], [1.185708672071602, 41.37063125724961], [1.1855891559126135, 41.370629372333106], [1.1855916582071515, 41.37053934101547], [1.1855941604903246, 41.37044930969632], [1.1854746446719144, 41.37044742466762], [1.1853551288648687, 41.370445539514854], [1.185357631465889, 41.370355508206046], [1.1853601340555433, 41.370265476895675], [1.1853626366338321, 41.37017544558377], [1.1852431213319663, 41.370173560324766], [1.1852406185890731, 41.370263591630724], [1.1852381158348142, 41.37035362293516], [1.1851186002151055, 41.37035173754024], [1.1851160972848749, 41.3704417688372], [1.1851135943432773, 41.37053180013263], [1.1849940784057245, 41.37052991460179], [1.1849965815119279, 41.370439883312294], [1.1849990846067642, 41.37034985202126], [1.185001587690232, 41.3702598207287], [1.1850040907623323, 41.3701697894346], [1.1851236060414658, 41.3701716749417], [1.1851261089375953, 41.37008164364013], [1.1851286118223583, 41.36999161233701], [1.1851311146957546, 41.36990158103235], [1.1851336175577838, 41.369811549726165], [1.1852531321898765, 41.36981343508549], [1.18525563487594, 41.36972340377183], [1.185375149354798, 41.36972528900117], [1.1853776518648955, 41.36963525768003], [1.1853801543636275, 41.36954522635737], [1.1853826568509958, 41.36945519503315], [1.1855021708474236, 41.36945708012065], [1.1855046731588283, 41.36936704878897], [1.1856241870020232, 41.36936893374648], [1.1856266891374678, 41.36927890240733], [1.1856291912615495, 41.369188871066655], [1.1856316933742679, 41.36909883972442], [1.1855121800248603, 41.369096954784716], [1.1855096777475473, 41.369186986120994], [1.1853901642449085, 41.36918510105131], [1.1853926666868166, 41.369095069720956], [1.1852731533601377, 41.36909318453315], [1.1851536400448246, 41.36909129922129], [1.185156142804556, 41.36900126790127], [1.1851586455529213, 41.36891123657969], [1.185161148289921, 41.36882120525659], [1.185163651015554, 41.36873117393195], [1.1852831636724956, 41.36873305922007], [1.1852856662221727, 41.36864302788796], [1.185405178725888, 41.3686449130461], [1.1855246912409683, 41.368646798080206], [1.1855221890204741, 41.36873682942418], [1.1856417017115093, 41.36873871434016], [1.1857612144139078, 41.3687405991321], [1.1857637163052195, 41.36865056777626], [1.1857662181851685, 41.368560536418876], [1.1856467058119518, 41.3685586516388], [1.1856492078451288, 41.36846862028582], [1.1855296956478656, 41.36846673538763], [1.1855271934500993, 41.36855676673468], [1.1854076810996093, 41.36855488170651], [1.1852881687604842, 41.3685529965543], [1.1851686564327237, 41.36855111127804], [1.1851661537298215, 41.36864114260577], [1.185046641248837, 41.36863925719953], [1.1850441383699786, 41.36872928851978], [1.18492462573577, 41.36872740298356], [1.184805113112928, 41.36872551732331], [1.1846856005014548, 41.36872363153901], [1.1846881038740857, 41.36863360023658], [1.184690607235348, 41.36854356893258], [1.1845710949644244, 41.3685416830361], [1.1844515827048705, 41.36853979701558], [1.1843320704566866, 41.36853791087102], [1.184212558219874, 41.36853602460241], [1.1842100542002516, 41.36862605588266], [1.1842075501692584, 41.36871608716135], [1.1840880376146368, 41.36871420075683], [1.1839685250713878, 41.36871231422826], [1.1839710294315628, 41.36862228296144], [1.1839735337803645, 41.36853225169307], [1.1839760381177926, 41.36844222042316], [1.1838565260796865, 41.36844033378836], [1.1838590305703294, 41.36835030252286], [1.1837395187081854, 41.36834841576996], [1.183620006857416, 41.368346528893], [1.183500495018022, 41.36834464189201], [1.1835029999910531, 41.36825461064278], [1.1833834883276226, 41.36825272352368], [1.183263976675569, 41.36825083628054], [1.1832664819663965, 41.368160805041654], [1.1831469704903066, 41.36815891768041], [1.1830274590255951, 41.36815703019513], [1.1829079475722626, 41.3681551425858], [1.1827884361303098, 41.36815325485243], [1.182785930181137, 41.36824328606755], [1.1829054417876756, 41.36824517380686], [1.1830249534055948, 41.368247061422124], [1.1830224477742157, 41.3683370926476], [1.1829029359917091, 41.36833520502638], [1.182783424220584, 41.368333317281134], [1.1827809182486495, 41.36842334849318], [1.1827784122653349, 41.368513379703685], [1.1827759062706393, 41.368603410912655], [1.1827734002645631, 41.36869344212009], [1.1826538878464632, 41.368691554227034], [1.182534375439745, 41.36868966620992], [1.1825368817750013, 41.36859963501437], [1.1826563940171297, 41.36860152302554], [1.1826589001764145, 41.3685114918225], [1.182661406324317, 41.36842146061794], [1.1826639124608385, 41.36833142941184], [1.1826664185859792, 41.36824139820419], [1.1826689246997377, 41.36815136699502], [1.1825494132805472, 41.36814947901355], [1.1825519195475096, 41.368059447808776], [1.1825544258030904, 41.367969416602456], [1.1825569320472893, 41.36787938539461], [1.1825594382801066, 41.36778935418523], [1.1825619445015423, 41.367699322974296], [1.1826814550978135, 41.36770121092604], [1.1826789490409606, 41.36779124214293], [1.1827984598131962, 41.367793129976555], [1.182800965705467, 41.36770309875375], [1.1828034715863578, 41.3676130675294], [1.182805977455868, 41.36752303630351], [1.1826864671773774, 41.36752114848769], [1.182683961143286, 41.36761117970763], [1.182564450711596, 41.36760929176184], [1.1825669569102675, 41.36751926054782], [1.1825694630975583, 41.36742922933228], [1.1824499530064103, 41.36742734127432], [1.1823304429266444, 41.36742545309232], [1.182327936410194, 41.36751548429598], [1.182325429882361, 41.36760551549809], [1.1823229233431436, 41.36769554669868], [1.182320416792544, 41.367785577897735], [1.1823179102305612, 41.36787560909523], [1.1823154036571948, 41.367965640291196], [1.182195892601322, 41.367963751949496], [1.182193385851987, 41.368053783137995], [1.182190879091269, 41.36814381432494], [1.1823103904763115, 41.36814570267853], [1.182307883868795, 41.368235733869874], [1.1821883723191668, 41.368233845510346], [1.1821858655356794, 41.36832387669423], [1.182066353832849, 41.36832198820472], [1.1820638468733906, 41.3684120193811], [1.1820613399025468, 41.368502050555946], [1.1820588329203172, 41.36859208172927], [1.1820563259267034, 41.36868211290105], [1.1820538189217036, 41.368772144071286], [1.182051311905318, 41.36886217523999], [1.1819317992263378, 41.368860286590774], [1.1818122865587442, 41.36885839781751], [1.18180977920179, 41.36894842897278], [1.1818072718334494, 41.36903846012652], [1.181687758848058, 41.36903657121733], [1.1815682458740557, 41.369034682184086], [1.1815657381651414, 41.36912471332439], [1.181563230444839, 41.36921474446316], [1.181560722713147, 41.3693047756004], [1.181441209256752, 41.36930288642527], [1.1814387013490768, 41.36939291755501], [1.1813191877394755, 41.36939102824989], [1.181316679655814, 41.36948105937218], [1.181314171560763, 41.3695710904929], [1.1813116634543215, 41.36966112161209], [1.1813091553364892, 41.369751152729734], [1.1814286696044785, 41.36975304205863], [1.1815481838838569, 41.369754931263486], [1.1815506916724932, 41.369664900133934], [1.181670205798663, 41.36966678920879], [1.1816727134113123, 41.369576758071766], [1.1817922273842725, 41.36957864701663], [1.1817947348209368, 41.369488615872136], [1.181797242246214, 41.36939858472608], [1.181916755901369, 41.369400473535], [1.1820362695679105, 41.36940236221988], [1.18203877665261, 41.369312331060414], [1.1821582901659413, 41.369314219615305], [1.18216079707466, 41.36922418844835], [1.1822803104347817, 41.36922607687325], [1.1822828171675213, 41.369136045698816], [1.1822853238888764, 41.369046014522844], [1.1822878305988473, 41.36895598334534], [1.1824073434765738, 41.36895787162835], [1.182409850010569, 41.368867840443365], [1.1825293627350864, 41.3688697285964], [1.1825268563656832, 41.36895975978733], [1.1825243499848974, 41.369049790976725], [1.1825218435927292, 41.36913982216459], [1.1824023303744335, 41.36913793399372], [1.1823998238062885, 41.369227965174105], [1.1823973172267597, 41.36931799635295], [1.1822778036906583, 41.36931610804615], [1.1822752969351507, 41.3694061392175], [1.1822727901682584, 41.36949617038733], [1.1822702833899823, 41.369586201555606], [1.1823897974198723, 41.36958808988023], [1.1823872907948092, 41.36967812105292], [1.1822677766003207, 41.369676232722355], [1.1822652697992755, 41.369766263887556], [1.1823847841583621, 41.36976815222407], [1.1823822775105317, 41.369858183393674], [1.1822627629868454, 41.36985629505122], [1.1822602561630307, 41.36994632621335], [1.1822577493278306, 41.370036357373955], [1.1822552424812467, 41.370126388533], [1.1821357274751434, 41.370124500048675], [1.1820162124804248, 41.3701226114403], [1.1818966974970928, 41.37012072270787], [1.1818941901453175, 41.370210753847545], [1.1817746750087696, 41.370208864985116], [1.1817721674810047, 41.370298896117326], [1.1816526521912427, 41.3702970071249], [1.1815331369128694, 41.37029511800842], [1.1815306290445091, 41.370385149127195], [1.1815281211647588, 41.37047518024443], [1.1816476367723396, 41.370477069372804], [1.1816451290458048, 41.37056710049445], [1.1816426213078812, 41.37065713161455], [1.1817621372560618, 41.370659020630754], [1.1818816532156304, 41.370660909522904], [1.1820011691865873, 41.370662798291], [1.1821206851689297, 41.370664686935044], [1.1822402011626578, 41.37066657545504], [1.1823597171677727, 41.37066846385097], [1.1824792331842704, 41.37067035212285], [1.182476726587205, 41.37076038328303], [1.182474219978756, 41.370850414441655], [1.1825937363358525, 41.37085230260138], [1.1825912298806276, 41.370942333764425], [1.1825887234140195, 41.37103236492593], [1.1827082401117173, 41.371034252973466], [1.182705733798336, 41.37112428413937], [1.1825862169360293, 41.37112239608589], [1.182583710446655, 41.37121242724431], [1.1824641934311202, 41.37121053906083], [1.1824616867657514, 41.37130057021176], [1.1824591800889983, 41.37139060136118], [1.1824566734008612, 41.371480632509055], [1.1825761909102324, 41.37148252071036], [1.1826957084309868, 41.37148440878762], [1.1826932020606935, 41.37157443994583], [1.1828127197574443, 41.371576327904975], [1.182932237465578, 41.37157821574005], [1.1829297314131302, 41.37166824690862], [1.1829272253493015, 41.371758278075646], [1.1829247192740906, 41.37184830924114], [1.182805201072111, 41.37184642138822], [1.1826856828815144, 41.37184453341125], [1.1826831764656893, 41.37193456456331], [1.1825636581218586, 41.371932676456346], [1.1825611515300327, 41.37202270760093], [1.1824416330329686, 41.37202081936397], [1.1824391262651406, 41.37211085050106], [1.1823196076148428, 41.3721089621341], [1.1822000889759303, 41.372107073643065], [1.1821975818674801, 41.37219710476674], [1.182195074747644, 41.37228713588889], [1.1820755557908795, 41.37228524726192], [1.1819560368455022, 41.372283358510884], [1.1819535293850396, 41.37237338961959], [1.1819510219131888, 41.372463420726774], [1.1818315026499584, 41.372461531839775], [1.181711983398116, 41.37245964282873], [1.181714491199208, 41.37236961173345], [1.1817169989889111, 41.37227958063663], [1.1815974800776985, 41.37227769151342], [1.1814779611778772, 41.37227580226614], [1.181480469285429, 41.37218577117966], [1.18148297738159, 41.37209574009165], [1.1813634588223967, 41.37209385073221], [1.1813659670717849, 41.372003819648604], [1.1813684753097817, 41.37191378856347], [1.181248957091214, 41.37191189909185], [1.1812514654824355, 41.37182186801113], [1.1812539738622656, 41.37173183692885], [1.1811344559843207, 41.371729947345074], [1.1810149381177681, 41.371728057637256], [1.1810174468154353, 41.371638026565336], [1.1808979291248907, 41.3716361367394], [1.1807784114457394, 41.371634246789405], [1.1807809204612412, 41.37154421572784], [1.1806614029580986, 41.37154232565973], [1.1805418854663514, 41.37154043546757], [1.1804223679860006, 41.37153854515136], [1.1804198584766599, 41.371628576195064], [1.1804173489559215, 41.371718607237234], [1.1802978311577401, 41.37171671678507], [1.1801783133709571, 41.371714826208844], [1.180058795595572, 41.371712935508555]], [[1.1802752434766597, 41.37252699604186], [1.1802777532645943, 41.37243696501948], [1.180280263041131, 41.37234693399557], [1.1803997819916316, 41.37234882448938], [1.1804022915921506, 41.37225879345798], [1.1805218103894293, 41.37226068382179], [1.1805193009535295, 41.37235071485915], [1.180516791506233, 41.37244074589496], [1.1803972723797147, 41.372438855519256], [1.1803947627564007, 41.372528886547585], [1.1803922531216888, 41.37261891757437], [1.1802727336773262, 41.372617027062695], [1.1802752434766597, 41.37252699604186]], [[1.182523551286553, 41.373373174585105], [1.1824040303201384, 41.373371286259], [1.1824065372473562, 41.37328125514344], [1.1824090441631894, 41.37319122402633], [1.1825285648003474, 41.37319311234055], [1.18264808544889, 41.37319500053071], [1.1826455788623125, 41.37328503165971], [1.1826430722643524, 41.373375062787154], [1.182523551286553, 41.373373174585105]], [[1.1805042440987965, 41.37289090105097], [1.180501734583119, 41.37298093207755], [1.1803822144688643, 41.37297904166615], [1.1803847241491676, 41.37288901064551], [1.1805042440987965, 41.37289090105097]], [[1.1830149308118016, 41.36860718631476], [1.1830124251349052, 41.36869721753408], [1.1828929126940442, 41.3686953298891], [1.1828954185355303, 41.36860529867573], [1.1830149308118016, 41.36860718631476]], [[1.182494272527608, 41.370130165129524], [1.1823747574987356, 41.37012827689328], [1.1823772641807182, 41.37003824572829], [1.182496779044989, 41.370040133958575], [1.182494272527608, 41.370130165129524]], [[1.184503495775502, 41.370972527543586], [1.1846230124906187, 41.370974413600315], [1.1846205088223758, 41.37106444486277], [1.1846180051427626, 41.37115447612369], [1.1846155014517792, 41.37124450738308], [1.1844959842428293, 41.37124262130854], [1.1843764670452521, 41.37124073510994], [1.184378971065459, 41.37115070386242], [1.1844984880984253, 41.37115259005509], [1.1845009919426495, 41.3710625588001], [1.184503495775502, 41.370972527543586]], [[1.1841199019197395, 41.37186718094701], [1.184117397479319, 41.37195721217035], [1.1839978789989416, 41.37195532555208], [1.1840003836039792, 41.37186529433468], [1.1840028881976423, 41.37177526311575], [1.184005392779931, 41.37168523189527], [1.1841249107664586, 41.371687118495714], [1.1841224063487858, 41.371777149722135], [1.1841199019197395, 41.37186718094701]], [[1.1837538321696377, 41.37213161434982], [1.1837563371266622, 41.37204158314737], [1.183875855748908, 41.3720434700197], [1.1838733509565018, 41.37213350122807], [1.18387084615272, 41.372223532434916], [1.183868341337562, 41.37231356364024], [1.183748822221458, 41.3723116767501], [1.1836293031167306, 41.372309789735915], [1.183631808261129, 41.37221975854248], [1.183751327201236, 41.37222164555073], [1.1837538321696377, 41.37213161434982]], [[1.1841274151727572, 41.371597087267766], [1.1841299195676818, 41.37150705603828], [1.1842494372363535, 41.3715089425028], [1.1842519414552908, 41.37141891126583], [1.1842544456628552, 41.37132888002733], [1.184373963013673, 41.37133076635591], [1.1843714589707217, 41.37142079760036], [1.184368954916398, 41.371510828843256], [1.1843664508507026, 41.37160086008463], [1.1842469330060437, 41.37159897373822], [1.1841274151727572, 41.371597087267766]], [[1.1847525431179393, 41.370616174444024], [1.1848720591973614, 41.37061806022891], [1.1848695559038152, 41.37070809150939], [1.1848670525988994, 41.37079812278834], [1.1848645492826149, 41.370888154065746], [1.1847450327093685, 41.37088626826306], [1.1846255161474908, 41.37088438233631], [1.1846280197929928, 41.37079435107077], [1.1847475361902617, 41.37079623699159], [1.1847500396597852, 41.37070620571857], [1.1847525431179393, 41.370616174444024]]]}, "properties": {"area_ha": 17.75, "dnbr_threshold": 0.27, "part": 21, "fire_id": "2024430996", "burn_year": 2024, "source": "sentinel", "aoi_source": "official", "buffer_m": 800.0, "fire_date": "2024-06-27"}}, {"type": "Feature", "geometry": {"type": "Polygon", "coordinates": [[[1.1819175852691042, 41.36507708790709], [1.1819150783903516, 41.36516711912697], [1.181912571500215, 41.365257150345315], [1.182032077584756, 41.3652590388808], [1.18215158368068, 41.36526092729228], [1.1822710897879871, 41.36526281557972], [1.1823905959066765, 41.36526470374314], [1.1823880896634027, 41.36535473498371], [1.1823855834087473, 41.36544476622273], [1.1825050898679432, 41.36544665427401], [1.1826245963385202, 41.36544854220124], [1.182744102820478, 41.36545043000445], [1.182863609313814, 41.36545231768363], [1.1828611037060315, 41.3655423489449], [1.1828585980868702, 41.36563238020462], [1.182978104920714, 41.36563426777164], [1.1830976117659358, 41.36563615521464], [1.183217118622535, 41.365638042533604], [1.1833366254905104, 41.365639929728545], [1.1833391304514136, 41.36554989844506], [1.1833416354009416, 41.365459867160034], [1.183344140339093, 41.36536983587348], [1.1834636467247528, 41.36537172292657], [1.1834661514869662, 41.365281691632525], [1.1834686562378045, 41.36519166033696], [1.183588162305715, 41.365193547254144], [1.1835906668806175, 41.36510351595109], [1.183593171444146, 41.365013484646504], [1.1835956759963007, 41.36492345334039], [1.1835981805370817, 41.36483342203272], [1.1836006850664884, 41.364743390723525], [1.1834811798213758, 41.364741503836036], [1.1833616745876385, 41.36473961682452], [1.1832421693652757, 41.36473772968897], [1.183122664154289, 41.36473584242941], [1.1830031589546786, 41.364733955045814], [1.1828836537664467, 41.364732067538185], [1.182881148249692, 41.36482209881175], [1.1828786427215587, 41.36491213008378], [1.182759137215589, 41.364910242440246], [1.1826396317209977, 41.364908354672686], [1.1826421375782474, 41.36481832341253], [1.182522632259595, 41.36481643552689], [1.1825201262377865, 41.36490646678111], [1.1824006207659556, 41.364904578765476], [1.1824031269523225, 41.36481454751721], [1.1824056331273074, 41.36472451626742], [1.1822861279959735, 41.36472262813966], [1.1821666228760226, 41.36472073988788], [1.1821691293687393, 41.36463070864843], [1.182171635850074, 41.36454067740743], [1.1820521310706176, 41.36453878904351], [1.1819326263025445, 41.36453690055556], [1.1819301194920984, 41.36462693178466], [1.1819276126702678, 41.36471696301222], [1.1818081075844673, 41.36471507438835], [1.1816886025100513, 41.36471318564046], [1.1816860953477224, 41.36480321685458], [1.181683588174007, 41.3648932480672], [1.181681080988907, 41.364983279278256], [1.1816785737924205, 41.36507331048778], [1.1817980795250695, 41.36507519925946], [1.1819175852691042, 41.36507708790709]], [[1.18312015896665, 41.36482587371485], [1.1831176537676342, 41.36491590499877], [1.1829981482389074, 41.3649140176033], [1.1830006536024817, 41.36482398632531], [1.18312015896665, 41.36482587371485]]]}, "properties": {"area_ha": 1.12, "dnbr_threshold": 0.27, "part": 23, "fire_id": "2024430996", "burn_year": 2024, "source": "sentinel", "aoi_source": "official", "buffer_m": 800.0, "fire_date": "2024-06-27"}}, {"type": "Feature", "geometry": {"type": "Polygon", "coordinates": [[[1.1831186503385558, 41.37347264550436], [1.183116144376348, 41.3735626766525], [1.1831136384027596, 41.37365270779911], [1.1831111324177894, 41.37374273894418], [1.183230654111024, 41.373744626549666], [1.1833501758156397, 41.373746514031076], [1.1834696975316352, 41.373748401388426], [1.1835892192590087, 41.37375028862171], [1.1835867139211893, 41.37384031978899], [1.1835842085719912, 41.37393035095474], [1.1837037306400098, 41.37393223807584], [1.1837012254440675, 41.374022269246], [1.1835817032114144, 41.37402038211896], [1.1835791978394592, 41.374110413281635], [1.1836987202367475, 41.37411230041461], [1.1838182426454145, 41.37411418742351], [1.1839377650654574, 41.37411607430834], [1.1839352601760318, 41.3742061054873], [1.1839327552752295, 41.37429613666472], [1.184052278035922, 41.374298023437355], [1.1840497732883812, 41.374388054619175], [1.1840472685294652, 41.37447808579945], [1.1839277454394972, 41.37447619901493], [1.183925240504566, 41.37456623018773], [1.183805717261335, 41.37456434327321], [1.1838032121503872, 41.374654374438535], [1.1838007070280627, 41.37474440560232], [1.1837982018943605, 41.37483443676457], [1.1837956967492809, 41.37492446792529], [1.1837931915928237, 41.37501449908446], [1.1836736675377646, 41.37501261201617], [1.183671162205286, 41.37510264316788], [1.1835516379969617, 41.37510075596957], [1.183549132488461, 41.375190787113794], [1.1834296081268718, 41.375188899785485], [1.183427102442347, 41.37527893092223], [1.1833075779274926, 41.3752770434639], [1.183305072066943, 41.375367074593164], [1.183302566195012, 41.3754571057209], [1.1833000603117005, 41.375547136847096], [1.183297554417008, 41.37563716797174], [1.1832950485109341, 41.37572719909485], [1.183175523184226, 41.37572531148275], [1.1831730171021224, 41.375815342598386], [1.1832925425934797, 41.37581723021643], [1.1834120680962186, 41.37581911771038], [1.1834095623320324, 41.375909148836364], [1.1834070565564665, 41.375999179960814], [1.1834045507695201, 41.37608921108371], [1.183524076777591, 41.37609109847142], [1.1835215711439162, 41.37618112959872], [1.1836410973280194, 41.376183016868296], [1.183638591847618, 41.376273047999995], [1.1837581182077537, 41.37627493515143], [1.1837556128806266, 41.37636496628754], [1.1838751394167946, 41.376366853320825], [1.1838726342429442, 41.376456884461334], [1.183992160955144, 41.37645877137649], [1.1839896559345713, 41.3765488025214], [1.1841091828228039, 41.3765506893184], [1.18410667795551, 41.37664072046772], [1.1841041730768407, 41.37673075161549], [1.1842237003057632, 41.37673263830029], [1.1842211955803745, 41.37682266945246], [1.184340722985331, 41.37682455601912], [1.1843382184132245, 41.3769145871757], [1.1844577459942145, 41.37691647362423], [1.1844552415753935, 41.377006504785186], [1.1845747693324178, 41.377008391115574], [1.1845772735865796, 41.37691835994867], [1.1845797778293676, 41.37682832878022], [1.1844602504016617, 41.37682644246172], [1.1844627547977344, 41.37673641129768], [1.1843432275460608, 41.37673452486103], [1.1843457320954172, 41.37664449370138], [1.1843482366333975, 41.3765544625402], [1.184467763555757, 41.376556348964975], [1.1844702679177077, 41.37646631779632], [1.1845897946867856, 41.37646820409108], [1.184709321467237, 41.37647009026176], [1.1847118254885025, 41.37638005907969], [1.184831352115671, 41.37638194512037], [1.1849508787542116, 41.37638383103696], [1.1850704054041223, 41.376385716829475], [1.185189932065404, 41.37638760249791], [1.1851924354166796, 41.376297571290564], [1.1853119619246761, 41.37629945682899], [1.1854314884440407, 41.37630134224332], [1.185551014974774, 41.3763032275336], [1.185670541516874, 41.376305112699775], [1.1856730441981642, 41.37621508146717], [1.185792570586976, 41.37621696650334], [1.1857950730922464, 41.37612693526327], [1.1857975755861516, 41.37603690402164], [1.1859171016570234, 41.37603878892188], [1.1859196039749105, 41.37594875767278], [1.185922106281433, 41.37585872642215], [1.185924608576591, 41.375768695169995], [1.1858050829996725, 41.37576681028756], [1.1856855574341199, 41.37576492528103], [1.185566031879933, 41.375763040150446], [1.185446506337113, 41.37576115489577], [1.1853269808056606, 41.37575926951703], [1.1852074552855765, 41.37575738401422], [1.1852099585572675, 41.37566735279611], [1.1852124618175894, 41.37557732157646], [1.185331987008375, 41.37557920706741], [1.1854515122105291, 41.37558109243429], [1.1854540151301864, 41.37549106120124], [1.1855735401790601, 41.3754929464381], [1.1855760429227018, 41.37540291519759], [1.185695567818295, 41.375404800304445], [1.1856980703859241, 41.37531476905645], [1.1857005729421872, 41.37522473780693], [1.1855810483758868, 41.37522285271193], [1.1854615238209525, 41.37522096749286], [1.1854640266951402, 41.375130936253655], [1.1854665295579605, 41.375040905012916], [1.1854690324094137, 41.37495087377064], [1.1854715352495002, 41.37486084252683], [1.1854740380782192, 41.374770811281486], [1.1854765408955716, 41.3746807800346], [1.185596064462647, 41.37468266521806], [1.1857155880410875, 41.374684550277465], [1.185718090517792, 41.374594519017165], [1.185720592983131, 41.37450448775534], [1.1858401162436563, 41.374506372678816], [1.185959639515546, 41.374508257478205], [1.1859621416402417, 41.37441822620297], [1.1859646437535731, 41.37432819492621], [1.1859671458555407, 41.374238163647895], [1.1859696479461455, 41.37414813236805], [1.1859721500253857, 41.374058101086675], [1.185974652093263, 41.37396806980375], [1.1859771541497768, 41.373878038519294], [1.1859796561949274, 41.3737880072333], [1.1858601342401307, 41.37378612248136], [1.1858626364385512, 41.373696091199754], [1.1857431146597521, 41.37369420632967], [1.185745617011441, 41.37360417505246], [1.185626095408638, 41.37360229006426], [1.1856235928923171, 41.373692321335525], [1.1856210903646298, 41.373782352605275], [1.1855015684439272, 41.37378046748113], [1.185504071136247, 41.37369043621732], [1.1855065738172006, 41.37360040495198], [1.1855090764867884, 41.37351037368511], [1.18551157914501, 41.37342034241668], [1.1853920578942017, 41.3734184571922], [1.1852725366547598, 41.373416571843656], [1.1851530154266863, 41.373414686371035], [1.1850334942099798, 41.37341280077437], [1.1850309908932357, 41.37350283201906], [1.1850284875651222, 41.3735928632622], [1.1849089660305236, 41.37359097752959], [1.1847894445072944, 41.37358909167291], [1.1847869408385479, 41.373679122902644], [1.1847844371584306, 41.373769154130855], [1.1846649153173074, 41.373767268138245], [1.184667419162058, 41.37367723691596], [1.1846699229954365, 41.373587205692175], [1.1845504014949495, 41.373585319587356], [1.1845478974969395, 41.373675350805215], [1.1845453934875558, 41.37376538202156], [1.1844258716691767, 41.373763495780814], [1.1843063498621704, 41.373761609416], [1.184308854200819, 41.37367157821152], [1.184189332569819, 41.37366969172859], [1.1841918370617248, 41.373579660528534], [1.1840723156067314, 41.37357777392746], [1.1840748202518936, 41.373487742731804], [1.184077324885681, 41.3733977115346], [1.1839578037713236, 41.373395824821344], [1.1838382826683416, 41.37339393798401], [1.1838407876200128, 41.37330390679716], [1.183721266693036, 41.3733020198417], [1.1837237717979592, 41.37321198865924], [1.1836042510469886, 41.37321010158566], [1.1836067563051622, 41.373120070407616], [1.1836092615519582, 41.37303003922801], [1.1834897411416199, 41.373028152042245], [1.1834922465416642, 41.37293812086706], [1.1833727263073306, 41.37293623356317], [1.1833702207426604, 41.373026264732424], [1.18325070035508, 41.37302437729852], [1.1832481946144038, 41.373114408460296], [1.1833677151666109, 41.373116295900125], [1.1833652095791818, 41.37320632706631], [1.183245688862347, 41.37320443962054], [1.1831261681568925, 41.3732025520507], [1.183123662228828, 41.373292583203465], [1.1831211562893822, 41.37338261435468], [1.1831186503385558, 41.37347264550436]], [[1.184303845512149, 41.373851640618916], [1.1841843235518836, 41.37384975412409], [1.1841818190258544, 41.373939785319536], [1.1840622969123296, 41.373937898694706], [1.1840648016029927, 41.373847867505205], [1.1840673062822806, 41.37375783631416], [1.1841868280665384, 41.37375972292712], [1.1843063498621704, 41.373761609416], [1.184303845512149, 41.373851640618916]], [[1.1841267165753253, 41.3759204712302], [1.1840071908396657, 41.375918584474746], [1.1838876651153831, 41.37591669759522], [1.1838901702209683, 41.3758266664455], [1.1837706446727128, 41.37582477944783], [1.1837731499315698, 41.3757347483025], [1.1837756551790493, 41.37564471715562], [1.1838951803980067, 41.3756466041414], [1.1838976854694598, 41.375556572987065], [1.1840172105351459, 41.37555845984284], [1.184019715430575, 41.37546842868101], [1.18413924034299, 41.37547031540677], [1.184141745062396, 41.375380284237465], [1.1842612698215405, 41.37538217083321], [1.1842637743649247, 41.37529213965645], [1.1842662788969345, 41.37520210847814], [1.1843858033381622, 41.375203994937934], [1.1845053277907647, 41.37520588127367], [1.1846248522547398, 41.375207767485335], [1.1846273562814413, 41.37511773628766], [1.184746880592144, 41.375119622369304], [1.1847443767300871, 41.3752096535729], [1.1847418728566586, 41.37529968477496], [1.1846223482166658, 41.37529779868144], [1.1845028235880453, 41.375295912463855], [1.1845003193739532, 41.375385943652496], [1.1844978151484868, 41.37547597483962], [1.1844953109116483, 41.37556600602518], [1.1844928066634355, 41.37565603720922], [1.1844903024038493, 41.37574606839171], [1.1844877981328896, 41.375836099572666], [1.1846073237493981, 41.37583798582588], [1.1847268493772793, 41.37583987195501], [1.1848463750165321, 41.375841757960075], [1.1848438712281504, 41.37593178915729], [1.184963397043426, 41.37593367504421], [1.1849608934083242, 41.37602370624584], [1.1849583897618523, 41.37611373744593], [1.1848388636172735, 41.376111851547144], [1.184719337484066, 41.37610996552428], [1.1847168334969176, 41.37619999671096], [1.1845973072104292, 41.37619811055808], [1.184477780935314, 41.37619622428113], [1.184358254671573, 41.3761943378801], [1.1843607591526801, 41.37610430671122], [1.1842412330649663, 41.376102420192055], [1.1842437376993509, 41.376012389027586], [1.1842462423223605, 41.37592235786157], [1.1841267165753253, 41.3759204712302]], [[1.1845078319821107, 41.37511585008194], [1.184510336162083, 41.37502581888867], [1.1846298602967706, 41.375027705088456], [1.1846273562814413, 41.37511773628766], [1.1845078319821107, 41.37511585008194]], [[1.1847493844428294, 41.375029591164164], [1.1847518882821422, 41.37493955995751], [1.1847543921100845, 41.374849528749294], [1.1848739159382298, 41.37485141468906], [1.1849934397777449, 41.37485330050475], [1.1849909362790882, 41.374943331724836], [1.1849884327690616, 41.37503336294338], [1.1849859292476643, 41.375123394160376], [1.1848664049142188, 41.375121508326885], [1.184746880592144, 41.375119622369304], [1.1847493844428294, 41.375029591164164]], [[1.1844183590788928, 41.37403358940276], [1.1844208632870272, 41.37394355819697], [1.1845403854346737, 41.37394544444959], [1.1846599075936926, 41.37394733057815], [1.184662411461186, 41.37385729935896], [1.1847819334669425, 41.3738591853575], [1.1847794297640832, 41.37394921658263], [1.1847769260498533, 41.37403924780622], [1.184657403714828, 41.3740373617958], [1.1845378813911738, 41.374035475661316], [1.184535377336302, 41.374125506871486], [1.1846548998245912, 41.37412739301192], [1.1847744223242527, 41.37412927902827], [1.1848939448352847, 41.37413116492056], [1.1850134673576869, 41.37413305068877], [1.185010963949988, 41.37422308192115], [1.1850084605309195, 41.374313113152], [1.1848889376792433, 41.374311227371905], [1.1848914412629488, 41.37422119614701], [1.1847719185872807, 41.374219310248776], [1.1847694148389374, 41.37430934146775], [1.1846498920100026, 41.37430745543953], [1.18453036919244, 41.37430556928724], [1.1844108463862493, 41.37430368301087], [1.1842913235914323, 41.37430179661043], [1.184293827998324, 41.37421176541521], [1.1842963323938411, 41.374121734218434], [1.1844158548593848, 41.374123620606994], [1.1844183590788928, 41.37403358940276]], [[1.1851279833939652, 41.37431499880802], [1.1852475062683798, 41.374316884339976], [1.1852450031672184, 41.37440691558113], [1.1851254801281654, 41.374405030043256], [1.1850059571004814, 41.374403144381304], [1.1850084605309195, 41.374313113152], [1.1851279833939652, 41.37431499880802]], [[1.1841467544670814, 41.37520022189426], [1.1841442497704262, 41.37529025306664], [1.1840247251873035, 41.375288366352756], [1.1840272300486032, 41.375198335186305], [1.1841467544670814, 41.37520022189426]], [[1.1852299843215142, 41.37494710299588], [1.1851104602946168, 41.37494521742239], [1.185112963628631, 41.374855186196385], [1.185232487490886, 41.37485707176394], [1.1852299843215142, 41.37494710299588]], [[1.1851329898914587, 41.37413493633293], [1.1852525124365993, 41.37413682185301], [1.185250009358174, 41.374226853097255], [1.1851304866483967, 41.37422496757124], [1.1851329898914587, 41.37413493633293]]]}, "properties": {"area_ha": 5.16, "dnbr_threshold": 0.27, "part": 38, "fire_id": "2024430996", "burn_year": 2024, "source": "sentinel", "aoi_source": "official", "buffer_m": 800.0, "fire_date": "2024-06-27"}}, {"type": "Feature", "geometry": {"type": "Polygon", "coordinates": [[[1.1837971226392137, 41.36627769637556], [1.1837946182455852, 41.3663677276705], [1.183914126486979, 41.36636961429277], [1.1840336347397464, 41.36637150079102], [1.1841531430038852, 41.36637338716523], [1.1841506390925987, 41.366463418476435], [1.184270147532681, 41.36646530473254], [1.1842676437745956, 41.366555336048144], [1.1843871523906202, 41.36655722218615], [1.1845066610180148, 41.366559108200136], [1.1845041575777056, 41.36664913952607], [1.1845016541260278, 41.36673917085047], [1.1843821451694854, 41.36673728482463], [1.1843796415418633, 41.36682731614156], [1.1842601324321156, 41.36682542998573], [1.1842576286285476, 41.36691546129519], [1.1843771379028707, 41.36691734745695], [1.1844966471885643, 41.36691923349467], [1.184494143702778, 41.367009264814456], [1.1844916402056236, 41.3670992961327], [1.184489136697099, 41.36718932744942], [1.1844866331772057, 41.3672793587646], [1.184484129645942, 41.36736939007823], [1.1844816261033098, 41.36745942139032], [1.1843621158301463, 41.367457535316994], [1.1842426055683535, 41.367455649119634], [1.1841230953179318, 41.36745376279821], [1.184003585078882, 41.36745187635275], [1.184006089279835, 41.36736184506441], [1.1838865792167375, 41.36735995850085], [1.1837670691650135, 41.367358071813264], [1.1837645646349007, 41.367448103089735], [1.183762060093413, 41.36753813436468], [1.1838815704742975, 41.36754002106415], [1.1840010808665558, 41.36754190763958], [1.183998576642858, 41.36763193892485], [1.1839960724077865, 41.3677219702086], [1.1839935681613425, 41.367812001490805], [1.1841130790587198, 41.367813887960004], [1.184110574965487, 41.36790391924661], [1.1841080708608822, 41.36799395053167], [1.1842275820988, 41.367995836888696], [1.1842250781474077, 41.36808586817816], [1.1842225741846442, 41.368175899466095], [1.184342085763105, 41.368177785710955], [1.1844615973529367, 41.36817967183178], [1.1844590937079753, 41.36826970313003], [1.1844565900516435, 41.36835973442676], [1.1845761019820196, 41.36836162043541], [1.1846956139237663, 41.36836350632001], [1.1848151258768809, 41.36836539208058], [1.1849346378413632, 41.36836727771709], [1.1849371408393437, 41.36827724639662], [1.1849396438259565, 41.36818721507464], [1.185059155472631, 41.36818910057524], [1.1851786671306714, 41.36819098595181], [1.1851811697767445, 41.3681009546164], [1.1851836724114524, 41.368010923279456], [1.185064161082584, 41.368009037914746], [1.184944649765082, 41.36800715242601], [1.1849471527175932, 41.3679171210994], [1.1849496556587384, 41.36782708977126], [1.1848301446817722, 41.36782520417035], [1.1848326477761342, 41.36773517284658], [1.184952158588517, 41.36773705844156], [1.1849546615069284, 41.36764702711033], [1.1850741721660951, 41.36764891257534], [1.185193682836628, 41.3676507979163], [1.1853131935185264, 41.36765268313322], [1.1854327042117891, 41.36765456822611], [1.1855522149164157, 41.36765645319495], [1.1856717256324047, 41.367658338039746], [1.1857912363597571, 41.367660222760506], [1.18591074709847, 41.36766210735723], [1.1859082454967216, 41.367752138735916], [1.1860277564113788, 41.36775402321453], [1.1860302578485442, 41.36766399182991], [1.1861497686099778, 41.36766587617854], [1.1861522698711997, 41.367575844786465], [1.1861547711210625, 41.36748581339284], [1.1862742815646916, 41.36748769760557], [1.1863937920196792, 41.36748958169427], [1.1863962929290208, 41.36739955028725], [1.1863987938270046, 41.367309518878706], [1.186401294713631, 41.367219487468596], [1.1864037955888997, 41.367129456056965], [1.186523305396924, 41.36713133999791], [1.1865208046862346, 41.36722137141547], [1.1866403146701947, 41.3672232552383], [1.1866428152163058, 41.36713322381482], [1.1866453157510608, 41.36704319238979], [1.1866478162744596, 41.36695316096322], [1.186528306784234, 41.36695127715818], [1.1865308074608545, 41.366861245736], [1.1864112981465622, 41.36685936181285], [1.186413798976402, 41.36676933039505], [1.1864162997948842, 41.36667929897575], [1.1862967908211008, 41.36667741494041], [1.1862992917928004, 41.36658738352548], [1.1861797829949485, 41.36658549937205], [1.1860602742084556, 41.36658361509456], [1.1859407654333223, 41.36658173069305], [1.1858212566695485, 41.36657984616752], [1.1857017479171355, 41.366577961517926], [1.1855822391760835, 41.366576076744316], [1.185462730446395, 41.36657419184665], [1.185343221728069, 41.36657230682497], [1.1852237130211067, 41.366570421679235], [1.1851042043255096, 41.36656853640948], [1.1851067069315848, 41.36647850505233], [1.185226215462609, 41.366480390316156], [1.1852287178927472, 41.366390358951534], [1.1852312203115205, 41.36630032758538], [1.18523372271893, 41.36621029621768], [1.18511421468162, 41.366208410971645], [1.1851167172422352, 41.36611837960835], [1.185119219791485, 41.36602834824351], [1.1849997120946798, 41.366026462885316], [1.1848802044092397, 41.366024577403095], [1.1848827072762624, 41.36593454604858], [1.1847631997667571, 41.36593266044825], [1.1847657027869807, 41.36584262909815], [1.184768205795837, 41.365752597746486], [1.1847707087933261, 41.365662566393304], [1.1846512017888895, 41.36566068068675], [1.1846537049395767, 41.36557064933796], [1.184534198111073, 41.36556876351331], [1.1845316947958195, 41.36565879485617], [1.1844121878141185, 41.36565690890154], [1.1842926808437868, 41.365655022822885], [1.1841731738848253, 41.36565313662021], [1.1840536669372335, 41.36565125029349], [1.1839341600010131, 41.36564936384274], [1.1839316558515625, 41.36573939515437], [1.183812148762149, 41.365737508573666], [1.1838096444367587, 41.365827539877834], [1.1838071400999959, 41.36591757118045], [1.1838046357518603, 41.36600760248154], [1.1838021313923512, 41.36609763378109], [1.1837996270214692, 41.36618766507908], [1.1837971226392137, 41.36627769637556]]]}, "properties": {"area_ha": 3.57, "dnbr_threshold": 0.27, "part": 46, "fire_id": "2024430996", "burn_year": 2024, "source": "sentinel", "aoi_source": "official", "buffer_m": 800.0, "fire_date": "2024-06-27"}}, {"type": "Feature", "geometry": {"type": "MultiPolygon", "coordinates": [[[[1.1862142523828894, 41.369648450770505], [1.186333766788048, 41.36965033500152], [1.1864532812045658, 41.36965221910848], [1.186572795632442, 41.3696541030914], [1.1865702947683412, 41.36974413447184], [1.1866898093721747, 41.36974601833663], [1.1866873086613168, 41.36983604972146], [1.1868068234411087, 41.36983793346814], [1.186804322883495, 41.36992796485736], [1.1868018223145256, 41.37001799624503], [1.1867993217341997, 41.3701080276312], [1.186796821142517, 41.37019805901581], [1.1867943205394789, 41.37028809039887], [1.1867918199250833, 41.37037812178042], [1.1866723041576717, 41.37037623799817], [1.186552788401617, 41.37037435409189], [1.1865502874466531, 41.37046438546002], [1.186430771537351, 41.37046250142375], [1.1864282704064222, 41.370552532784416], [1.1863087543438726, 41.370550648618156], [1.186189238292682, 41.37054876432784], [1.1861867368211798, 41.37063879567513], [1.1861842353383174, 41.370728827020855], [1.1863037517187236, 41.370730711323034], [1.186423268110489, 41.37073259550115], [1.186425769264135, 41.37064256414356], [1.1865452855026513, 41.37064444819169], [1.1865477864803315, 41.37055441682662], [1.186667302565599, 41.370556300744774], [1.1867868186622235, 41.37055818453888], [1.1869063347702045, 41.370560068208924], [1.1870258508895415, 41.370561951754915], [1.187145367020234, 41.37056383517686], [1.1872648831622805, 41.370565718474744], [1.1872673831409615, 41.37047568707256], [1.187386899129755, 41.370477570240475], [1.1873893989324757, 41.370387538830855], [1.187508914768016, 41.370389421868765], [1.1875114143947783, 41.37029939045167], [1.1873918987238437, 41.37029750741967], [1.1873943985038589, 41.37020747600696], [1.1872748830088822, 41.37020559285683], [1.1871553675252586, 41.37020370958265], [1.1870358520529898, 41.37020182618442], [1.1870333517791605, 41.370291857579346], [1.1869138361536418, 41.37028997405115], [1.1869163365920756, 41.37019994266214], [1.1869188370191541, 41.370109911271605], [1.1870383523154642, 41.37011179478796], [1.1870408525665836, 41.37002176338994], [1.1871603677096456, 41.37002364677632], [1.1872798828640614, 41.370025530038646], [1.1872823827746217, 41.36993549862725], [1.187284882673828, 41.36984546721432], [1.1871653678486163, 41.36984358396385], [1.187045853034759, 41.36984170058932], [1.187048353251814, 41.36975166918671], [1.1870508534575146, 41.36966163778256], [1.1869313389842127, 41.36965975429584], [1.186811824522266, 41.36965787068507], [1.1868143250458112, 41.36956783929124], [1.1869338393431583, 41.36956972289608], [1.1869363396907489, 41.36947969149477], [1.1869388400269836, 41.369389660091926], [1.186819326058833, 41.36938777649895], [1.1868218265483095, 41.36929774510051], [1.1869413403518627, 41.36929962868756], [1.1870608541667715, 41.369301512150564], [1.1870583540064892, 41.36939154356086], [1.1871778679973495, 41.36939342690575], [1.1871753679903105, 41.369483458320445], [1.1872948821571223, 41.369485341547204], [1.187414396335288, 41.369487224649916], [1.1875339105248053, 41.36948910762858], [1.1876534247256736, 41.3694909904832], [1.1877729389378933, 41.36949287321377], [1.1877704397424949, 41.36958290465656], [1.1877679405357469, 41.369672936097814], [1.1876484259943285, 41.3696710533554], [1.1876459266116293, 41.36976108478918], [1.18764342721758, 41.36985111622143], [1.1875239123583106, 41.36984923334311], [1.1875214127883076, 41.3699392647679], [1.1875189132069535, 41.37002929619114], [1.1876384283954269, 41.370031179081316], [1.1876359289673237, 41.37012121050897], [1.1876334295278699, 41.37021124193506], [1.1876309300770647, 41.370301273359615], [1.1876284306149076, 41.37039130478265], [1.187747946473151, 41.37039318757246], [1.1877454471642495, 41.37048321899988], [1.1877429478439976, 41.37057325042576], [1.1877404485123944, 41.3706632818501], [1.1876209321603297, 41.3706613990425], [1.187501415819616, 41.37065951611084], [1.187498916147445, 41.3707495475218], [1.1876184326527672, 41.37075143045938], [1.187737949169441, 41.3707533132729], [1.1877354498151367, 41.37084334469416], [1.1877329504494816, 41.370933376113875], [1.1877304510724749, 41.37102340753208], [1.1877279516841177, 41.37111343894873], [1.1877254522844094, 41.371203470363845], [1.1878449696354891, 41.37120535308294], [1.187842470389043, 41.371295384502446], [1.18772295287335, 41.371293501777416], [1.1876034353690081, 41.371291618928346], [1.1874839178760184, 41.37128973595521], [1.1873644003943808, 41.371287852858025], [1.1873619004781288, 41.37137788425228], [1.1874814181243796, 41.3713797673554], [1.1874789183613885, 41.371469798754056], [1.1875984361836072, 41.37147168173904], [1.1877179540171774, 41.37147356459996], [1.1878374718620994, 41.371475447336834], [1.1879569897183722, 41.37147732994965], [1.1880765075859938, 41.37147921243841], [1.1880740086347272, 41.37156924386514], [1.1881935266783143, 41.37157112623577], [1.1881960254649653, 41.371481094803094], [1.1883155433552846, 41.37148297704374], [1.188435061256952, 41.37148485916032], [1.1885545791699663, 41.371486741152836], [1.188674097094326, 41.37148862302131], [1.1886715989661387, 41.37157865447767], [1.188669100826606, 41.371668685932484], [1.188666602675728, 41.37175871738576], [1.1885470842575176, 41.37175683549953], [1.1885445859306756, 41.371846866945354], [1.1884250673591936, 41.37184498492914], [1.1884225688563868, 41.3719350163675], [1.1884200703422323, 41.37202504780432], [1.1884175718167307, 41.37211507923962], [1.1884150732798826, 41.37220511067337], [1.1884125747316865, 41.37229514210557], [1.1884100761721432, 41.37238517353626], [1.1885295957313495, 41.37238705558802], [1.1886491153019023, 41.37238893751571], [1.1886466170602585, 41.37247896895669], [1.1886441188072685, 41.372569000396126], [1.1887636387184153, 41.37257088221161], [1.188761140618704, 41.37266091365543], [1.1886416205429327, 41.37265903183404], [1.1886391222672505, 41.37274906327042], [1.1887586425076475, 41.37275094509774], [1.1888781627593903, 41.37275282680098], [1.188875664801614, 41.37284285824767], [1.1888731668324946, 41.37293288969282], [1.1888706688520299, 41.373022921136425], [1.1888681708602202, 41.373112952578495], [1.188987691781818, 41.373114834181365], [1.1891072127147602, 41.373116715660174], [1.189226733659046, 41.37311859701493], [1.189346254614674, 41.37312047824561], [1.1894657755816436, 41.37312235935224], [1.1895852965599552, 41.37312424033479], [1.1897048175496068, 41.37312612119327], [1.1897073143890133, 41.373036089709764], [1.1895877935639907, 41.3730342088572], [1.1895902905566866, 41.372944177378066], [1.1897098112170807, 41.37294605822471], [1.1898293318888138, 41.3729479389473], [1.1899488525718862, 41.37294981954582], [1.1900683732662967, 41.37295170002028], [1.1901878939720445, 41.37295358037067], [1.1903074146891293, 41.372955460597005], [1.190426935417549, 41.372957340699266], [1.190546456157304, 41.372959220677465], [1.1905489518216368, 41.372869189149455], [1.19056751032762, 41.37286948104205], [1.19057960684945, 41.37264210245155], [1.190576580782762, 41.37259941135326], [1.1905564387466279, 41.3725990945562], [1.1905589343656238, 41.37250906302205], [1.1905614299732856, 41.37241903148635], [1.190562094817287, 41.3723950464665], [1.1905617540931475, 41.37239023960359], [1.1905127971476992, 41.37214072859563], [1.190485761944999, 41.372057558131615], [1.190451893197085, 41.37205702540917], [1.1903323741149114, 41.37205514536608], [1.1903348699951448, 41.371965113834534], [1.1903373658640433, 41.37187508230145], [1.1903398617216068, 41.371785050766825], [1.1903422712622438, 41.37169813249336], [1.1903408282469592, 41.37169499517292], [1.190222839155474, 41.371693139087185], [1.1901033207544487, 41.371691258819645], [1.190105816918577, 41.37160122729378], [1.1901083130713683, 41.371511195766374], [1.1902278311431593, 41.3715130760221], [1.1902364588371608, 41.371513211743824], [1.1901849028115972, 41.371427838973545], [1.1900909728630698, 41.371304352077814], [1.19001754270672, 41.37117613685662], [1.1898835691058858, 41.37099200428642], [1.1898817592018538, 41.37105727728193], [1.189879262776518, 41.37114730880517], [1.1897597453971973, 41.37114542820096], [1.189640228029214, 41.37114354747269], [1.189637731263313, 41.37123357898256], [1.1896352344860734, 41.37132361049089], [1.1895157168002017, 41.371321729626736], [1.1893961991256707, 41.37131984863852], [1.1892766814624802, 41.37131796752623], [1.1891571638106315, 41.371316086289895], [1.1890376461701244, 41.3713142049295], [1.1889181285409605, 41.37131232344506], [1.188920626305885, 41.37122229197224], [1.1889231240594649, 41.3711322604979], [1.1888036067708716, 41.371130378901235], [1.1886840894936233, 41.37112849718051], [1.1886865875650845, 41.37103846571647], [1.1886890856252008, 41.37094843425088], [1.1885695686885207, 41.370946552417955], [1.1884500517631864, 41.370944670460965], [1.1884525501411791, 41.37085463900569], [1.1884550485078254, 41.37076460754889], [1.188457546863125, 41.37067457609054], [1.188460045207079, 41.37058454463066], [1.1883405289515283, 41.37058266257331], [1.1883430274487436, 41.370492631117806], [1.1883455259346118, 41.37040259966078], [1.188226010019623, 41.37040071749122], [1.1882285086587503, 41.37031068603857], [1.1882310072865296, 41.37022065458439], [1.1882335059029625, 41.37013062312867], [1.1882360045080476, 41.3700405916714], [1.1882385031017846, 41.3699505602126], [1.1882410016841747, 41.36986052875227], [1.1883605166115387, 41.369862410886284], [1.188480031550249, 41.36986429289625], [1.1884825297920893, 41.36977426142253], [1.188485028022583, 41.369684229947275], [1.1884875262417312, 41.36959419847048], [1.1884900244495342, 41.36950416699215], [1.188492522645992, 41.36941413551229], [1.1883730085302817, 41.369412253531934], [1.1883755068799913, 41.369322222056454], [1.1883780052183552, 41.36923219057943], [1.1882584914431864, 41.36923030848687], [1.1882559929402257, 41.36932033995797], [1.1881364790118072, 41.36931845773545], [1.1881389776793647, 41.36922842627027], [1.188019463926891, 41.36922654392962], [1.1880219627476971, 41.369136512468856], [1.188141476335575, 41.36913839480357], [1.1882609899348002, 41.36914027701426], [1.1883805035453723, 41.369142159100875], [1.188500017167291, 41.36914404106346], [1.18849751900487, 41.36923407254793], [1.1884950208311036, 41.36932410403087], [1.1886145347935604, 41.36932598588126], [1.188734048767362, 41.36932786760759], [1.1887365466119344, 41.3692378361128], [1.1887390444451624, 41.36914780461647], [1.1887415422670469, 41.36905777311862], [1.1886220287870346, 41.369055891410056], [1.1886245267621707, 41.36896585991658], [1.1885050134580974, 41.368963978089894], [1.188507511586483, 41.3688739466008], [1.1885100097035233, 41.368783915110164], [1.1883904967399825, 41.36878203317127], [1.1882709837877885, 41.36878015110834], [1.1881514708469407, 41.36877826892136], [1.188153969446414, 41.36868823744696], [1.188034456681506, 41.36868635514187], [1.1880369554342236, 41.368596323671845], [1.1880394541755934, 41.36850629220031], [1.1879199417512156, 41.368504409783], [1.1879224406458275, 41.36841437831585], [1.187802928397389, 41.36841249578042], [1.1876834161602996, 41.36841061312096], [1.1876859153727422, 41.36832058166411], [1.1875664033115916, 41.368318698886526], [1.187446891261792, 41.3683168159849], [1.1873273792233443, 41.36831493295922], [1.1873298789182016, 41.36822490151862], [1.187210367055694, 41.368223018374835], [1.1870908552045403, 41.36822113510699], [1.1869713433647389, 41.368219251715125], [1.1869738435420074, 41.368129220290754], [1.1869763437079213, 41.36803918886485], [1.1868568322086488, 41.368037305360794], [1.186854331878148, 41.36812733678076], [1.1868518315362928, 41.368217368199204], [1.1868493311830823, 41.36830739961609], [1.1868468308185165, 41.36839743103147], [1.1867273186722482, 41.36839554737964], [1.1866078065373358, 41.36839366360378], [1.1866053058322354, 41.36848369500574], [1.186602805115779, 41.36857372640616], [1.1864832926630438, 41.368571842494404], [1.1863637802216656, 41.368569958458586], [1.1863612791646703, 41.36865998984563], [1.1863587780963158, 41.36875002123112], [1.1863562770166032, 41.368840052615084], [1.1862367640928095, 41.368838168437435], [1.1862342628371452, 41.36892819981393], [1.1861147497601172, 41.3689263155063], [1.1861122483284998, 41.369016346875334], [1.1861097468855228, 41.36910637824281], [1.1859902334906662, 41.3691044937993], [1.1858707201071719, 41.36910260923172], [1.1858682183236435, 41.3691926405858], [1.185865716528754, 41.36928267193835], [1.1858632147225021, 41.36937270328936], [1.1858607129048886, 41.36946273463883], [1.1859802269467685, 41.36946461923012], [1.1859777252823906, 41.36955465058401], [1.1859752236066523, 41.36964468193633], [1.1860947379890907, 41.36964656641545], [1.1862142523828894, 41.369648450770505]], [[1.1870433528063487, 41.369931731990405], [1.1869238378392442, 41.36992984848591], [1.1869263382322552, 41.36983981709076], [1.187045853034759, 41.36984170058932], [1.1870433528063487, 41.369931731990405]], [[1.1878474688705851, 41.3711153216619], [1.1879669860684028, 41.371117204251014], [1.1879644869979193, 41.37120723567798], [1.1878449696354891, 41.37120535308294], [1.1878474688705851, 41.3711153216619]], [[1.1879024491711674, 41.36913463001007], [1.1877829356059868, 41.36913274742726], [1.1877854347446355, 41.36904271597678], [1.1877879338719348, 41.36895268452477], [1.1879074471079252, 41.36895456709574], [1.1880269603552651, 41.368956449542665], [1.1881464736139526, 41.36895833186554], [1.1882659868839873, 41.36896021406437], [1.1882634884150676, 41.36905024554008], [1.1881439749804374, 41.369048363335324], [1.1880244615571554, 41.36904648100653], [1.1880219627476971, 41.369136512468856], [1.1879024491711674, 41.36913463001007]], [[1.1885345925098443, 41.372206992713274], [1.1886541117511524, 41.372208874629116], [1.1886516135322003, 41.372298906073176], [1.1885320941262703, 41.37229702415141], [1.1885345925098443, 41.372206992713274]], [[1.1898318285409142, 41.3728579074548], [1.1898343251816754, 41.37276787596075], [1.1898368218110977, 41.37267784446517], [1.1899563420002888, 41.37267972504595], [1.1899538455354925, 41.372769756547434], [1.1899513490593583, 41.3728597880474], [1.1898318285409142, 41.3728579074548]]], [[[1.190287446332327, 41.37367571267107], [1.1902851587505636, 41.3737582233016], [1.1903151207140867, 41.373708442229265], [1.1903295809556893, 41.37367637547261], [1.190287446332327, 41.37367571267107]]], [[[1.1901629317663598, 41.373853895388734], [1.190043409414292, 41.37385201497915], [1.1899238870735616, 41.373850134445526], [1.1899213904613677, 41.37394016592703], [1.189801867967341, 41.3739382852634], [1.1896823454846532, 41.37393640447571], [1.189679848531847, 41.37402643594385], [1.189560325895863, 41.37402455502617], [1.18944080327122, 41.37402267398442], [1.189321280657918, 41.37402079281859], [1.1892017580559593, 41.37401891152871], [1.1890822354653439, 41.37401703011475], [1.1889627128860725, 41.37401514857672], [1.1888431903181447, 41.374013266914616], [1.1887236677615636, 41.37401138512846], [1.1886041452163287, 41.37400950321822], [1.188601646770448, 41.37409953463155], [1.1884821240719228, 41.37409765259132], [1.188362601384746, 41.374095770427026], [1.1882430787089167, 41.37409388813866], [1.1881235560444372, 41.374092005726226], [1.188004033391308, 41.374090123189724], [1.1878845107495295, 41.374088240529154], [1.1877649881191024, 41.37408635774451], [1.187762488509413, 41.374176389114815], [1.1876429657257008, 41.37417450620019], [1.187640465940021, 41.374264537563036], [1.187637966142988, 41.374354568924346], [1.1876354663346023, 41.374444600284114], [1.187632966514863, 41.37453463164234], [1.1877524899571312, 41.374536514580676], [1.1878720134107519, 41.37453839739494], [1.1879915368757243, 41.37454028008513], [1.188111060352048, 41.37454216265127], [1.1882305838397218, 41.374544045093316], [1.1883501073387457, 41.374545927411305], [1.1884696308491183, 41.37454780960522], [1.1885891543708382, 41.37454969167505], [1.1885916528734544, 41.37445966026943], [1.1885941513647238, 41.37436962886226], [1.188713674568511, 41.37437151079619], [1.188711176241882, 41.374461542209275], [1.188830699621655, 41.37446342402505], [1.1889502230127746, 41.374465305716754], [1.1889477250040807, 41.37455533714015], [1.189067248571186, 41.374557218713704], [1.1891867721496356, 41.37455910016319], [1.189306295739429, 41.3745609814886], [1.1894258193405645, 41.37456286268994], [1.1895453429530434, 41.37456474376721], [1.1896648665768625, 41.374566624720416], [1.189737648791987, 41.37456777002453], [1.1898095742520003, 41.37439247778407], [1.189894904611038, 41.37428332519504], [1.1899936519772054, 41.37417958697166], [1.1901697547183263, 41.373949964289196], [1.1902269698069394, 41.373854902813584], [1.1901629317663598, 41.373853895388734]]]]}, "properties": {"area_ha": 8.28, "dnbr_threshold": 0.27, "part": 62, "fire_id": "2024430996", "burn_year": 2024, "source": "sentinel", "aoi_source": "official", "buffer_m": 800.0, "fire_date": "2024-06-27"}}, {"type": "Feature", "geometry": {"type": "Polygon", "coordinates": [[[1.187474385470435, 41.367326469988484], [1.187593895709803, 41.36732835282493], [1.1875913964576261, 41.36741838429276], [1.1875888971940995, 41.36750841575905], [1.18770840777398, 41.3675102984833], [1.1878279183652092, 41.36751218108352], [1.1878254194194973, 41.36760221256013], [1.1878229204624364, 41.3676922440352], [1.1879424313941809, 41.367694126523226], [1.1880619423372742, 41.36769600888721], [1.1880594436980332, 41.367786040372586], [1.188056945047444, 41.36787607185645], [1.1881764563310535, 41.36787795410824], [1.1882959676260096, 41.36787983623598], [1.188293469293245, 41.367969867730125], [1.1882909709491347, 41.36805989922274], [1.1882884725936789, 41.36814993071382], [1.18840798439374, 41.3681518127353], [1.1884054861915256, 41.36824184423076], [1.1885249981675214, 41.368243726134125], [1.1885225001185507, 41.36833375763396], [1.1885200020582345, 41.36842378913229], [1.188639514374754, 41.368425670923436], [1.1887590267026162, 41.368427552590546], [1.1887565289601365, 41.368517584099166], [1.1887540312063143, 41.368607615606244], [1.188873543874702, 41.36860949716117], [1.188993056554433, 41.36861137859202], [1.189112569245506, 41.36861325989884], [1.1892320819479196, 41.36861514108162], [1.1892295848411216, 41.36870517261086], [1.1892270877229836, 41.36879520413855], [1.1893466007659237, 41.36879708520912], [1.1894179024704838, 41.36879820738521], [1.1894170633787193, 41.36878971868014], [1.189362901240444, 41.36854595624697], [1.189279393801379, 41.3683069427517], [1.1891672402979316, 41.368074678620886], [1.1891405374459412, 41.368026379345615], [1.188987520710889, 41.36778422943714], [1.1888033885959322, 41.36755470165385], [1.188589955923588, 41.367340057838824], [1.188349326192704, 41.36714241314094], [1.188083870843364, 41.36696371517622], [1.1877962058845768, 41.3668057248404], [1.187761933594055, 41.36679057489176], [1.1877284002477602, 41.3667900466625], [1.1876088909845137, 41.366788163985646], [1.1876063918004365, 41.36687819546271], [1.1876038926050092, 41.36696822693823], [1.187484383023958, 41.366966344125494], [1.1873648734542577, 41.3669644611887], [1.187362373918325, 41.36705449265083], [1.1873598743710412, 41.367144524111424], [1.1872403644835356, 41.36714264103875], [1.1871208546073821, 41.36714075784204], [1.1871183547195883, 41.36723078928924], [1.1871158548204408, 41.3673208207349], [1.1872353650257532, 41.36732270394347], [1.1873548752424183, 41.367324587028], [1.187474385470435, 41.367326469988484]]]}, "properties": {"area_ha": 1.481, "dnbr_threshold": 0.27, "part": 68, "fire_id": "2024430996", "burn_year": 2024, "source": "sentinel", "aoi_source": "official", "buffer_m": 800.0, "fire_date": "2024-06-27"}}]}
