{"type": "FeatureCollection", "features": [{"type": "Feature", "geometry": {"type": "Polygon", "coordinates": [[[2.1665133430442345, 41.728786261777294], [2.1665156713902545, 41.728606138983146], [2.166756121304525, 41.728607882904846], [2.1667584489578267, 41.72842776009398], [2.166998898221802, 41.72842950350164], [2.1670012251823976, 41.728249380674036], [2.1672416737960774, 41.72825112356766], [2.1672451631899823, 41.727980939299], [2.167485610817623, 41.72798268167312], [2.1674867736025845, 41.72789262024187], [2.167847444580159, 41.727895232851594], [2.1678462822988105, 41.72798529429105], [2.167726058466452, 41.727984423544164], [2.167724896011937, 41.72807448497946], [2.167965344017693, 41.72807622635291], [2.167968830358125, 41.727806042026316], [2.1678486068562126, 41.72780517141068], [2.167849769126971, 41.72771510996834], [2.167969992461013, 41.72771598058124], [2.1679723166509084, 41.72753585768672], [2.1680925396545083, 41.72753672816839], [2.1680913777300757, 41.72762678961911], [2.168452047276237, 41.7276294003177], [2.168448562982008, 41.727899584685794], [2.168568786678254, 41.72790045467534], [2.168567625404133, 41.72799051613122], [2.1684474015400155, 41.72798964613894], [2.168446240092732, 41.72807970759063], [2.168566464124722, 41.728080577585644], [2.1685629802547446, 41.72835076194029], [2.1684427557191337, 41.72834989193708], [2.1684415942506856, 41.72843995338301], [2.168561818954171, 41.728440823388965], [2.1685594963371524, 41.72862094628196], [2.1686797213816815, 41.7286218161676], [2.1686785602331136, 41.72871187761468], [2.16879878545081, 41.72871274737729], [2.1687976244648306, 41.728802808825655], [2.169038075251846, 41.72880454797904], [2.1690392359020696, 41.72871448652521], [2.1691594611356306, 41.72871535591051], [2.169160621612688, 41.728625294452506], [2.168920171486608, 41.7286235555616], [2.168922493096369, 41.728443432652206], [2.1686820436629475, 41.72844169326914], [2.168689010379791, 41.72790132453911], [2.1690496815161358, 41.72790393337584], [2.169048520913501, 41.72799399484265], [2.1691687448040633, 41.72799486420609], [2.1691675843640126, 41.72808492567418], [2.169287808427734, 41.72808579491459], [2.16928664815027, 41.72817585638399], [2.16940687238715, 41.728176725501356], [2.169405712272274, 41.72826678697204], [2.1695259366823128, 41.72826765596638], [2.169527096629315, 41.72817759449296], [2.1696473208767646, 41.728178463358795], [2.16964848065061, 41.72808840188121], [2.169888928825613, 41.72809013923011], [2.169886609944134, 41.728270262194776], [2.1697663855182436, 41.72826939357774], [2.169764066279886, 41.72844951653117], [2.1698842910415257, 41.72845038515366], [2.1698819721177895, 41.728630508106754], [2.1701224223284226, 41.72863224498535], [2.170115467444994, 41.72917261384283], [2.170355919691307, 41.72917435025108], [2.1703478077707454, 41.729804780557345], [2.1704680350770147, 41.72980564859192], [2.170469193770761, 41.7297155871212], [2.1705894209144216, 41.729716455027265], [2.1705836282323476, 41.7301667623801], [2.1707038562207295, 41.73016763017403], [2.1707050145998106, 41.73007756870362], [2.17082524242558, 41.73007843636905], [2.1708194513168606, 41.73052874372031], [2.170699222651632, 41.73052787604125], [2.1706980642461646, 41.730617937504434], [2.1705778354183196, 41.73061706969686], [2.17057667683968, 41.73070713115588], [2.170696905835419, 41.73070799896618], [2.1706934305715175, 41.730978183342785], [2.170813660076223, 41.73097905103549], [2.1708113435430305, 41.73115917395146], [2.1709315733888097, 41.73116004152384], [2.1709304152821973, 41.731250102982386], [2.1710506453011518, 41.731250970431695], [2.171049487357164, 41.73134103189153], [2.171770868589051, 41.7313462339624], [2.1717685547000656, 41.73152635691046], [2.172129246394585, 41.73152895626417], [2.1721304028380075, 41.73143889478269], [2.1722506332454836, 41.73143976097963], [2.1722460081117947, 41.73180000690776], [2.172486470285776, 41.731801738946096], [2.1724853143249945, 41.731891800429956], [2.1726055455877895, 41.731892666263164], [2.1726043897896474, 41.73198272774832], [2.1728448526668465, 41.731984459042835], [2.1728436971992515, 41.73207452053198], [2.1729639288136546, 41.73207538599327], [2.172965084113342, 41.731985324501416], [2.173205547022124, 41.73198705504121], [2.1732043920582496, 41.732077116538505], [2.1734448553238925, 41.732078846580606], [2.173443700690572, 41.73216890808191], [2.173563932499192, 41.732169772917], [2.173562778028519, 41.73225983441958], [2.1736830100103073, 41.732260699131594], [2.173680701389002, 41.73244082213785], [2.173921166039993, 41.73244255119541], [2.1739188580692965, 41.73262267420678], [2.1741593234129617, 41.732624402772046], [2.174160477065115, 41.73253434126166], [2.1742807095769208, 41.732535205352896], [2.1742818630559073, 41.73244514383834], [2.174642560119118, 41.73244773534918], [2.1746437130891194, 41.73235767382504], [2.174884177488371, 41.73235940086457], [2.174885330117301, 41.73226933933356], [2.1750055621568944, 41.73227020266194], [2.175006714612664, 41.73218014112676], [2.1752471783717846, 41.732181867400726], [2.1752494825959414, 41.73200174431521], [2.1751292510495714, 41.73200088124655], [2.1751304033216834, 41.73191081970433], [2.1748899405805058, 41.73190909319509], [2.1748922457806024, 41.731728970117196], [2.1746517837320507, 41.731727243115664], [2.17465870122114, 41.73118687387994], [2.1747789312353762, 41.73118773742732], [2.1747800839639417, 41.73109767588027], [2.1749003138155305, 41.73109853929914], [2.1749014663709447, 41.731008477747935], [2.1750216960598854, 41.731009341038316], [2.1750205436723693, 41.73109940259224], [2.1751407735344594, 41.731100265759544], [2.175139621309593, 41.73119032731474], [2.1750193912796036, 41.73118946414471], [2.1750170864783214, 41.73136958724534], [2.1751373168441126, 41.73137045042079], [2.175135012357634, 41.73155057352108], [2.175255243064479, 41.73155143657617], [2.17525293889281, 41.73173155967612], [2.1756136320522574, 41.731734148102966], [2.175615935216503, 41.73155402498676], [2.175375473776573, 41.731552299505495], [2.175380081385319, 41.731192053277454], [2.1756205414820364, 41.73119377873702], [2.175621693035304, 41.73110371717099], [2.175381233274386, 41.73110199171683], [2.1753823851582053, 41.731011930154764], [2.1752621554535163, 41.73101106724173], [2.1752633074999856, 41.73092100568094], [2.1751430779684435, 41.730920142644834], [2.175144230177562, 41.730830081085315], [2.175024000819166, 41.730829217926136], [2.175027457918713, 41.730559033247076], [2.175147686773421, 41.730559896398105], [2.1751499911444148, 41.73037977326608], [2.175390448198002, 41.730381499179956], [2.175389296350917, 41.730471560752115], [2.1755095250534757, 41.730472423523096], [2.1755083733690377, 41.730562485096534], [2.1756286022447378, 41.73056334774445], [2.1756262991959114, 41.73074347089239], [2.175746528412649, 41.73074433341995], [2.1757453770482633, 41.73083439499448], [2.1758656064381423, 41.730835257398965], [2.175864455236409, 41.730925318974755], [2.1759846847994306, 41.73092618125617], [2.17598353376035, 41.73101624283324], [2.1762239932379215, 41.73101796702416], [2.1762228425293957, 41.7311080286052], [2.1763430724439443, 41.7311088905147], [2.1763419218980755, 41.731198952096996], [2.176462151985766, 41.731199813883414], [2.176461001602556, 41.731289875466985], [2.1765812318633886, 41.73129073713033], [2.1765800816428396, 41.73138079871517], [2.176700312076813, 41.73138166025546], [2.176699162018926, 41.731471721841544], [2.17657893141705, 41.731470860298565], [2.1765731802094983, 41.73192116819389], [2.1766934116508967, 41.731922029750415], [2.1766911114670076, 41.73210215290386], [2.177292270431655, 41.73210645882679], [2.1772899719058953, 41.73228658200154], [2.1774102040503536, 41.732287442814176], [2.17740905494753, 41.732377504402095], [2.177529287265133, 41.73237836509165], [2.177528138324985, 41.73246842668084], [2.1776483708157337, 41.73246928724731], [2.177647222038263, 41.73255934883777], [2.177767454702157, 41.732560209281154], [2.177766306087365, 41.73265027087285], [2.1778865389244046, 41.732651131193165], [2.177885390472293, 41.73274119278613], [2.178005623482478, 41.73274205298335], [2.1780067717666762, 41.73265199138768], [2.17848770318807, 41.732655430907876], [2.178485407957752, 41.732835554119404], [2.178846107586181, 41.73283813245497], [2.1788506960109477, 41.73247788599375], [2.1789709285592256, 41.73247874517656], [2.178972075484441, 41.732388683554944], [2.1792125402608478, 41.732390401537806], [2.1792136868450167, 41.73230033990936], [2.1795743835450723, 41.73230291593214], [2.179570945288096, 41.73257310083748], [2.1794507125457874, 41.73257224228091], [2.179449566281773, 41.73266230391043], [2.1798102650281, 41.73266487921087], [2.179815993777281, 41.732214571008335], [2.1799362258636075, 41.73221542917675], [2.1799442447178787, 41.73158499761375], [2.180184706555492, 41.73158671353545], [2.1801892872998954, 41.731226466874716], [2.180429747815156, 41.731228182271735], [2.1804320374844526, 41.73104805892193], [2.180552267414106, 41.73104891642637], [2.1805545567267415, 41.73086879306539], [2.1806747863258122, 41.73086965043867], [2.18067593080641, 41.73077958875332], [2.180555701375237, 41.73077873138275], [2.180556846018518, 41.73068866969866], [2.180436616760457, 41.730687812205], [2.1804377615664197, 41.730597750522165], [2.1803175324814705, 41.730596892905425], [2.180318677450113, 41.73050683122384], [2.1799579907302533, 41.730504257627025], [2.179960281659254, 41.730324134275705], [2.179238910375187, 41.73031898371841], [2.1792400568392183, 41.73022892205678], [2.1791198284780426, 41.73022806319304], [2.1791209751047425, 41.73013800153267], [2.179000746916683, 41.73013714254584], [2.179001893706051, 41.730047080886735], [2.1788816656911076, 41.730046221776846], [2.1788805187338487, 41.730136283433254], [2.178760290556239, 41.73013542419488], [2.1787614376813895, 41.73004536254116], [2.1786412096768975, 41.73004450317971], [2.1786423569647115, 41.72995444152727], [2.178522129133337, 41.72995358204275], [2.1785244240290638, 41.72977345873892], [2.1784041965386955, 41.729772599134016], [2.1784053441466056, 41.72968253748264], [2.1782851168293536, 41.72968167775468], [2.1782862645999232, 41.72959161610454], [2.1784064917492882, 41.72959247582982], [2.1784076393467418, 41.729502414175556], [2.1782874123652634, 41.729501554452995], [2.178290855629911, 41.72923136948967], [2.178891988071299, 41.72923566680423], [2.178893134976306, 41.72914560513339], [2.179133587653675, 41.72914732317339], [2.1791347342176905, 41.72905726149571], [2.1797358651630954, 41.72906155438122], [2.1797370108824765, 41.72897149268859], [2.1798572369193376, 41.72897235088568], [2.1798583824656177, 41.72888228918893], [2.180098834219231, 41.728884005200385], [2.1800976890087145, 41.72897406690253], [2.1802179150612297, 41.728974924722294], [2.1802224952004705, 41.72861467789427], [2.1801022698194776, 41.728613820085286], [2.180103415009125, 41.728523758377364], [2.179983189801228, 41.72852290044531], [2.1799843351535366, 41.72843283873865], [2.179864110118735, 41.72843198068352], [2.1798675466479804, 41.72816179556297], [2.1799877711791535, 41.728162653610006], [2.1799900618368087, 41.727982530183695], [2.1801102860374506, 41.727983388099574], [2.1801114311905785, 41.72789332638156], [2.1804721033201835, 41.72789589936649], [2.1804732479644766, 41.72780583763895], [2.1807136957412094, 41.727807552327995], [2.1807148400445446, 41.72771749059362], [2.1809552875063862, 41.72771920477421], [2.1809575754259343, 41.72753908129036], [2.181077798828931, 41.72753993818662], [2.1810812301655598, 41.72726975294194], [2.181201453070161, 41.72727060970437], [2.1812025966707482, 41.72718054795056], [2.181803710432552, 41.7271848298627], [2.181802567671302, 41.72727489162995], [2.1819227906071514, 41.727275747637776], [2.1819216480085637, 41.72736580940629], [2.1820418711174865, 41.727366665291036], [2.1820373013425614, 41.72772691236142], [2.1817968537869588, 41.72772520044465], [2.1817945681967776, 41.72790532396042], [2.18203501642387, 41.72790703588797], [2.18203273148436, 41.72808715940874], [2.1821529559414623, 41.728088015189236], [2.1821483866714892, 41.72844826222424], [2.1822686118053007, 41.72844911788974], [2.1822674696426754, 41.72853917964758], [2.182387694949569, 41.728540035189994], [2.1823831269185536, 41.72890028221766], [2.1828640308842306, 41.72890370317262], [2.182866313567095, 41.72872357964016], [2.1831067649096108, 41.72872528935224], [2.1831124698469933, 41.72827498046899], [2.1829922450125285, 41.72827412568927], [2.182994527286847, 41.72809400213124], [2.18311475178556, 41.72809485690559], [2.1831158927470464, 41.72800479512174], [2.182995668416208, 41.72800394035007], [2.1829968095403705, 41.72791387856745], [2.182876585382605, 41.7279130236727], [2.182880009227517, 41.72764283832426], [2.1827597855785674, 41.727641983311806], [2.182762068451586, 41.72746185974435], [2.182641845143578, 41.727461004611506], [2.1826429867401567, 41.7273709428283], [2.1825227636052182, 41.727370087572375], [2.1825239053644645, 41.72728002579042], [2.1822834594459293, 41.72727831490666], [2.1822857436202865, 41.72709819134917], [2.182646411498688, 41.727100757470026], [2.1826486946450387, 41.72692063389065], [2.1825284723494343, 41.72691977864816], [2.182530755810711, 41.72673965506838], [2.1822903119065646, 41.726737944216886], [2.182293738066643, 41.726467758852536], [2.1821735166259604, 41.72646690324621], [2.1821746588367747, 41.7263768414579], [2.1822948801095965, 41.72637769706154], [2.182298306207241, 41.72610751167988], [2.1826589685461877, 41.72611007771201], [2.1826623930862956, 41.725839892293166], [2.1827826133727743, 41.72584074737763], [2.182783754707888, 41.72575068556579], [2.1826635345892638, 41.72574983048401], [2.1826646760870325, 41.7256597686734], [2.1825444561414633, 41.725658913468564], [2.182545597801885, 41.725568851659204], [2.1826658175796, 41.725569706861364], [2.1826669590669683, 41.725479645047876], [2.182546739457106, 41.7254787898484], [2.182549022751945, 41.72529866622248], [2.1823085842192325, 41.72529695545703], [2.1823120101295843, 41.72502677002347], [2.182191791374582, 41.725025914460176], [2.182192933502143, 41.724935852648784], [2.182313152089297, 41.724936708209384], [2.1823154359931154, 41.724756584576916], [2.1821952177416555, 41.72475572902169], [2.182200928249385, 41.72430541992871], [2.1823211456616205, 41.7243062754705], [2.182323429492608, 41.724126151817835], [2.1825638636613185, 41.72412786251337], [2.1825650052333274, 41.7240378006795], [2.182444788314212, 41.72403694539729], [2.182447071778307, 41.72385682173059], [2.1814853392981313, 41.723849974988966], [2.181487625426831, 41.723669851359546], [2.181247193030197, 41.7236681384274], [2.181251766567794, 41.7233078911728], [2.1810113355346807, 41.72330617775921], [2.1810136229435595, 41.72312605413403], [2.18077319260262, 41.72312434022822], [2.1807777687005037, 41.722764092982096], [2.1806575542091746, 41.72276323585135], [2.1806586983884455, 41.72267317403892], [2.180538484070158, 41.72267231678512], [2.180539628412045, 41.72258225497393], [2.1804194142667983, 41.72258139759708], [2.18042284776466, 41.72231121216296], [2.180302634128108, 41.72231035466845], [2.1803037787847925, 41.72222029285688], [2.1800633518629824, 41.72221857749602], [2.1800667868086903, 41.72194839206886], [2.1799465738590795, 41.72194753420791], [2.1799477189983723, 41.721857472398675], [2.179346655167693, 41.721853181221285], [2.179348947108836, 41.72167305762545], [2.178868097480822, 41.7216696224418], [2.1788669508415803, 41.72175968422965], [2.1787467382798136, 41.72175882511669], [2.1787478850868753, 41.72166876333153], [2.1786276726981537, 41.72166790409554], [2.178626525723271, 41.72175796587799], [2.178386100625862, 41.721756247023364], [2.178387247936385, 41.721666185246306], [2.177906398475573, 41.72166274603897], [2.17790525049377, 41.7217528078052], [2.1777850379738193, 41.72175194768633], [2.177786186123442, 41.72166188592279], [2.17718512444126, 41.721657583455766], [2.1771828264585817, 41.721837706954325], [2.176942401151062, 41.721835985076524], [2.176943550480659, 41.72174592333338], [2.176703125529724, 41.721744200958014], [2.176701975864486, 41.72183426269574], [2.1764615505988587, 41.721832539812], [2.176452350403226, 41.722553033618574], [2.1766927783540346, 41.72255475654564], [2.1766916286416595, 41.72264481827039], [2.176932056949073, 41.722646540699884], [2.176930907567116, 41.72273660242862], [2.1759691931205642, 41.72272970967106], [2.175970343845145, 41.722639647963994], [2.175850129730736, 41.72263878580616], [2.175848978838327, 41.7227288475105], [2.1757287645613332, 41.72272798522421], [2.175727613495853, 41.7228180469244], [2.1756073990562736, 41.72281718450966], [2.1756050965739226, 41.72299730790028], [2.1754848818039285, 41.72299644535437], [2.1754883360230766, 41.7227262602744], [2.1752479075058013, 41.7227245348216], [2.1752502109636502, 41.722544411438584], [2.175129997048537, 41.722543548528996], [2.1751311489374174, 41.72245348683804], [2.1750109351953784, 41.722452623805424], [2.1750120872468366, 41.72236256211574], [2.174651446555687, 41.72235997227156], [2.174652599105371, 41.72226991058858], [2.1745323857199788, 41.72226904705842], [2.1745335384322364, 41.72217898537669], [2.174293112012854, 41.722177257944566], [2.174294265055506, 41.722087196266834], [2.174053838992781, 41.72208546833718], [2.174052685614483, 41.72217553000947], [2.1738122592371285, 41.72217380157141], [2.1738111055179288, 41.72226386323685], [2.1736908921693114, 41.72226299882647], [2.1736897382770315, 41.722353060487734], [2.1735695247658464, 41.722352195948915], [2.173568370700485, 41.72244225760601], [2.1734481570267326, 41.72244139293873], [2.1734470027882873, 41.72253145459167], [2.173326788951967, 41.72253058979593], [2.173315244600015, 41.72343120621881], [2.1731950290906537, 41.72343034127013], [2.173192719821484, 41.723610464531966], [2.172832072317956, 41.72360786891514], [2.1728390030833387, 41.723067499161296], [2.172598573454626, 41.72306576815398], [2.172599728899432, 41.722975706528736], [2.1723592996274337, 41.722973975023876], [2.172358143846967, 41.72306403664369], [2.172237929051035, 41.723063170699916], [2.1722367730974725, 41.72315323231556], [2.1721165581389754, 41.723152366243326], [2.172114245880388, 41.72333248946482], [2.1722344611745488, 41.723333355542515], [2.1722333052051876, 41.723423417153825], [2.172353520672447, 41.72342428310848], [2.1723523648656538, 41.72351434472106], [2.1722321492305605, 41.723513478763685], [2.172230993250667, 41.72360354037212], [2.1721107774530046, 41.72360267428627], [2.1721130897431937, 41.72342255107341], [2.1719928742864667, 41.72342168486726], [2.1719917179761716, 41.723511746471694], [2.1718715023568786, 41.72351088013707], [2.1718738153078676, 41.72333075693223], [2.1715131694886027, 41.723328157190224], [2.1715143264596914, 41.72323809559381], [2.1713941113649757, 41.723237228764376], [2.1713929542260546, 41.723327290358064], [2.1711525237167737, 41.7233255563165], [2.1711513662369146, 41.7234156179033], [2.170670504610303, 41.723412148300305], [2.170669346453837, 41.723502209874745], [2.170549130892539, 41.7235013421569], [2.170547972562962, 41.72359140372718], [2.170187325407228, 41.72358879981098], [2.170183848876315, 41.723858984488594], [2.1703040650931222, 41.7238598525946], [2.1703029064067634, 41.72394991415364], [2.170423122796686, 41.72395078213662], [2.170421964272887, 41.72404084369696], [2.1700613146154404, 41.724038239362585], [2.1700624736427536, 41.723948177810435], [2.169461391825144, 41.7239438347518], [2.1694590720868536, 41.72412395782733], [2.169218638725438, 41.724122219712704], [2.169212837608833, 41.72457252734901], [2.169333055126103, 41.72457339648286], [2.1693307349781494, 41.72475351953275], [2.1694509528363914, 41.72475438854631], [2.1694474730783604, 41.72502457311851], [2.1695676914454234, 41.72502544201451], [2.169566531683359, 41.72511550353842], [2.1696867502235517, 41.7251163723114], [2.1696832714092027, 41.72538655688267], [2.170043928572113, 41.72538916247166], [2.170045087678631, 41.72529910094115], [2.170165306575647, 41.725299969216564], [2.170164147636979, 41.72539003074979], [2.1704045857825487, 41.72539176692882], [2.1704034271743016, 41.72548182846609], [2.1706438656766847, 41.725483564147545], [2.1706427073988617, 41.7255736256888], [2.1707629268258195, 41.72557449334364], [2.1707617687105722, 41.72566455488618], [2.1701606707892966, 41.72566021534085], [2.1701618297438037, 41.725570153811944], [2.1699213909479504, 41.72556841711897], [2.16992255023288, 41.725478355594085], [2.169682111793854, 41.72547661840354], [2.1696809521732225, 41.72556667992298], [2.1693202940507534, 41.7255640731858], [2.1693179737865296, 41.72574419620395], [2.1690775343932334, 41.72574245773945], [2.169075213436455, 41.72592258074091], [2.1689549934120294, 41.725921711314555], [2.168950350763608, 41.72628195728918], [2.1688301300730473, 41.72628108772614], [2.168838255827248, 41.72565065727452], [2.1689584753428264, 41.725651526818424], [2.1689596359758503, 41.72556146531683], [2.168719197285684, 41.72555972610873], [2.1687203582491223, 41.725469664611154], [2.168600139079823, 41.725468794821204], [2.168601300205822, 41.72537873332492], [2.1687215192072715, 41.72537960311214], [2.1687238411077034, 41.725199480109794], [2.1689642784550722, 41.725201219296025], [2.16896659966296, 41.725021096276954], [2.168846381322326, 41.72502022675218], [2.168847542086185, 41.72493016524323], [2.168727323918685, 41.72492929559543], [2.168728484845101, 41.72483923408776], [2.168608266850735, 41.72483836431695], [2.1686094279397072, 41.724748302810575], [2.168729645766229, 41.72474917257865], [2.1687308066820674, 41.724659111068085], [2.168490371370002, 41.72465737141165], [2.168491532616238, 41.72456730990511], [2.1682510976610203, 41.724565569751135], [2.1682522592376503, 41.72447550824864], [2.1681320419358205, 41.72447463798576], [2.168130880191348, 41.72456469948552], [2.1680106627269686, 41.724563829094144], [2.168011824639283, 41.724473767597125], [2.1676511727814334, 41.72447115567671], [2.1676523351919794, 41.724381094186434], [2.1675321180844604, 41.72438022329753], [2.167530955506073, 41.72447028478507], [2.16741073823601, 41.724469413767686], [2.1674153891891406, 41.72410916781986], [2.1672951725957343, 41.72410829668767], [2.167296335488613, 41.72401823519985], [2.1674165519141813, 41.7240191063293], [2.167417714633925, 41.7239290448373], [2.167297498376194, 41.72392817371058], [2.167300987007151, 41.72365798923414], [2.1671807712582254, 41.72365711798989], [2.1671819342924508, 41.72356705649758], [2.166821287580969, 41.72356444201858], [2.1668189605002133, 41.723744564985296], [2.16669874460465, 41.72374369323531], [2.1666975808884854, 41.723833754713766], [2.1665773648303883, 41.72383288283531], [2.166576200941086, 41.72392294430958], [2.1663357685051263, 41.72392120016992], [2.166333440039264, 41.724101323103156], [2.166213223493564, 41.72410045083922], [2.1662120590848386, 41.72419051230094], [2.1660918423766047, 41.72418963990851], [2.1660871840172944, 41.72454988572998], [2.165966966643004, 41.72454901320083], [2.1659658018720704, 41.72463907464984], [2.1660860194142035, 41.724639947181736], [2.166084854805807, 41.72473000863205], [2.1662050725210884, 41.724730881040934], [2.166202743624068, 41.72491100394272], [2.166082525573097, 41.72491013152836], [2.166080196319165, 41.72509025441888], [2.1659599779378076, 41.72508938187329], [2.1659588131350365, 41.72517944331364], [2.1657183760525487, 41.72517769783967], [2.165716045759694, 41.72535782070508], [2.165956483513574, 41.72535956619002], [2.165955318694883, 41.725449627626055], [2.1661957568056884, 41.725451372613456], [2.166194592317391, 41.72554143405353], [2.1663148115486015, 41.72554230636134], [2.1663136472228506, 41.72563236780271], [2.166433866627216, 41.7256332399875], [2.166432702464012, 41.72572330143017], [2.166552922041533, 41.72572417349194], [2.16654943002366, 41.72599435781951], [2.166789870201729, 41.72599610158226], [2.166787542834721, 41.72617622447105], [2.1669077632674183, 41.726177096169266], [2.166910090298716, 41.72599697327498], [2.1671505305085907, 41.725998716283165], [2.167149367331302, 41.7260887777365], [2.1670291470558602, 41.72608790629255], [2.1670233302506428, 41.7265382135239], [2.166782888037087, 41.72653647023132], [2.166780560606461, 41.72671659310279], [2.166540117742672, 41.726714849296215], [2.1665436098878144, 41.72644466500329], [2.1663031680523934, 41.726442920710106], [2.1663043324258844, 41.72635285928171], [2.166063890947397, 41.72635111449099], [2.1660627262381906, 41.726441175913884], [2.165942505339048, 41.72644030332713], [2.1659401755689998, 41.72662042616311], [2.1658199543394465, 41.72661955344511], [2.16581762421245, 41.72679967626984], [2.1653367380044366, 41.72679618411829], [2.165332075000949, 41.7271564297065], [2.1652118527907707, 41.72715555634323], [2.165209520921432, 41.72733567912319], [2.165089298380835, 41.72733480562868], [2.1650846339069503, 41.72769505116028], [2.1646037411118235, 41.72769155588062], [2.1646014075000513, 41.727871678615784], [2.164841854558463, 41.727873426518144], [2.164837188614102, 41.728233671993166], [2.1645967402127173, 41.72823192406882], [2.164593239691402, 41.72850210814344], [2.1643527903040347, 41.728500359699545], [2.164349288727617, 41.728770543744695], [2.164108838354261, 41.728768794781224], [2.1641018330432944, 41.72930916279957], [2.163981606857315, 41.729308288112684], [2.163980439118988, 41.72939834944127], [2.1638602127704467, 41.729397474625856], [2.1638613806766562, 41.72930741330002], [2.1636209283313006, 41.72930566329738], [2.163618591842029, 41.72948578593661], [2.163378138846432, 41.729484035419894], [2.1633664527229852, 41.73038464847444], [2.16360690907633, 41.730386399046196], [2.16360457245932, 41.73056652165081], [2.163724800979761, 41.730567396753514], [2.1637224646772477, 41.73074751935784], [2.164083151277859, 41.73075014392781], [2.1640808159614284, 41.73093026654286], [2.1639605867534475, 41.73092939180649], [2.1639594189193563, 41.731019453109106], [2.163839189548799, 41.7310185782442], [2.163838021541491, 41.731108639542605], [2.163357103440894, 41.73110513881418], [2.1633559347566735, 41.731195200100146], [2.1631154754025226, 41.731193448975745], [2.1631143063771807, 41.73128351025478], [2.162873846708537, 41.73128175862175], [2.162866830429829, 41.73182212623255], [2.1629870612688937, 41.731823002128465], [2.162985892038366, 41.73191306339464], [2.1631061230506616, 41.731913939167534], [2.1631049539827116, 41.73200400043501], [2.1632251851682374, 41.732004876084886], [2.163224016262867, 41.73209493735366], [2.1633442476216236, 41.73209581288049], [2.163343078878834, 41.73218587415059], [2.163583541948132, 41.7321876248324], [2.163585878756764, 41.732007502279764], [2.1640668036159867, 41.73201100211196], [2.164067971340699, 41.73192094082247], [2.164308433466424, 41.73192268997837], [2.1643072660775204, 41.732012751273345], [2.1646679598097087, 41.732015374072056], [2.164669126694897, 41.73192531276884], [2.164789357781689, 41.731926186780754], [2.1647905244936574, 41.73183612547332], [2.1650309863473765, 41.731837873114316], [2.1650321527182235, 41.73174781179997], [2.1649119219566098, 41.73174693804511], [2.1649130884900454, 41.731656876732046], [2.1645523967408025, 41.73165425472103], [2.1645570648362074, 41.73129400948734], [2.1647975246538484, 41.73129575759851], [2.164801024662188, 41.73102557364162], [2.1650414834937015, 41.73102732123317], [2.1650438161344345, 41.730847198577024], [2.165284274315618, 41.730848945654486], [2.165286606263518, 41.7306688229816], [2.16516637750606, 41.73066794951124], [2.1651675436399356, 41.7305778881754], [2.165047315055683, 41.73057701458201], [2.1650484813521387, 41.73048695324746], [2.164928252941092, 41.73048607953105], [2.164929419400126, 41.73039601819778], [2.165049647643281, 41.73039689191144], [2.1650519802096255, 41.73021676923511], [2.1652924360403105, 41.73021851627412], [2.1652936019797333, 41.7301284549283], [2.1654138297351544, 41.7301293282564], [2.1654149955013766, 41.73003926690639], [2.1655352230942198, 41.730040140105956], [2.1655433821338677, 41.729409710596244], [2.1654231557162262, 41.72940883741589], [2.1654254871583856, 41.729228714691324], [2.1657861654199446, 41.72923133383863], [2.165785000205166, 41.729321395209865], [2.166025452741847, 41.729323140684684], [2.16603011222606, 41.72896289516914], [2.166270563440919, 41.728964640118946], [2.1662728924796695, 41.72878451734155], [2.1665133430442345, 41.728786261777294]], [[2.1821655210045576, 41.72709733572402], [2.182167805493834, 41.72691721216615], [2.18204758321904, 41.72691635642062], [2.182048725623737, 41.72682629464219], [2.1822891698427997, 41.726828006002116], [2.1822857436202865, 41.72709819134917], [2.1821655210045576, 41.72709733572402]], [[2.181928503522012, 41.72682543877359], [2.181929646089369, 41.72673537699643], [2.1816892022372625, 41.726733664887306], [2.1816926309152738, 41.726463479563314], [2.1818128523351374, 41.726464335672674], [2.181811709615535, 41.72655439745149], [2.181931931208466, 41.72655525343778], [2.18193078865152, 41.72664531521782], [2.182051010417518, 41.72664617108104], [2.182048725623737, 41.72682629464219], [2.181928503522012, 41.72682543877359]], [[2.1814521880911673, 41.72646176696728], [2.181455617729477, 41.72619158164646], [2.1816960595464248, 41.726193294226334], [2.1816926309152738, 41.726463479563314], [2.1814521880911673, 41.72646176696728]], [[2.181335396828815, 41.726190725167875], [2.1813365401990272, 41.726100663394085], [2.181216319471432, 41.72609980679245], [2.181219750054385, 41.72582962147046], [2.1810995298355693, 41.72582876475114], [2.181100673520657, 41.72573870297695], [2.1808602334343674, 41.725736989166414], [2.1808625214603263, 41.7255568656245], [2.180622082066299, 41.72555515132169], [2.180623226407167, 41.72546508955397], [2.1807434459337216, 41.725465946765546], [2.1807445901015243, 41.72537588499368], [2.1806243707428212, 41.72537502778478], [2.1806278037185054, 41.7251048424686], [2.1807480225736575, 41.725105699669406], [2.1807457342641143, 41.72528582322036], [2.180865953460178, 41.7252866803008], [2.180863665465489, 41.72546680385137], [2.181104104544657, 41.725468517645744], [2.1811029608752004, 41.725558579424266], [2.1812231805904534, 41.725559436135505], [2.1812208935716173, 41.72573955969359], [2.1813411136277874, 41.72574041628446], [2.1813399702784104, 41.725830478064026], [2.1814601905076443, 41.725831334531826], [2.181455617729477, 41.72619158164646], [2.181335396828815, 41.726190725167875]], [[2.172472580506013, 41.72351521055269], [2.1724714248617896, 41.723605272166566], [2.1723512090535952, 41.723604406332214], [2.1723523648656538, 41.72351434472106], [2.172472580506013, 41.72351521055269]], [[2.1718703458734816, 41.72360094173733], [2.171629914315032, 41.72359920868541], [2.1716310711340983, 41.72350914709059], [2.1718715023568786, 41.72351088013707], [2.1718703458734816, 41.72360094173733]], [[2.171628757490695, 41.72368927027877], [2.171388325617655, 41.7236875367184], [2.171389482777662, 41.723597475130475], [2.171629914315032, 41.72359920868541], [2.171628757490695, 41.72368927027877]], [[2.167409575484484, 41.72455947525103], [2.16752979292239, 41.724560346271154], [2.1675263051395626, 41.724830530720745], [2.167285869261987, 41.724828788538304], [2.167284706321428, 41.72491885001314], [2.1670442701293537, 41.72491710732222], [2.1670477599422022, 41.724646922909805], [2.1672881951272105, 41.724648665584304], [2.1672905209712425, 41.724468542624535], [2.16741073823601, 41.724469413767686], [2.167409575484484, 41.72455947525103]], [[2.16542198998718, 41.729498898776], [2.1653017634069656, 41.72949802546712], [2.1653029293038952, 41.729407964109754], [2.1654231557162262, 41.72940883741589], [2.16542198998718, 41.729498898776]], [[2.174406708596817, 41.73208576171757], [2.1744090151611717, 41.731905638667165], [2.1746494778603336, 41.7319073661827], [2.174647171967606, 41.732087489243966], [2.174406708596817, 41.73208576171757]], [[2.173209011882175, 41.73171687054063], [2.173206701980736, 41.731896993542456], [2.17308647069162, 41.731896128338164], [2.173087625812876, 41.7318060668407], [2.1726067013806665, 41.731802604776576], [2.172607857168277, 41.731712543288545], [2.1727280881005284, 41.73171340899054], [2.1727292437149703, 41.73162334749834], [2.1729697052594594, 41.73162507851952], [2.1729685499808253, 41.73171514001715], [2.173209011882175, 41.73171687054063]], [[2.1739580907112503, 41.72956058222884], [2.173959244520489, 41.729470520674845], [2.1738390177329925, 41.72946965629862], [2.17384017170486, 41.72937959474589], [2.173960398324472, 41.7293804591194], [2.1739615521231985, 41.729290397562494], [2.174322231509918, 41.729292989920204], [2.1743187716089336, 41.729563174610995], [2.1739580907112503, 41.72956058222884]], [[2.1783080712472627, 41.72788044447831], [2.1783103665740238, 41.727700321118945], [2.1784305901979306, 41.727701180787456], [2.178428295206913, 41.727881304152234], [2.1783080712472627, 41.72788044447831]], [[2.175429607876753, 41.72731940486836], [2.1754284562080715, 41.72740946648956], [2.1755486792026772, 41.727410329168336], [2.1755440731469595, 41.727770575649565], [2.175303625820038, 41.72776885014455], [2.17530592952987, 41.72758872691766], [2.17518570621002, 41.727587863981924], [2.1751868582249343, 41.72749780236903], [2.1750666350782013, 41.72749693931025], [2.1750700915950563, 41.72722675447106], [2.1751903142381854, 41.727227617521706], [2.1751891622390165, 41.72731767913893], [2.175429607876753, 41.72731940486836]], [[2.167734195499778, 41.72735399345679], [2.167854418157055, 41.7273548641845], [2.167852093652603, 41.727534987079295], [2.167731870659592, 41.727534116346106], [2.167734195499778, 41.72735399345679]], [[2.1676139728477968, 41.727353122603304], [2.1676174605719543, 41.7270829382667], [2.16773768272034, 41.727083809111974], [2.167734195499778, 41.72735399345679], [2.1676139728477968, 41.727353122603304]], [[2.1733835115754445, 41.72748484328183], [2.1733846661031313, 41.72739478170824], [2.1735048890084396, 41.727395646525025], [2.173503734648621, 41.72748570810134], [2.1733835115754445, 41.72748484328183]], [[2.178197029817358, 41.72715909122815], [2.1781958820200953, 41.7272491529145], [2.177714990955059, 41.72724571253377], [2.1777126940019045, 41.72742583588054], [2.177472247829305, 41.72742411492476], [2.177471099009142, 41.72751417659056], [2.17723065252174, 41.72751245512631], [2.1772329508283064, 41.72733233180408], [2.177473396644235, 41.7273340532575], [2.177475694258393, 41.72715392991869], [2.177716139423788, 41.72715565085823], [2.1777172878872855, 41.72706558918124], [2.177957732737877, 41.72706730961232], [2.177956584610112, 41.727157371294716], [2.178197029817358, 41.72715909122815]], [[2.173871326958141, 41.7269479322768], [2.173870173128209, 41.727037993868485], [2.1739903953830844, 41.72703885817134], [2.173989241715761, 41.727128919764304], [2.17362857446331, 41.72712632647028], [2.1736308827998885, 41.726946203299235], [2.173871326958141, 41.7269479322768]], [[2.1748307988220628, 41.727134966381946], [2.174831951314331, 41.72704490476997], [2.174952173611231, 41.72704576806673], [2.1749510212868275, 41.7271358296814], [2.1748307988220628, 41.727134966381946]], [[2.167983937282738, 41.726635243127646], [2.1679850993168044, 41.72654518166379], [2.167864878164998, 41.72654431108647], [2.1678672025529657, 41.72636418815993], [2.1681076441904388, 41.726365929177874], [2.1681088060407663, 41.72627586770697], [2.168229026699585, 41.72627673802455], [2.1682301883767625, 41.72618667654947], [2.168470629374563, 41.72618841680192], [2.1684787586166743, 41.7255579863976], [2.1685989779485344, 41.725558856316034], [2.1685966556700875, 41.725738979301376], [2.1687168753429416, 41.72573984909954], [2.168713392389159, 41.72601003357494], [2.168593172212744, 41.72600916376859], [2.1685920110497166, 41.72609922525476], [2.168712231393987, 41.72610009506384], [2.1687075873604065, 41.72646034100508], [2.1689480294076717, 41.72646208026785], [2.168946868721772, 41.726552141755015], [2.1688266475276357, 41.72655127218378], [2.168820843179513, 41.7270015795843], [2.1685803991284933, 41.72699984003718], [2.168582721555058, 41.726819717092255], [2.1683422781966493, 41.726817977053045], [2.168341116650287, 41.72690803852076], [2.1682208948111574, 41.72690716830978], [2.1682232182343126, 41.726727045378354], [2.1678625537558514, 41.726724434007245], [2.1678637159630716, 41.72663437254758], [2.167983937282738, 41.726635243127646]], [[2.1784432122747543, 41.726710502178086], [2.1784455071298567, 41.72653037877583], [2.1785657285767335, 41.72653123828345], [2.178568023075206, 41.72635111487], [2.1788084653131974, 41.726352833497174], [2.178803877638235, 41.7267130803399], [2.1784432122747543, 41.726710502178086]], [[2.178809612218876, 41.726262771782885], [2.1790500541420483, 41.7262644899016], [2.1790489075720885, 41.72635455162129], [2.1788084653131974, 41.726352833497174], [2.178809612218876, 41.726262771782885]], [[2.1790546403696545, 41.725904243008436], [2.1791748606676467, 41.72590510186835], [2.1791737142864362, 41.725995163596515], [2.179414155233801, 41.725996880944486], [2.1794153012792994, 41.72590681921091], [2.179655741911835, 41.725908536050454], [2.1796545962020497, 41.725998597789406], [2.179534375715315, 41.72599773942983], [2.179532083944371, 41.726177862898], [2.1792916423151345, 41.72617614579075], [2.179290496086115, 41.72626620751729], [2.1790500541420483, 41.7262644899016], [2.1790546403696545, 41.725904243008436]], [[2.1783264332757777, 41.72643945744184], [2.1783275808581206, 41.726349395739796], [2.1784478019640496, 41.72635025536778], [2.1784466545495667, 41.726440317072516], [2.1783264332757777, 41.72643945744184]], [[2.167147040960827, 41.72626890063885], [2.167148204148714, 41.7261788391884], [2.167268424597311, 41.726179710509335], [2.16726726157728, 41.72626977196252], [2.167147040960827, 41.72626890063885]], [[2.169916753755419, 41.72592866320411], [2.169915594444083, 41.72601872472178], [2.1697953742148113, 41.726017856173016], [2.1697942147303384, 41.726107917686505], [2.1695537739519315, 41.72610618020623], [2.1695560935870164, 41.72592605718871], [2.169916753755419, 41.72592866320411]], [[2.1752110493258185, 41.7256065081651], [2.1752098974211123, 41.725696569808285], [2.175450337015879, 41.725698295440075], [2.1754491854416327, 41.72578835708725], [2.175689625393092, 41.725790082221415], [2.1756884741493088, 41.725880143872565], [2.1758086943007604, 41.72588100625373], [2.175806392133171, 41.726061129557124], [2.17520528974981, 41.726056816366594], [2.175206441675507, 41.72596675472919], [2.1747255605346982, 41.725963301923954], [2.1747267131265686, 41.72587324029594], [2.1746064930223468, 41.72587237678295], [2.174608798526043, 41.72569225352805], [2.1747290182945567, 41.72569311703561], [2.174730170870675, 41.725603055403276], [2.1752110493258185, 41.7256065081651]], [[2.176047983873932, 41.72597279229662], [2.176049134619394, 41.72588273063879], [2.176169354786576, 41.72588359264267], [2.1761682042089694, 41.725973654303225], [2.176047983873932, 41.72597279229662]], [[2.1676383859159216, 41.725461831974386], [2.1676372234418286, 41.72555189344733], [2.167757442736639, 41.72555276424607], [2.1677562804251007, 41.72564282572031], [2.167636060962439, 41.725641954918835], [2.1676337359877724, 41.725822077857515], [2.1672730766244506, 41.72581946468214], [2.1672754026062306, 41.72563934175988], [2.1670349637285815, 41.72563759902513], [2.1670372903605726, 41.725457476108055], [2.167157509461046, 41.725458347532836], [2.1671586726012424, 41.72536828606939], [2.1675193294309048, 41.725370899580966], [2.1675181667942574, 41.725460961052626], [2.1676383859159216, 41.725461831974386]], [[2.1756942303157794, 41.72542983560241], [2.1758144496279654, 41.725430697970026], [2.175813298573012, 41.72552075962965], [2.1759335180582933, 41.72552162187422], [2.1759323671659487, 41.725611683535114], [2.1760525868243255, 41.725612545656624], [2.176051436094591, 41.725702607318794], [2.175690776631631, 41.72570002056883], [2.1756942303157794, 41.72542983560241]], [[2.175574011008838, 41.72542897310905], [2.1755763137744144, 41.725248849796316], [2.1756965327456554, 41.72524971228426], [2.1756942303157794, 41.72542983560241], [2.175574011008838, 41.72542897310905]], [[2.174252752210608, 41.72532941575627], [2.1742515989788402, 41.725419477382076], [2.1743718182280416, 41.725420341258776], [2.174370665158871, 41.725510402885845], [2.1741302263300195, 41.72550867500128], [2.1741325331345114, 41.72532855175655], [2.174252752210608, 41.72532941575627]], [[2.172689904631417, 41.72531817395086], [2.1728101236444095, 41.725319039459656], [2.1728089683984377, 41.72540910105284], [2.172688749217595, 41.72540823554132], [2.172689904631417, 41.72531817395086]], [[2.172569685623688, 41.725317308316306], [2.1725708412000957, 41.72522724672713], [2.172691060039975, 41.725228112358955], [2.172689904631417, 41.72531817395086], [2.172569685623688, 41.725317308316306]], [[2.181705202333742, 41.72547279993094], [2.1817063451587284, 41.725382738137526], [2.1819467839751074, 41.72538445016591], [2.181945641485826, 41.72547451196472], [2.181705202333742, 41.72547279993094]], [[2.166559905934105, 41.725183804797844], [2.1665610698976407, 41.72509374334378], [2.166681288305518, 41.72509461526061], [2.166680124509829, 41.725184676717426], [2.166559905934105, 41.725183804797844]], [[2.1814681926689308, 41.725200902025726], [2.181588411728402, 41.72520175834893], [2.1815872687459783, 41.72529182014253], [2.1814670495186563, 41.725290963816626], [2.1814681926689308, 41.725200902025726]], [[2.181107535521766, 41.72519833230157], [2.181109822813788, 41.72501820873156], [2.181350260235292, 41.725019921995994], [2.181349116927584, 41.72510998378709], [2.181469335813998, 41.72511084023336], [2.1814681926689308, 41.725200902025726], [2.181107535521766, 41.72519833230157]], [[2.1710091545141665, 41.72512592051437], [2.171010312262064, 41.7250358589577], [2.1711305306977517, 41.72503672621891], [2.1711293731177013, 41.72512678777829], [2.1710091545141665, 41.72512592051437]], [[2.1742562118743898, 41.72505923087023], [2.174255058658383, 41.725149292500355], [2.1740146211828413, 41.72514756438601], [2.1740180818221857, 41.72487737950761], [2.174258518290643, 41.72487910760566], [2.1742596714908893, 41.7247890459712], [2.1745001076446693, 41.72479077356081], [2.1744978019103085, 41.72497089683913], [2.1743775834950996, 41.72497003310177], [2.174376430452194, 41.72506009473606], [2.1742562118743898, 41.72505923087023]], [[2.166802670341238, 41.72500542559069], [2.1668038339584776, 41.724915364128265], [2.1669240520412654, 41.72491623578811], [2.1669228885918717, 41.72500629725329], [2.166802670341238, 41.72500542559069]], [[2.178824521517235, 41.7250919693659], [2.1788268151770738, 41.7249118458955], [2.178947033618252, 41.72491270497724], [2.178944740294109, 41.725092828453036], [2.178824521517235, 41.7250919693659]], [[2.1711316882725282, 41.72494666465808], [2.1711328458420316, 41.724856603095816], [2.1712530639473, 41.72485747022581], [2.171251906545643, 41.7249475317908], [2.1711316882725282, 41.72494666465808]], [[2.1802751608032493, 41.72447183771337], [2.1802740160161926, 41.72456189948888], [2.180514451686264, 41.724563614486925], [2.1805133072296825, 41.724653676266385], [2.180633525240384, 41.72465453357947], [2.1806289480333074, 41.72501478069366], [2.180508729351218, 41.725013923369794], [2.180511018300878, 41.72483379982097], [2.180390799959697, 41.72483294237675], [2.1803930892241943, 41.72465281882755], [2.179912217254395, 41.724649387814665], [2.179913362550202, 41.72455932604868], [2.180033580366982, 41.72456018398784], [2.180034725489727, 41.72447012221771], [2.1802751608032493, 41.72447183771337]], [[2.172815899795325, 41.72486873147212], [2.17281705500972, 41.72477866987028], [2.172937273020891, 41.72477953523701], [2.1729361179743414, 41.72486959684156], [2.172815899795325, 41.72486873147212]], [[2.1749821322031693, 41.7247041655788], [2.1749809800152473, 41.72479422723098], [2.1747405438194574, 41.7247925006474], [2.1747416963430695, 41.724702439000644], [2.1748619142704944, 41.7247033023526], [2.1748630666210116, 41.72461324070169], [2.175464155497643, 41.72461755556157], [2.175461852469809, 41.72479767888909], [2.1753416343482974, 41.72479681616319], [2.175342786032683, 41.72470675450287], [2.1749821322031693, 41.7247041655788]], [[2.1795492717174856, 41.724826936746034], [2.179550417527267, 41.72473687499102], [2.1796706356640825, 41.72473773331283], [2.1796694900221483, 41.72482779507053], [2.1795492717174856, 41.724826936746034]], [[2.1727026138360626, 41.72432749636059], [2.172822831002754, 41.724328361839454], [2.172818210218852, 41.724688608267], [2.172697992380789, 41.72468774277725], [2.1727026138360626, 41.72432749636059]], [[2.172582396674634, 41.72432663075597], [2.1725835521931347, 41.724236569150925], [2.172703769186722, 41.724237434752816], [2.1727026138360626, 41.72432749636059], [2.172582396674634, 41.72432663075597]], [[2.1814773376836496, 41.72448040764649], [2.1814784807870553, 41.72439034584261], [2.181598698335906, 41.72439120214158], [2.181597555400344, 41.724481263948164], [2.1814773376836496, 41.72448040764649]], [[2.1705421808359255, 41.72404171155692], [2.170543339191887, 41.72395164999385], [2.1707837719981184, 41.72395338533108], [2.170782613977834, 41.72404344689959], [2.1705421808359255, 41.72404171155692]], [[2.172585863214344, 41.7240564459365], [2.172587018717053, 41.72396638432711], [2.1724668022322473, 41.72396551860763], [2.172470269212301, 41.723695333779006], [2.172590485193595, 41.72369619949032], [2.1725893297066787, 41.72378626110402], [2.172709545861073, 41.72378712669233], [2.172706079872252, 41.72405731153295], [2.172585863214344, 41.7240564459365]], [[2.171145578758527, 41.72386592581562], [2.1711467362647507, 41.72377586423605], [2.1713871684523762, 41.72377759830487], [2.1713848541060043, 41.72395772147349], [2.1710242048254518, 41.72395512016529], [2.1710253625047864, 41.723865058589865], [2.171145578758527, 41.72386592581562]], [[2.1781284602295283, 41.723105454067166], [2.178125017024394, 41.72337563930851], [2.1780048014730946, 41.723374779392444], [2.178003653559758, 41.723464841133975], [2.1778834378458525, 41.72346398108946], [2.177888030139156, 41.72310373412552], [2.1781284602295283, 41.723105454067166]], [[2.178379216652967, 41.72229661765529], [2.1783815113315055, 41.72211649411708], [2.1786219377714904, 41.722118212993315], [2.1786230847672736, 41.722028151216655], [2.1788635108925125, 41.722029869584524], [2.1788612175670163, 41.72220999314722], [2.1786207907704824, 41.72220827476854], [2.178619643764249, 41.722298336542345], [2.178379216652967, 41.72229661765529]]]}, "properties": {"area_ha": 111.23, "dnbr_threshold_core": 0.35, "dnbr_threshold_grow": 0.22, "dnbr_mean": 0.7216, "dnbr_max": 1.308, "severity": "alta", "severity_method": "dnbr_mean", "forest_mask": "esa_worldcover_2021_10_20", "part": 30, "fire_id": "gencat_082397_2026-07-15", "burn_year": 2026, "source": "sentinel", "aoi_source": "gencat", "dnbr_threshold": 0.35, "buffer_m": 800.0, "post_windows": 2, "post_window_dates": [{"start": "2026-07-22", "end": "2026-08-14"}, {"start": "2026-08-14", "end": "2026-09-13"}], "pre_window": {"start": "2026-05-01", "end": "2026-07-08"}, "fire_date": "2026-07-15"}}]}
