{"type": "FeatureCollection", "features": [{"type": "Feature", "geometry": {"type": "Polygon", "coordinates": [[[0.27364344954988856, 40.96336302854392], [0.27363974379060657, 40.963453009320645], [0.27375844727238074, 40.96345581834211], [0.27387715077092434, 40.963458627241536], [0.2739958542862359, 40.963461436018896], [0.2739921489927608, 40.9635514168205], [0.27398844368251907, 40.96364139762041], [0.27410714753631793, 40.96364420629342], [0.27422585140688427, 40.96364701484436], [0.274344555294217, 40.963649823273265], [0.2744632591983151, 40.963652631580096], [0.27445955451474835, 40.963742612413725], [0.27457825859647295, 40.963745420607346], [0.27469696269496185, 40.96374822867892], [0.2748156668102151, 40.96375103662844], [0.27493437094223017, 40.96375384445589], [0.2749306668853472, 40.96384382532323], [0.27481196259246876, 40.96384101748693], [0.27469325831635427, 40.96383820952857], [0.2745745540570032, 40.963835401448144], [0.27445584981441695, 40.96383259324567], [0.27433714558859534, 40.96382978492114], [0.27421844137954, 40.963826976474536], [0.2740997371872514, 40.96382416790588], [0.27398103301173027, 40.96382135921517], [0.27386232885297623, 40.96381855040241], [0.27374362471099206, 40.963815741467585], [0.2737399190287212, 40.96390572224473], [0.2737362133296813, 40.9639957030202], [0.27361750888274156, 40.96399289394561], [0.2736138030060684, 40.964082874710535], [0.2734950984150353, 40.964080065505044], [0.2734913923607278, 40.964170046259426], [0.2734876862896484, 40.96426002701213], [0.273483980201798, 40.96435000776314], [0.27348027409717574, 40.96443998851248], [0.27347656797578235, 40.96452996926013], [0.2735952733711424, 40.96453277850989], [0.27371397878327436, 40.9645355876376], [0.27383268421217616, 40.96453839664324], [0.2739513896578462, 40.96454120552683], [0.27394768416315257, 40.96463118630821], [0.27394397865168985, 40.96472116708789], [0.273825272884282, 40.9647183581866], [0.27370656713364483, 40.964715549163245], [0.27358786139977676, 40.96471274001784], [0.2734691556826805, 40.96470993075036], [0.27335044998235536, 40.964707121360824], [0.2732317442988028, 40.96470431184923], [0.2732280378053569, 40.964794292574105], [0.2732243312951356, 40.96488427329732], [0.27322062476814246, 40.96497425401883], [0.2732169182243758, 40.96506423473865], [0.2733356245514078, 40.96506704428566], [0.27345433089521365, 40.96506985371062], [0.27357303725579135, 40.965072663013494], [0.27369174363313975, 40.965075472194314], [0.2736880377160875, 40.96516545294787], [0.2736843317822642, 40.96525543369974], [0.2736806258316698, 40.96534541444993], [0.27367691986430515, 40.965435395198426], [0.27367321388016785, 40.96552537594524], [0.2736695078792611, 40.96561535669036], [0.2737882152386252, 40.96561816580224], [0.2739069226147588, 40.96562097479205], [0.27402563000766345, 40.96562378365979], [0.2740293355259433, 40.96553380288812], [0.2741480427747402, 40.96553661162494], [0.27414433741733674, 40.96562659240548], [0.27426304484377795, 40.96562940102909], [0.27438175228698747, 40.96563220953064], [0.2745004597469641, 40.965635017910124], [0.27449675485542324, 40.96572499871552], [0.2744930499471161, 40.965814979519244], [0.2746117577456134, 40.965817787794364], [0.27473046556087666, 40.96582059594741], [0.2748491733929046, 40.9658234039784], [0.274967881241696, 40.96582621188732], [0.275086589107251, 40.96582901967417], [0.2752052969895694, 40.96583182733895], [0.27532400488864905, 40.965834634881666], [0.2754427128044901, 40.965837442302316], [0.275561420737092, 40.9658402496009], [0.27568012868645336, 40.96584305677742], [0.2757988366525739, 40.965845863831866], [0.27580253979121916, 40.96575588293082], [0.2758062429131065, 40.965665902028086], [0.2758099460182348, 40.96557592112367], [0.27581364910660544, 40.96548594021757], [0.27569494178399623, 40.965483133198504], [0.27557623447814455, 40.965480326057374], [0.2754575271890532, 40.965477518794174], [0.27533881991672177, 40.965474711408916], [0.2752201126611511, 40.96547190390159], [0.27510140542234274, 40.965469096272194], [0.2751051094592089, 40.9653791154175], [0.2751088134793127, 40.965289134561104], [0.2752275203963718, 40.9652919421728], [0.27523122423884044, 40.96520196130587], [0.2753499310117866, 40.96520476878665], [0.2753536346766197, 40.965114787909194], [0.27547234130545256, 40.96511759525907], [0.2755910479510461, 40.965120402486875], [0.27570975461339886, 40.965123209592626], [0.2758284612925095, 40.9651260165763], [0.2759471679883773, 40.96512882343792], [0.27606587470100263, 40.965131630177474], [0.2760695773838371, 40.96504164924526], [0.27607328004991677, 40.96495166831136], [0.2760769826992409, 40.96486168737575], [0.2760806853318071, 40.96477170643848], [0.2760843879476193, 40.96468172549953], [0.2760880905466744, 40.964591744558874], [0.2759693847992778, 40.9645889378724], [0.27597308754244615, 40.964498956938925], [0.27597679026885935, 40.964408976003746], [0.27585808485995533, 40.96440616921289], [0.275739379467808, 40.96440336229998], [0.27562067409241825, 40.964400555265016], [0.2756243772846766, 40.96431057435469], [0.2756280804601754, 40.96422059344269], [0.275631783618917, 40.964130612529004], [0.2756354867608995, 40.964040631613635], [0.2757541914928265, 40.964043438613224], [0.275872896241509, 40.96404624549075], [0.27587659904500533, 40.96395626455601], [0.27588030183174533, 40.96386628361956], [0.2759990062754568, 40.96386909035735], [0.2761177107359246, 40.96387189697306], [0.27612141318418165, 40.96378191601725], [0.27624011750054095, 40.96378472250207], [0.27624381977118184, 40.96369474153574], [0.2763625239434322, 40.963697547889645], [0.2763662260364566, 40.96360756691278], [0.27636992811272826, 40.96351758593422], [0.27637363017224753, 40.96342760495398], [0.2763773322150125, 40.96333762397206], [0.2762586286862039, 40.963334817653525], [0.2761399251741496, 40.96333201121293], [0.27602122167884974, 40.963329204650286], [0.27590251820030465, 40.963326397965574], [0.2759062208697513, 40.96323641701734], [0.27590992352244326, 40.96314643606743], [0.27591362615837844, 40.96305645511583], [0.2757949231791621, 40.96305364833561], [0.2756762202167022, 40.96305084143332], [0.27555751727100014, 40.96304803440899], [0.2754388143420561, 40.96304522726259], [0.27543511106269347, 40.96313520817881], [0.2754314077665714, 40.96322518909334], [0.2754277044536913, 40.96331517000619], [0.27554640786520823, 40.96331797717911], [0.27566511129348265, 40.96332078423], [0.27578381473851626, 40.963323591158805], [0.27578011189145385, 40.96341357209651], [0.2757764090276355, 40.963503553032524], [0.27577270614705884, 40.96359353396686], [0.2757690032497266, 40.9636835148995], [0.2756502991612533, 40.96368070793529], [0.27565400221944686, 40.9635907270115], [0.2755352983085928, 40.96358791993409], [0.2754165944144967, 40.96358511273461], [0.27542029777765414, 40.96349513182682], [0.2753015940611777, 40.963492324514135], [0.27530529756843536, 40.9634023436135], [0.2753090010589339, 40.9633123627112], [0.2751902976809345, 40.96330955529415], [0.2750715943196966, 40.963306747755055], [0.2750752981151503, 40.963216766868754], [0.27495659493153085, 40.963213959216446], [0.274960298871082, 40.963123978337315], [0.2749640027938708, 40.963033997456485], [0.27496770669989845, 40.96294401657398], [0.2750864094009482, 40.96294682419973], [0.2750901131293598, 40.962856843306696], [0.2752088156863157, 40.96285965080155], [0.2753275182600316, 40.96286245817436], [0.27533122164997376, 40.962772477261936], [0.2754499240795938, 40.962775284503834], [0.2754536272919234, 40.962685303580884], [0.2754573304874939, 40.96259532265625], [0.2755760326121655, 40.962598129758405], [0.2756947347535955, 40.962600936738504], [0.27569103187972976, 40.96269091768085], [0.2756873289891085, 40.96278089862149], [0.2758060314690024, 40.96278370549723], [0.27592473396565104, 40.96278651225092], [0.27592103137998253, 40.96287649320757], [0.2760397340542421, 40.96287929984805], [0.27615843674525603, 40.96288210636648], [0.27627713945302435, 40.96288491276285], [0.2763958421775462, 40.96288771903717], [0.27639954411979406, 40.96279773804513], [0.2764032460452903, 40.96270775705142], [0.27652194846485506, 40.96271056318599], [0.27664065090117135, 40.96271336919851], [0.2766443524882073, 40.962623388185435], [0.27664805405849247, 40.962533407170646], [0.2766517556120269, 40.96244342615419], [0.27665545714881046, 40.962353445136046], [0.2766591586688433, 40.96226346411621], [0.27654045703678903, 40.96226065814791], [0.2764217554214864, 40.96225785205755], [0.27630305382293613, 40.96225504584514], [0.27629935182035037, 40.962345026838435], [0.27629564980101184, 40.96243500783006], [0.2762919477649197, 40.962524988819986], [0.27628824571207605, 40.96261496980823], [0.27616954348687023, 40.96261216343839], [0.2761732457005681, 40.96252218245899], [0.27605454365296966, 40.962519375975944], [0.27605824601076495, 40.9624293950037], [0.27606194835180703, 40.96233941402978], [0.2759432466426661, 40.96233660744237], [0.27594694912780365, 40.962246626475604], [0.2760656506760932, 40.962249433054176], [0.2761843522411383, 40.96225223951068], [0.27618805438782107, 40.96216225852455], [0.27619175651775185, 40.96207227753671], [0.27631045777784974, 40.962075083853485], [0.2764291590547012, 40.9620778900482], [0.27643286084617963, 40.961987909041014], [0.27643656262090727, 40.96189792803214], [0.27644026437888375, 40.96180794702157], [0.27655896518994255, 40.9618107530677], [0.2766776660177538, 40.9618135589918], [0.27679636686231257, 40.96181636479384], [0.27680006812099683, 40.96172638375507], [0.2769187688214602, 40.96172918942621], [0.2770374695386712, 40.96173199497531], [0.2771561702726294, 40.96173480040235], [0.2771598710320266, 40.96164481933537], [0.2771635717746762, 40.961554838266686], [0.27728227220368995, 40.96155764355401], [0.2774009726494506, 40.96156044871927], [0.2774046730536637, 40.96147046763122], [0.2774083734411312, 40.961380486541515], [0.27741207381185345, 40.9612905054501], [0.27753077379182617, 40.96129331046679], [0.2775344739849602, 40.96120332936485], [0.2776531738208343, 40.961206134250666], [0.2777718736734517, 40.961208939014426], [0.2777755735281572, 40.96111895789313], [0.277779273366119, 40.961028976770145], [0.27778297318733847, 40.96093899564547], [0.27766427381724584, 40.96093619090823], [0.27754557446389605, 40.960933386048936], [0.2774268751272907, 40.96093058106761], [0.27742317482354933, 40.96102056216575], [0.27730447534284774, 40.96101775705353], [0.27718577587889215, 40.96101495181926], [0.27718207523672306, 40.96110493289804], [0.27717837457780675, 40.961194913975135], [0.27705967480891514, 40.96119210860114], [0.2770559739724094, 40.96128208966771], [0.27693727405942187, 40.961279284162835], [0.27681857416318284, 40.96127647853589], [0.2766998742836922, 40.961273672786895], [0.2766961729479097, 40.96136365382526], [0.2765774729243256, 40.961360847945386], [0.2764587729174919, 40.961358041943456], [0.27645507124327295, 40.96144802296245], [0.2763363710923474, 40.961445216829624], [0.27634007292741014, 40.96135523581948], [0.2762213729540792, 40.96135242957346], [0.2762250749332326, 40.96126244857048], [0.27622877689563446, 40.9611724675658], [0.27611007726074077, 40.96116966121542], [0.27599137764260107, 40.96116685474299], [0.27587267804121457, 40.96116404814852], [0.27575397845658156, 40.961161241431995], [0.2757502758508132, 40.961251222401295], [0.2757465732282904, 40.9613412033689], [0.2756278733387297, 40.961338396512645], [0.2756241705386071, 40.961428377469716], [0.27562046772172777, 40.96151835842512], [0.27550176752723776, 40.96151555142911], [0.27549806453275827, 40.96160553237398], [0.275494361521522, 40.96169551331715], [0.2754906584935278, 40.96178549425864], [0.2753719578332591, 40.96178268711406], [0.2752532571897487, 40.96177987984741], [0.2752495538233045, 40.961869860769525], [0.2752458504401016, 40.96195984168995], [0.2752421470401403, 40.9620498226087], [0.2751234459308468, 40.96204701519347], [0.2751197423532774, 40.962136996101684], [0.2751160387589477, 40.96222697700821], [0.2749973373447173, 40.96222416945323], [0.27487863594724693, 40.962221361776194], [0.27475993456653725, 40.96221855397711], [0.2747562304728994, 40.96230853485541], [0.2746375289481026, 40.96230572692543], [0.27451882744006856, 40.9623029188734], [0.27451512300796677, 40.96239289973231], [0.27439642135584724, 40.96239009154938], [0.2743927167461314, 40.96248007239775], [0.2742740149499256, 40.96247726408391], [0.27427031016259285, 40.96256724492175], [0.2742666053584958, 40.96265722575791], [0.2741479032573511, 40.96265441730432], [0.2741441982756356, 40.962744398129935], [0.2740254960304042, 40.962741589545445], [0.27402179087106904, 40.96283157036052], [0.27401808569496555, 40.96292155117392], [0.2740143805020958, 40.963011531985636], [0.27401067529245937, 40.96310151279565], [0.27389197242057683, 40.9630987040537], [0.27377326956546255, 40.96309589518969], [0.2736545667271178, 40.96309308620362], [0.2736508610181438, 40.963183066985415], [0.27364715529240113, 40.963273047765504], [0.27364344954988856, 40.96336302854392]], [[0.2741293781811086, 40.96310432141555], [0.2741256731155604, 40.96319430223274], [0.274006970066055, 40.96319149360399], [0.27401067529245937, 40.96310151279565], [0.2741293781811086, 40.96310432141555]]]}, "properties": {"area_ha": 8.09, "dnbr_threshold": 0.35, "part": 0, "fire_id": "2024430992", "burn_year": 2024, "source": "sentinel", "aoi_source": "official", "buffer_m": 500.0, "fire_date": "2024-05-07"}}, {"type": "Feature", "geometry": {"type": "Polygon", "coordinates": [[[0.27791307969386936, 40.96355405719792], [0.27779437562560605, 40.96355125244844], [0.27767567157408723, 40.963548447576905], [0.27755696753931475, 40.96354564258331], [0.27755326707165756, 40.9636356236503], [0.2775495665872551, 40.96372560471558], [0.2774308622475024, 40.96372279958226], [0.2774271615854911, 40.96381278063701], [0.27742346090673126, 40.96390276169008], [0.27741976021122466, 40.963992742741496], [0.27753846503356844, 40.96399554790134], [0.2775347644821811, 40.964085528959885], [0.2775310639140462, 40.96417551001676], [0.27752736332916483, 40.964265491071934], [0.2776460686508541, 40.96426829613624], [0.27764236821009486, 40.96435827719858], [0.2777610737093966, 40.96436108214967], [0.2777573734127602, 40.96445106321916], [0.2778760790896765, 40.96445386805703], [0.277994784783338, 40.96445667277284], [0.2779910847916933, 40.96454665385832], [0.2779873847833058, 40.96463663494213], [0.27798368475817425, 40.964726616024244], [0.27797998471629826, 40.96481659710467], [0.2780986910701861, 40.96481940173376], [0.2782173974408159, 40.964822206240804], [0.2782136977039412, 40.96491218733722], [0.27820999795032286, 40.96500216843198], [0.27820629817996173, 40.96509214952502], [0.27832500504995655, 40.965094953936514], [0.2784437119366922, 40.96509775822594], [0.2785624188401699, 40.96510056239328], [0.27868112576038767, 40.96510336643859], [0.27868482488725227, 40.965013385310186], [0.27880353166333643, 40.96501618922458], [0.2789222384561595, 40.96501899301691], [0.2789185396510442, 40.96510897416297], [0.27891484082919005, 40.965198955307365], [0.2790335479605028, 40.96520175899529], [0.279152255108552, 40.96520456256117], [0.27914855659171267, 40.96529454372155], [0.27914485805813366, 40.96538452488024], [0.27926356554467463, 40.96538732834171], [0.27938227304795127, 40.96539013168111], [0.27937857481939105, 40.96548011285581], [0.2793748765740951, 40.9655700940288], [0.2793711783120627, 40.965660075200105], [0.2793674800332938, 40.96575005636973], [0.2794861881968226, 40.965752859622405], [0.2796048963770871, 40.965755662753025], [0.27960119840334413, 40.96584564393863], [0.2795975004128647, 40.96593562512257], [0.2797162089316261, 40.965938428148775], [0.2797125110852953, 40.96602840933984], [0.2797088132222297, 40.966118390529225], [0.27982752207949235, 40.96612119345104], [0.279823824360575, 40.966211174647576], [0.27982012662492484, 40.96630115584243], [0.2799388358206891, 40.966303958659836], [0.2800575450331879, 40.96630676135516], [0.2801762542624188, 40.96630956392842], [0.28017995151541425, 40.966219582707076], [0.28018364875167806, 40.966129601484035], [0.2803023576758707, 40.96613240391756], [0.28030605473451914, 40.96604242268402], [0.2803097517764375, 40.965952441448785], [0.2804284603955951, 40.96595524374258], [0.2804321572599005, 40.96586526249682], [0.2805508657349054, 40.96586806465971], [0.2805471690314816, 40.965958045914306], [0.28066587768409856, 40.96596084796396], [0.2807845863534429, 40.965963649891556], [0.2807808899550569, 40.966053631162104], [0.28089959880201293, 40.966056432976465], [0.28101830766569635, 40.96605923466875], [0.2811370165461067, 40.966062036238945], [0.2811333206136445, 40.96615201753432], [0.2812520296716641, 40.966154818991285], [0.2813707387464087, 40.966157620326186], [0.2814894478378779, 40.96616042153901], [0.2816081569460708, 40.96616322262978], [0.2817268660709858, 40.966166023598454], [0.2817231709262238, 40.96625600493628], [0.2817194757647396, 40.966345986272415], [0.2818381852281488, 40.96634878713668], [0.2819568947082797, 40.96635158787888], [0.2820756042051316, 40.96635438849902], [0.2821943137187045, 40.96635718899707], [0.2821980082366444, 40.96626720762563], [0.2822017027378641, 40.966177226252505], [0.2822053972223649, 40.966087244877706], [0.282209091690147, 40.96599726350122], [0.2823278005768974, 40.9660000638419], [0.2823314948670769, 40.96591008245488], [0.2824502036096615, 40.965912882664675], [0.28256891236896386, 40.9659156827524], [0.2825652184005518, 40.96600566415706], [0.2826839273374552, 40.966008464131534], [0.28268023351321053, 40.966098445543324], [0.2825615244154228, 40.966095645560024], [0.28255783041357724, 40.966185626961305], [0.28255413639501387, 40.96627560836091], [0.28255044235973387, 40.96636558975882], [0.2826691519401803, 40.96636838976859], [0.2827878615373417, 40.96637118965629], [0.28290657115121937, 40.96637398942193], [0.28290287758188426, 40.96646397084463], [0.2828991839958342, 40.966553952265656], [0.28301789394820276, 40.96655675192686], [0.2831366039172863, 40.96655955146599], [0.28313291063629953, 40.96664953290297], [0.2831292173385985, 40.96673951433826], [0.2832479276461754, 40.966742313772976], [0.2833666379704661, 40.96674511308559], [0.28336294497783276, 40.966835094536854], [0.28335925196848644, 40.96692507598643], [0.283477962631272, 40.966927875194635], [0.28359667331076827, 40.96693067428076], [0.2835929806064951, 40.967020655746296], [0.283589287885509, 40.96711063721014], [0.2837079989035045, 40.96711343619183], [0.2838267099382091, 40.96711623505145], [0.2839454209896239, 40.967119033789], [0.2840641320577477, 40.96712183240447], [0.28418284314258024, 40.96712463089785], [0.28430155424412096, 40.967127429269176], [0.28442026536236875, 40.96713022751842], [0.2845389764973228, 40.96713302564559], [0.2845352850467806, 40.96722300717831], [0.28453159357953295, 40.96731298870934], [0.28452790209557827, 40.9674029702387], [0.2845242105949189, 40.96749295176638], [0.28452051907755244, 40.96758293329236], [0.2845168275434809, 40.96767291481667], [0.2846355396605207, 40.96767571287466], [0.2846318482706412, 40.96776569440611], [0.2846281568640567, 40.967855675935866], [0.2847468693195997, 40.967858473889414], [0.28474317805721, 40.96794845542631], [0.28486189069035833, 40.9679512532666], [0.28485819957216546, 40.968041234810634], [0.28497691238291956, 40.96804403253766], [0.28497322140892506, 40.96813401408882], [0.28496953041822626, 40.96822399563828], [0.2850882435674888, 40.968226793260875], [0.28520695673345486, 40.96822959076139], [0.2852032660478603, 40.96831957232681], [0.2850845527209904, 40.968316774817495], [0.28508086185778775, 40.96840675637242], [0.28507717097788315, 40.96849673792566], [0.28507348008127514, 40.96858671947722], [0.28506978916796283, 40.96867670102709], [0.2851885031384549, 40.96867949857168], [0.2851848123693478, 40.968769480128685], [0.2853035265174504, 40.968772277560014], [0.2854222406822565, 40.96877507486925], [0.2855409548637629, 40.9687778720564], [0.28565966906197, 40.96878066912147], [0.2857783832768766, 40.968783466064465], [0.2858970975084823, 40.96878626288537], [0.2860158117567863, 40.96878905958419], [0.286134526021789, 40.968791856160934], [0.2862532403034877, 40.9687946526156], [0.2862569296244243, 40.96870467097926], [0.28626061892866494, 40.96861468934124], [0.2862643082162093, 40.96852470770154], [0.2862679974870578, 40.96843472606015], [0.2861492838489869, 40.968431929640744], [0.28615297326404526, 40.96834194800648], [0.28627168674121106, 40.968344744417074], [0.28627537597866726, 40.968254762772325], [0.28639408931162313, 40.968257559052034], [0.28651280266127455, 40.968260355209644], [0.2866315160276215, 40.96826315124519], [0.2866278272728789, 40.968353132916384], [0.28650911374562726, 40.96835033687202], [0.2863904002350712, 40.96834754070559], [0.28638671114182496, 40.968437522357476], [0.286383022031882, 40.968527504007675], [0.28637933290524464, 40.96861748565619], [0.28637564376191144, 40.96870746730302], [0.28649435791609446, 40.968710263504704], [0.28649066891697433, 40.96880024515867], [0.28660938324876034, 40.96880304124707], [0.2866056943938545, 40.96889302290817], [0.2866020055222548, 40.968983004567576], [0.2867207201925544, 40.96898580055152], [0.2868394348795471, 40.96898859641339], [0.2868357463130739, 40.96907857808874], [0.2869544611776712, 40.96908137383732], [0.286950772755417, 40.9691713555198], [0.2870694877976181, 40.9691741511551], [0.2871882028565107, 40.96917694666834], [0.2873069179320941, 40.969179742059495], [0.28742563302436663, 40.96918253732856], [0.2874293208029724, 40.96909255561084], [0.28743300856488935, 40.969002573891444], [0.2874366963101163, 40.968912592170376], [0.2874403840386561, 40.9688226104476], [0.2873216695900261, 40.96881981521378], [0.28732535746278537, 40.96872983349815], [0.2873290453188547, 40.968639851780836], [0.2874477594456667, 40.96864264699703], [0.28756647358916665, 40.96864544209116], [0.28757016110673156, 40.96855546035454], [0.28757384860760765, 40.968465478616245], [0.2875775360917954, 40.968375496876256], [0.287581223559296, 40.96828551513458], [0.2875849110101082, 40.968195533391246], [0.2875885984442332, 40.96810555164621], [0.28759228586167024, 40.9680155698995], [0.2875959732624205, 40.96792558815109], [0.287599660646482, 40.96783560640102], [0.28748094795112517, 40.96783281138617], [0.28736223527245547, 40.96783001624923], [0.287243522610475, 40.96782722099022], [0.2871248099651844, 40.967824425609145], [0.2871284979761631, 40.96773444389261], [0.28700978550846395, 40.96773164839825], [0.28689107305745526, 40.96772885278182], [0.28677236062313727, 40.96772605704331], [0.2867686721294558, 40.9678160387334], [0.2867649836190823, 40.967906020421815], [0.28664627087965533, 40.9679032245436], [0.28664995955093064, 40.967813242864004], [0.2866536482055124, 40.96772326118271], [0.28665733684340144, 40.96763327949974], [0.2866610254645973, 40.9675432978151], [0.28666471406910043, 40.96745331612876], [0.28666840265691085, 40.96736333444073], [0.2866720912280281, 40.96727335275104], [0.2866757797824534, 40.967183371059654], [0.2865570683469083, 40.96718057512985], [0.2864383569280576, 40.96717777907798], [0.28644204578758115, 40.96708779740252], [0.28644573463041, 40.9669978157254], [0.286327023550043, 40.96699501956907], [0.28620831248637035, 40.966992223290674], [0.28608960143939327, 40.966989426890194], [0.28609329074820994, 40.96689944523781], [0.28609698004033113, 40.96680946358374], [0.2859782693318358, 40.96680666707882], [0.2859819587681526, 40.96671668543189], [0.28586324823724585, 40.96671388881371], [0.2857445377230379, 40.96671109207343], [0.2856258272255258, 40.966708295211106], [0.2855071167447137, 40.96670549822668], [0.2855034266648299, 40.966795479838346], [0.2854997365682463, 40.966885461448335], [0.28549604645496235, 40.96697544305665], [0.2854923563249793, 40.96706542466327], [0.2854886661782964, 40.96715540626821], [0.2854849760149135, 40.96724538787146], [0.28560368746108766, 40.967248184908755], [0.2855999974419016, 40.96733816651914], [0.28571870906567115, 40.96734096344318], [0.28571501919068193, 40.9674309450607], [0.2857113292989948, 40.967520926676535], [0.2858300412612576, 40.967523723496136], [0.2859487532402172, 40.967526520193644], [0.2860674652358747, 40.967529316769074], [0.28618617724822926, 40.96753211322243], [0.2861824879834374, 40.967622094871835], [0.286301200173387, 40.96762489121193], [0.2862975110527983, 40.967714872868456], [0.2862938219155153, 40.967804854523315], [0.2862901327615363, 40.96789483617648], [0.2861714200888871, 40.967892039809946], [0.2860527074329341, 40.967889243321345], [0.2859339947936775, 40.96788644671065], [0.28581528217111835, 40.967883649977885], [0.28581897196870004, 40.96779366835997], [0.2857002595237403, 40.96779087151395], [0.28558154709547967, 40.96778807454582], [0.2854628346839182, 40.96778527745563], [0.28546652494750163, 40.967695295862484], [0.2853478127135395, 40.96769249865902], [0.28522910049627886, 40.9676897013335], [0.2852327910649598, 40.96759971975628], [0.28523648161693843, 40.9675097381774], [0.28511776973817665, 40.96750694074742], [0.2851214604343521, 40.96741695917566], [0.28500274873319015, 40.967414161632426], [0.2850064395735588, 40.9673241800678], [0.2850101303972244, 40.967234198501494], [0.2850138212041877, 40.9671442169335], [0.28501751199444797, 40.96705423536382], [0.28502120276800513, 40.96696425379247], [0.28513991366469227, 40.966967051291626], [0.2851436042606548, 40.96687706970977], [0.28526231501315114, 40.96687986707803], [0.2852660054315195, 40.96678988548567], [0.2852696958331867, 40.96669990389164], [0.2852733862181536, 40.966609922295916], [0.28539209650467523, 40.96661271951565], [0.28551080680789753, 40.96661551661334], [0.2855144968543846, 40.9665255349983], [0.28551818688416986, 40.96643555338157], [0.285521876897258, 40.96634557176316], [0.28540316707670277, 40.96634277469195], [0.2854068572339789, 40.96625279308068], [0.2855255668936462, 40.96625559014308], [0.2855292568733349, 40.96616560852132], [0.28553294683632535, 40.96607562689787], [0.28553663678261704, 40.96598564527272], [0.28541792760561047, 40.96598284823675], [0.2854216176960882, 40.965892866618745], [0.2853029086966667, 40.96589006946952], [0.2851841997139451, 40.96588727219824], [0.285065490747925, 40.965884474804874], [0.28494678179860555, 40.96588167728943], [0.2849504725159206, 40.96579169570501], [0.2848317637441882, 40.965788898076326], [0.28483545460568493, 40.965698916499036], [0.28471674601153807, 40.96569611875709], [0.2845980374340943, 40.96569332089308], [0.28447932887335553, 40.965690522906996], [0.28448302020079597, 40.965600541354476], [0.2844867115115317, 40.96551055980027], [0.2843680032892608, 40.96550776170976], [0.2843716947441723, 40.96541778016269], [0.28437538618237873, 40.965327798613934], [0.2842566782985749, 40.96532500041899], [0.2841379704314766, 40.96532220210197], [0.2841416621747348, 40.965232220569185], [0.28414535390128753, 40.965142239034705], [0.28402664637265307, 40.965139440613264], [0.2839079388607265, 40.96513664206976], [0.283789231365507, 40.96513384340418], [0.28379292355798635, 40.96504386189446], [0.2836742162403531, 40.96504106311564], [0.2836779085769986, 40.96495108161308], [0.2835592014369516, 40.96494828272101], [0.2834404943136149, 40.96494548370688], [0.28344418695530305, 40.964855502220274], [0.28344787958028017, 40.96476552073196], [0.28345157218854705, 40.964675539241995], [0.2834552647801037, 40.964585557750326], [0.28333655831697496, 40.964582758649414], [0.28321785187055887, 40.96457995942644], [0.2830991454408538, 40.96457716008139], [0.28298043902786213, 40.96457436061429], [0.28298413224619756, 40.96448437915623], [0.28298782544782075, 40.964394397696495], [0.28299151863272975, 40.964304416235066], [0.2828728127190665, 40.96430161667236], [0.28287650604813214, 40.96421163521807], [0.2827578003120524, 40.96420883554214], [0.28276149378527426, 40.964118854094984], [0.28276518724178196, 40.96402887264615], [0.2826464818441542, 40.96402607286579], [0.2825277764632418, 40.96402327296338], [0.2824090710990448, 40.96402047293891], [0.2822903657515648, 40.96401767279237], [0.2822866716515836, 40.96410765420591], [0.2821679661599513, 40.96410485392848], [0.28204926068503805, 40.964102053529], [0.2820455662466025, 40.9641920349232], [0.28204187179144713, 40.96428201631573], [0.28192316601151385, 40.964279215776514], [0.28191947137876944, 40.964369197158526], [0.28191577672930607, 40.964459178538846], [0.28179707064435167, 40.96445637785993], [0.2818007654546863, 40.964366396488444], [0.2816820595473237, 40.96436359569629], [0.2815633536566821, 40.96436079478207], [0.2814446477827627, 40.9643579937458], [0.2813259419255654, 40.96435519258747], [0.2812072360850919, 40.96435239130706], [0.2810885302613421, 40.9643495899046], [0.2809698244543181, 40.96434678838008], [0.2809735203740203, 40.964256807068686], [0.28085481474459084, 40.96425400543093], [0.2808585108084366, 40.96416402412669], [0.2807398053566022, 40.9641612223757], [0.2806210999214939, 40.964158420502635], [0.2805023945031142, 40.964155618507526], [0.280383689101461, 40.96415281639035], [0.28037999239414096, 40.964242797659274], [0.2802612868483506, 40.964239995411205], [0.2802575899634324, 40.96432997666961], [0.2801388842735013, 40.96432717429065], [0.2801425813192888, 40.96423719304108], [0.2801462783483446, 40.964147211789815], [0.28014997536067027, 40.96405723053688], [0.28015367235626626, 40.963967249282256], [0.2801573693351313, 40.96387726802594], [0.28003866446626713, 40.96387446556908], [0.280042361589267, 40.96378448431991], [0.279923656898001, 40.96378168174982], [0.27992735416513403, 40.96369170050781], [0.2798086496514627, 40.9636888978245], [0.2798123470627281, 40.96359891658962], [0.2796936427266534, 40.96359611379309], [0.2795749384073108, 40.96359331087448], [0.27945623410470183, 40.963590507833814], [0.2794599319818235, 40.96350052662376], [0.2794636298422107, 40.96341054541203], [0.2793449258780601, 40.96340774226699], [0.27934862388257453, 40.9633177610624], [0.2792299200960201, 40.96331495780413], [0.2792336182446598, 40.96322497660669], [0.2792373163765642, 40.96313499540758], [0.2792410144917325, 40.96304501420676], [0.2792447125901671, 40.96295503300428], [0.2792484106718656, 40.9628650518001], [0.2792521087368293, 40.962775070594255], [0.27925580678505807, 40.9626850893867], [0.27925950481655154, 40.962595108177474], [0.27926320283131095, 40.96250512696657], [0.27914450050920636, 40.962502323665746], [0.27902579820383744, 40.96249952024288], [0.27890709591520424, 40.96249671669795], [0.2787883936433091, 40.962493913030976], [0.2787846949851338, 40.96258389420654], [0.2787809963102205, 40.96267387538042], [0.2787772976185683, 40.962763856552634], [0.2787735989101792, 40.962853837723145], [0.2787699001850525, 40.962943818891965], [0.2787662014431873, 40.96303380005912], [0.2786474982228953, 40.96303099621707], [0.2785287950193413, 40.963028192252956], [0.27852509593902136, 40.96311817340076], [0.27840639259134853, 40.963115369305754], [0.278410091832527, 40.96302538816679], [0.27841379105696507, 40.96293540702615], [0.2782950880477478, 40.962932602826776], [0.2781763850552721, 40.962929798505336], [0.2780576820795389, 40.962926994061846], [0.2780539823725288, 40.96301697517597], [0.2780502826487767, 40.963106956288414], [0.2780465829082817, 40.96319693739916], [0.2779278794667173, 40.963194132807104], [0.277924179548621, 40.963284113907335], [0.2779204796137802, 40.96337409500588], [0.277916779662197, 40.96346407610274], [0.2780354835863414, 40.96346688072132], [0.2780317837788755, 40.96355686182533], [0.27791307969386936, 40.96355405719792]], [[0.2794118582739428, 40.96467028222305], [0.27941555635188076, 40.96458030103321], [0.27941925441308535, 40.96449031984169], [0.2795379603243596, 40.964493122970694], [0.2795416582079581, 40.96440314176865], [0.2795453560748229, 40.96431316056492], [0.27954905392495283, 40.964223179359514], [0.2795527517583486, 40.964133198152425], [0.27967145704288227, 40.96413600112401], [0.2796677593703537, 40.96422598233995], [0.27978646483248837, 40.96422878519834], [0.2797827673040958, 40.9643187664214], [0.2796640616810931, 40.96431596355419], [0.2796603639750976, 40.964405944766746], [0.2796566662523688, 40.96449592597762], [0.2796529685129063, 40.964585907186816], [0.27977167461852, 40.96458871008053], [0.27976797702319506, 40.96467869129686], [0.2798866833064133, 40.96468149407734], [0.27988298585522753, 40.964771475300836], [0.27987928838730886, 40.964861456522634], [0.2798755909026593, 40.96495143774275], [0.2798718934012752, 40.9650414189612], [0.27986819588315864, 40.96513140017794], [0.279986902987478, 40.96513420288052], [0.27998320561350537, 40.965224184104414], [0.2801019128954345, 40.96522698669375], [0.2802206201940934, 40.965229789161036], [0.2802169231251423, 40.96531977040091], [0.2803356306014097, 40.96532257275496], [0.28033193367660453, 40.96541255400198], [0.2802132260394599, 40.965409751639115], [0.2802095289370458, 40.96549973287563], [0.2800908211557537, 40.96549693038185], [0.28008712387573026, 40.96558691160784], [0.27996841595028943, 40.965584108983165], [0.2798497080415827, 40.96558130623643], [0.27985340564336414, 40.9654913250281], [0.2797346979122695, 40.96548852216813], [0.2797383956581953, 40.965398540966945], [0.27961968810471244, 40.96539573799373], [0.27962338599478215, 40.9653057567997], [0.2796270838681178, 40.96521577560399], [0.2796307817247189, 40.96512579440659], [0.27963447956458437, 40.965035813207514], [0.2795157726713413, 40.96503301014757], [0.27951947065534827, 40.964943028955624], [0.2794007639397125, 40.964940225782456], [0.2794044620678579, 40.96485024459768], [0.2794081601792676, 40.964760263411215], [0.2794118582739428, 40.96467028222305]], [[0.27848070566946287, 40.96419794704283], [0.27836200039143544, 40.96419514284179], [0.2782432951301493, 40.96419233851868], [0.27823959551047206, 40.96428231962689], [0.2782358958740524, 40.96437230073342], [0.2782321962208907, 40.964462281838266], [0.2781134904937415, 40.96445947736658], [0.2781171903077737, 40.96436949627057], [0.27812089010506147, 40.96427951517288], [0.27812458988560673, 40.96418953407351], [0.27800588465780585, 40.96418672950628], [0.27800958458247443, 40.96409674841406], [0.27812828964940806, 40.96409955297244], [0.27813198939646766, 40.9640095718697], [0.2782506943192788, 40.96401237629719], [0.2782469947330857, 40.96410235740877], [0.27836569983350373, 40.964105161723054], [0.2784844049506647, 40.964107965915254], [0.27848070566946287, 40.96419794704283]], [[0.2782617929774068, 40.96374243295233], [0.2782654924966321, 40.963652451834], [0.27838419679272847, 40.9636552561041], [0.2783878961343505, 40.963565274975245], [0.27839159545923203, 40.96347529384471], [0.2783952947673719, 40.963385312712504], [0.27851399859762316, 40.96338811683401], [0.2785102994503442, 40.963478097975056], [0.2785066002863252, 40.96356807911443], [0.2785029011055657, 40.963658060252115], [0.27849920190806615, 40.96374804138811], [0.27838049743436644, 40.963745237231244], [0.2782617929774068, 40.96374243295233]], [[0.28094395254807847, 40.96497665751262], [0.28094764858486204, 40.964886676213034], [0.28095134460491905, 40.964796694911755], [0.28095504060824994, 40.964706713608784], [0.28107374705876065, 40.96470951516862], [0.2810774428844933, 40.96461953385515], [0.2811961491908565, 40.96462233528409], [0.2813148555139434, 40.96462513659098], [0.2813111600099552, 40.96471511792211], [0.28142986651063917, 40.964717919115756], [0.2814261711508005, 40.964807900454055], [0.28142247577423923, 40.96489788179065], [0.28130376895180803, 40.96489508057933], [0.28130007339764934, 40.96498506190542], [0.28129637782676536, 40.965075043229824], [0.28129268223915804, 40.96516502455255], [0.28128898663482693, 40.96525500587356], [0.2812852910137717, 40.965344987192914], [0.2811665834036832, 40.9653421858154], [0.2811628876050246, 40.96543216712425], [0.2810441798507831, 40.96542936561584], [0.28104787581032015, 40.965339384315826], [0.2810515717531299, 40.965249403014134], [0.2810552676792154, 40.965159421710766], [0.28105896358857524, 40.965069440405706], [0.2810626594812101, 40.964979459098956], [0.28094395254807847, 40.96497665751262]]]}, "properties": {"area_ha": 16.77, "dnbr_threshold": 0.35, "part": 2, "fire_id": "2024430992", "burn_year": 2024, "source": "sentinel", "aoi_source": "official", "buffer_m": 500.0, "fire_date": "2024-05-07"}}, {"type": "Feature", "geometry": {"type": "Polygon", "coordinates": [[[0.2809878625062115, 40.96101467741726], [0.2809841670277274, 40.96110465878045], [0.28098047153252115, 40.96119464014194], [0.2809767760205915, 40.961284621501754], [0.28097308049193775, 40.96137460285989], [0.2810917809739296, 40.961377404215135], [0.2810880855893995, 40.9614673855804], [0.28120678624896017, 40.9614701868224], [0.2812030910085537, 40.96156016819482], [0.28119939575142505, 40.96165014956556], [0.2813180967494027, 40.96165295070318], [0.2814367977641017, 40.96165575171875], [0.2814331028119481, 40.96174573310545], [0.28142940784307396, 40.96183571449047], [0.28154810919619233, 40.961838515401645], [0.28154441437144656, 40.96192849679381], [0.28154071952998105, 40.9620184781843], [0.2816594212215212, 40.96202127899106], [0.2816557265241869, 40.962111260388696], [0.2816520318101328, 40.96220124178462], [0.28164833707935855, 40.9622912231789], [0.28164464233186487, 40.96238120457147], [0.28164094756765107, 40.96247118596235], [0.2816372527867171, 40.96256116735157], [0.281755955460098, 40.96256396808924], [0.2818746581501979, 40.96256676870487], [0.28187096367425607, 40.962656750110035], [0.28186726918159605, 40.96274673151353], [0.28198597221012806, 40.96274953202475], [0.282104675255379, 40.96275233241391], [0.2822233783173466, 40.96275513268102], [0.2823420813960316, 40.96275793282607], [0.2824607844914328, 40.96276073284906], [0.28257948760354895, 40.96276353275], [0.2825757940593172, 40.96285351420476], [0.28257210049837045, 40.96294349565783], [0.2826908039489191, 40.96294629545436], [0.28280950741618005, 40.96294909512883], [0.2828058141602389, 40.96303907659787], [0.28292451780507455, 40.96304187615911], [0.2830432214666224, 40.96304467559829], [0.2831619251448813, 40.96304747491542], [0.28328062883985167, 40.96305027411049], [0.2832843214523538, 40.96296029260616], [0.2832880140481442, 40.96287031110016], [0.2832917066272247, 40.96278032959246], [0.2832953991895954, 40.96269034808308], [0.2832990917352558, 40.96260036657202], [0.283302784264206, 40.962510385059275], [0.28318408153438457, 40.962507585917145], [0.2831877742074807, 40.96241760441154], [0.2830690716552272, 40.96241480515617], [0.28307276447246726, 40.9623248236577], [0.2830764572729967, 40.96223484215755], [0.2829577550591634, 40.962232042797766], [0.28283905286204064, 40.96222924331593], [0.2828427459675658, 40.962139261831744], [0.2828464390563783, 40.96204928034587], [0.2828501321284782, 40.96195929885832], [0.28285382518386587, 40.96186931736908], [0.2829725267375786, 40.96187211681562], [0.2830912283080028, 40.96187491614011], [0.28308753557431793, 40.961964897646986], [0.28308384282392124, 40.962054879152205], [0.28320254473276085, 40.962057678372275], [0.2833212466583095, 40.96206047747031], [0.28343994860056715, 40.96206327644629], [0.2835586505595355, 40.9620660753002], [0.2836773525352105, 40.962068874032084], [0.2836810444813447, 40.96197889248277], [0.28379974631287574, 40.96198169108377], [0.28380343808145075, 40.96189170952396], [0.2838071298333203, 40.96180172796247], [0.28392583135985483, 40.96180452642376], [0.2839295229341671, 40.96171454485178], [0.28404822431655574, 40.96171734318221], [0.28405191571331273, 40.96162736159971], [0.2840556070933647, 40.96153738001553], [0.2840592984567128, 40.96144739842967], [0.2840629898033566, 40.9613574168421], [0.283944289064362, 40.96135461854695], [0.28382558834207283, 40.961351820129735], [0.2838292799937056, 40.961261838558144], [0.28394798055514814, 40.96126463696654], [0.2839516720292284, 40.96117465538444], [0.284070372446529, 40.96117745366196], [0.28407406374305877, 40.961087472069366], [0.2840777550228847, 40.96099749047508], [0.28408144628600673, 40.96090750887912], [0.28408513753242415, 40.960817527281456], [0.2840888287621372, 40.960727545682126], [0.2840925199751476, 40.96063756408111], [0.28397382052290804, 40.96063476585652], [0.2838551210873731, 40.960631967509855], [0.28385881260536133, 40.96054198592479], [0.2837401133473729, 40.96053918746491], [0.2837438050094956, 40.960449205886995], [0.2836251059290529, 40.96044640731388], [0.28350640686531725, 40.960443608618725], [0.28338770781828787, 40.96044080980153], [0.2833913999462238, 40.96035082824837], [0.28339509205745067, 40.96026084669354], [0.2833987841519709, 40.960170865137016], [0.2834024762297817, 40.96008088357883], [0.2832837778428132, 40.96007808467487], [0.28316507947255304, 40.96007528564886], [0.2831687718553293, 40.95998530410661], [0.28317246422139697, 40.959895322562694], [0.28305376618951716, 40.95989252343227], [0.28293506817434716, 40.959889724179824], [0.28293876084537434, 40.95979974265186], [0.28294245349969166, 40.95970976112223], [0.28282375582290054, 40.95970696176536], [0.2827050581628192, 40.95970416228647], [0.28258636051945013, 40.959701362685536], [0.2824676628927936, 40.95969856296255], [0.2823489652828494, 40.95969576311752], [0.2822302676896194, 40.95969296315045], [0.28211157011310317, 40.95969016306135], [0.28199287255330313, 40.9596873628502], [0.2819891786123194, 40.959777344309245], [0.28198548465461915, 40.95986732576662], [0.28186678678986793, 40.95986452541577], [0.28174808894183373, 40.95986172494288], [0.2817443946457487, 40.95995170638093], [0.281740700332945, 40.96004168781728], [0.28162200217995964, 40.9600388872047], [0.2815033040436924, 40.96003608647006], [0.281384605924145, 40.96003328561339], [0.2813809111121167, 40.96012326702158], [0.28137721628336904, 40.96021324842809], [0.28125851785886924, 40.960210447431706], [0.2812548228525635, 40.96030042882771], [0.2812511278295376, 40.960390410222026], [0.2811324291000846, 40.96038760908595], [0.281013730387353, 40.96038480782782], [0.2810100350259304, 40.9604747892028], [0.28100633964778365, 40.960564770576084], [0.28100264425291516, 40.960654751947686], [0.2809989488413237, 40.960744733317604], [0.28099525341300885, 40.960834714685845], [0.2809915579679715, 40.960924696052395], [0.2809878625062115, 40.96101467741726]], [[0.2835734188872364, 40.96170614912816], [0.2834547175716736, 40.96170335030953], [0.2834584097726792, 40.96161336877112], [0.2833397086346749, 40.961610569839245], [0.28334340097982086, 40.961520588308], [0.2834621019569762, 40.96152338723105], [0.28358080295084015, 40.96152618603204], [0.28357711092739224, 40.96161616758094], [0.2835734188872364, 40.96170614912816]], [[0.2835844949575811, 40.96143620448145], [0.2837031958073047, 40.96143900315158], [0.28369950396141164, 40.96152898471099], [0.28358080295084015, 40.96152618603204], [0.2835844949575811, 40.96143620448145]]]}, "properties": {"area_ha": 6.42, "dnbr_threshold": 0.35, "part": 6, "fire_id": "2024430992", "burn_year": 2024, "source": "sentinel", "aoi_source": "official", "buffer_m": 500.0, "fire_date": "2024-05-07"}}, {"type": "Feature", "geometry": {"type": "Polygon", "coordinates": [[[0.2849689258519673, 40.965341787757644], [0.2850876338359927, 40.96534458522018], [0.2850839433630676, 40.96543456682183], [0.28508025287344174, 40.96552454842181], [0.28519896119593025, 40.965527345779904], [0.2853176695351187, 40.96553014301594], [0.28531397935055575, 40.965620124631876], [0.28531028914929213, 40.9657101062461], [0.28542899782694686, 40.96571290337769], [0.28542530776986647, 40.965802884999064], [0.2855440166251039, 40.965805682017404], [0.2855403267122104, 40.96589566364591], [0.2856590357450293, 40.96589846055099], [0.2856553459763219, 40.96598844218662], [0.2856516561909162, 40.96607842382058], [0.2857703655622046, 40.96608122062122], [0.2857666759209877, 40.9661712022623], [0.28588538546986075, 40.96617399894968], [0.2860040950354302, 40.96617679551499], [0.28600040569929047, 40.96626677717202], [0.2859967163464561, 40.96635675882736], [0.28611542625049696, 40.96635955528822], [0.286111737041855, 40.9664495369507], [0.2862304471234821, 40.9664523332983], [0.28622675805903375, 40.9665423149679], [0.2862230689778907, 40.96663229663583], [0.2863417793979928, 40.96663509287899], [0.2864604898347893, 40.96663788900006], [0.2865792002882789, 40.96664068499908], [0.2866979107584616, 40.96664348087601], [0.2866942223041912, 40.96673346257749], [0.28669053383322884, 40.96682344427729], [0.286809244641887, 40.96682624004977], [0.2869279554672375, 40.96682903570018], [0.2870466663092784, 40.96683183122852], [0.2870429783043034, 40.96692181295306], [0.2870392902826389, 40.96701179467592], [0.2871580014631576, 40.96701459009981], [0.2871543135856979, 40.96710457182979], [0.287273024943802, 40.96710736714041], [0.28739173631859455, 40.96711016232894], [0.28738804874623547, 40.96720014407487], [0.28750676029861344, 40.96720293915014], [0.28762547186767706, 40.967205734103345], [0.2876217846004242, 40.96729571586519], [0.2877404963470729, 40.967298510705106], [0.28773680922403116, 40.9673884924741], [0.2878555211482625, 40.967391287200755], [0.28797423308918024, 40.96739408180532], [0.288092945046782, 40.967396876287815], [0.2880966316871308, 40.967306894492424], [0.28810031831079447, 40.96721691269533], [0.28810400491777566, 40.967126930896555], [0.28798529344286483, 40.96712413644048], [0.28798898019405755, 40.967034154648836], [0.28787026889672707, 40.96703136007949], [0.28787395579213054, 40.96694137829496], [0.2877552446723795, 40.96693858361235], [0.2877589317119925, 40.96684860183495], [0.2877626187349183, 40.96675862005586], [0.28788132953288187, 40.966761414720864], [0.28787764267084837, 40.96685139650875], [0.28799635364639026, 40.96685419106048], [0.28811506463861536, 40.966856985490146], [0.2882337756475244, 40.96685977979772], [0.2883524866731151, 40.966862573983235], [0.28847119771538937, 40.96686536804667], [0.28847488377295444, 40.96677538621474], [0.28847856981383785, 40.966685404381145], [0.28848225583804127, 40.96659542254586], [0.2884859418455623, 40.966505440708886], [0.28860465226094567, 40.96650823461503], [0.2886083380908951, 40.96641825276757], [0.2886120239041645, 40.96632827091843], [0.28861570970075356, 40.96623828906761], [0.2886193954806629, 40.966148307215114], [0.2885006857088385, 40.966145513344195], [0.28838197595369536, 40.96614271935121], [0.2883856620387015, 40.96605273751463], [0.28826695246112666, 40.966049943408365], [0.2882706386903383, 40.96595996157892], [0.2881519292903323, 40.965957167359406], [0.2881556156637487, 40.96586718553707], [0.2881593020204819, 40.96577720371305], [0.28816298836053267, 40.965687221887364], [0.28816667468390106, 40.965597240059985], [0.28828538344036514, 40.96560003424428], [0.28828906958616834, 40.965510052406415], [0.28840777819843005, 40.96551284645984], [0.288411464166668, 40.96542286461149], [0.2884151501182256, 40.96533288276146], [0.2884188360531023, 40.96524290090974], [0.28853754419939887, 40.96524569481468], [0.28865625236237585, 40.96524848859754], [0.28865993795881095, 40.96515850672653], [0.28866362353856684, 40.96506852485384], [0.28878233139646065, 40.96507131849703], [0.2889010392710333, 40.96507411201816], [0.2889047245123515, 40.96498413012618], [0.2889084097369929, 40.96489414823251], [0.2890271173064843, 40.96489694161396], [0.2890308023535688, 40.96480695970981], [0.2890344873839785, 40.964716977803974], [0.28915319464839034, 40.96471977104575], [0.2892719019294778, 40.96472256416546], [0.2892755866214574, 40.96463258224034], [0.28927927129676134, 40.964542600313536], [0.2893979782727704, 40.96454539329358], [0.28951668526545354, 40.96454818615155], [0.28963539227480994, 40.96455097888746], [0.2897540993008384, 40.9645537715013], [0.2898728063435401, 40.96455656399308], [0.2898764901977902, 40.96446658202059], [0.28988017403537025, 40.964376600046414], [0.2898838578562794, 40.96428661807055], [0.28988754166051767, 40.96419663609301], [0.2897688352613161, 40.96419384363644], [0.28965012887878583, 40.964191051057796], [0.28953142251292757, 40.96418825835709], [0.28941271616374264, 40.96418546553433], [0.2892940098312313, 40.96418267258949], [0.2891753035153945, 40.9641798795226], [0.2890565972162317, 40.96417708633363], [0.2889378909337458, 40.964174293022616], [0.2888191846679355, 40.96417149958952], [0.2887004784188044, 40.96416870603437], [0.288581772186349, 40.96416591235716], [0.2884630659705748, 40.96416311855787], [0.2883443597714782, 40.964160324636524], [0.2882256535890625, 40.96415753059312], [0.28810694742332715, 40.96415473642765], [0.28798824127427464, 40.964151942140106], [0.2878695351419029, 40.96414914773052], [0.2877508290262152, 40.96414635319884], [0.28763212292721185, 40.96414355854512], [0.28751341684489173, 40.96414076376932], [0.287509729823196, 40.96423074557079], [0.2875060427848155, 40.96432072737055], [0.28750235572974897, 40.964410709168654], [0.2874986686579973, 40.96450069096506], [0.28737996194887017, 40.964497896031986], [0.2872612552564302, 40.964495100976826], [0.2871425485806766, 40.9644923057996], [0.2871388610096156, 40.9645822875679], [0.2871351734218654, 40.96467226933453], [0.2870164664410501, 40.964669474017626], [0.28702015418967514, 40.964579492259816], [0.28702384192161257, 40.96448951050032], [0.2870275296368597, 40.96439952873915], [0.28703121733542, 40.96430954697629], [0.28691251101479004, 40.96430675157257], [0.28691619885753367, 40.96421676981684], [0.28691988668358887, 40.964126788059424], [0.2868011807013918, 40.96412399255126], [0.2866824747358843, 40.96412119692102], [0.2865637687870672, 40.96411840116871], [0.28644506285494165, 40.96411560529436], [0.28644137438540096, 40.96420558701653], [0.28643768589916874, 40.964295568737015], [0.28631897966199177, 40.96429277272298], [0.28620027344150756, 40.964289976586855], [0.2860815672377161, 40.96428718032869], [0.2859628610506206, 40.96428438394844], [0.2858441548802186, 40.964281587446145], [0.2858404655729313, 40.964371569120885], [0.2857217592583532, 40.96436877248771], [0.28571806977349756, 40.964458754151956], [0.28571438027194557, 40.964548735814525], [0.2857106907536977, 40.964638717475395], [0.285829397550898, 40.96464151413502], [0.285825708176827, 40.96473149580303], [0.2859444151515981, 40.9647342923494], [0.2859407259217076, 40.96482427402453], [0.28605943307404985, 40.96482707045765], [0.28617814024308635, 40.9648298667687], [0.28617445131825486, 40.96491984845979], [0.286170762376729, 40.965009830149185], [0.28628946988421394, 40.965012626355794], [0.2862857810868726, 40.96510260805233], [0.28628209227283724, 40.965192589747176], [0.28640080011877334, 40.96519538584934], [0.2865195079814018, 40.965198181829436], [0.28651581947243376, 40.965288163540215], [0.286512130946773, 40.96537814524931], [0.2866308391478546, 40.96538094112496], [0.28674954736562897, 40.96538373687855], [0.28674585914503903, 40.96547371860359], [0.28686456754038536, 40.96547651424392], [0.2869832759524216, 40.96547930976218], [0.28697958803690454, 40.96556929150316], [0.2869759001046991, 40.96565927324245], [0.2869722121558049, 40.96574925498007], [0.28709092106717987, 40.965752050402685], [0.28720962999524485, 40.96575484570323], [0.28720594235142904, 40.965844827456785], [0.2872022546909261, 40.96593480920865], [0.2871985670137339, 40.96602479095883], [0.287194879319853, 40.96611477270734], [0.2871911916092837, 40.96620475445416], [0.28718750388202563, 40.96629473619929], [0.28730621379210036, 40.96629753143062], [0.28730252620904273, 40.96638751318288], [0.2874212362966938, 40.96639030830095], [0.2874175488578385, 40.96648029006034], [0.2875362591230667, 40.966483085065136], [0.28765496940498286, 40.96648587994787], [0.2876512822712219, 40.96657586172319], [0.2876475951207741, 40.966665843496834], [0.28764390795364114, 40.966755825268784], [0.28752519718904995, 40.966753030359634], [0.28740648644114636, 40.96675023532841], [0.28741017393006396, 40.96666025357408], [0.28729146335974026, 40.96665745842959], [0.28729515099286307, 40.96656747668236], [0.2871764406001185, 40.96656468142461], [0.2871801283774432, 40.96647469968452], [0.28706141816227937, 40.966471904313494], [0.28706510608380487, 40.96638192258054], [0.28694639604622013, 40.966379127096246], [0.28695008411194567, 40.96628914537042], [0.28695377216098045, 40.966199163642905], [0.28683506246186313, 40.96619636805417], [0.2868387506550959, 40.96610638633378], [0.2867200411335569, 40.96610359063178], [0.2866013316287099, 40.96610079480771], [0.2864826221405552, 40.966097998861564], [0.2864863107997567, 40.96600801716592], [0.2864899994422651, 40.965918035468604], [0.28649368806808195, 40.9658280537696], [0.28649737667720526, 40.96573807206891], [0.28637866784928523, 40.96573527603594], [0.28638235660259936, 40.96564529434238], [0.28638604533921996, 40.96555531264713], [0.28626733684975986, 40.96555251650973], [0.28627102573056973, 40.965462534821604], [0.28627471459468606, 40.965372553131814], [0.28615600644368305, 40.96536975688996], [0.28615969545198544, 40.965279775207286], [0.2861633844435943, 40.965189793522946], [0.28604467663104566, 40.965186997176644], [0.28592596883519256, 40.96518420070828], [0.285807261056035, 40.96518140411784], [0.28581095051358596, 40.965091422458244], [0.28569224291200396, 40.96508862575455], [0.28557353532711904, 40.9650858289288], [0.28557722508972894, 40.96499584728515], [0.28545851768241876, 40.96499305034614], [0.28533981029180766, 40.964990253285066], [0.28534350035947453, 40.96490027165736], [0.2852247931464398, 40.964897474483045], [0.28522848335828394, 40.96480749286246], [0.28510977632282514, 40.96480469557489], [0.2849910693040666, 40.96480189816525], [0.2848723623020096, 40.96479910063354], [0.2847536553166541, 40.96479630297977], [0.28463494834800124, 40.964793505203936], [0.2846312573317773, 40.96488348678042], [0.2846275662988503, 40.96497346835523], [0.2846238752492194, 40.965063449928344], [0.2847425827005011, 40.96506624773063], [0.2847388917950432, 40.96515622931091], [0.28485759942390765, 40.965159026999935], [0.28485390866262583, 40.965249008587335], [0.28497261646907057, 40.96525180616311], [0.2849689258519673, 40.965341787757644]]]}, "properties": {"area_ha": 7.05, "dnbr_threshold": 0.35, "part": 7, "fire_id": "2024430992", "burn_year": 2024, "source": "sentinel", "aoi_source": "official", "buffer_m": 500.0, "fire_date": "2024-05-07"}}]}
