{"type": "FeatureCollection", "features": [{"type": "Feature", "geometry": {"type": "Polygon", "coordinates": [[[1.293532520430061, 41.8406351327107], [1.2935301278042626, 41.84072516186775], [1.293409733983145, 41.84072337262181], [1.2932893401729333, 41.84072158324974], [1.29316894637363, 41.84071979375154], [1.2930485525852347, 41.840718004127204], [1.2930461592741136, 41.84080803326026], [1.2929257653280242, 41.840806243504176], [1.2928053713928445, 41.840804453621956], [1.292802977733605, 41.84089448274224], [1.2926825836407319, 41.84089269272827], [1.2925621895587707, 41.84089090258817], [1.2924417954877212, 41.84088911232194], [1.2924394013117546, 41.84097914142382], [1.2923190070830135, 41.84097735102584], [1.2923166127275285, 41.84106738012057], [1.292437007124875, 41.84106917052418], [1.2924346129270825, 41.84115919962301], [1.2925550075039494, 41.84116098990612], [1.2925526134638508, 41.841251019009036], [1.2926730082202378, 41.84125280917162], [1.292793402987537, 41.84125459920807], [1.292913797765747, 41.84125638911839], [1.2930341925548672, 41.84125817890259], [1.2930365859205357, 41.84116814977718], [1.2931569805519583, 41.84116993942961], [1.2932773751942896, 41.84117172895592], [1.2933977698475285, 41.8411735183561], [1.2935181645116756, 41.84117530763013], [1.2935157718204389, 41.84126533677803], [1.2936361666640996, 41.84126712593156], [1.293756561518667, 41.84126891495895], [1.2938769563841386, 41.84127070386021], [1.2939973512605145, 41.84127249263533], [1.2939997432773187, 41.841182463464975], [1.29400213528322, 41.84109243429307], [1.2941225298332835, 41.84109422293084], [1.2942429243942504, 41.84109601144247], [1.2943633189661188, 41.841097799827956], [1.2944837135488882, 41.841099588087324], [1.2944861048694585, 41.841009558891436], [1.294606499294521, 41.84101134701905], [1.2946088904355852, 41.840921317816], [1.294729284702941, 41.84092310581188], [1.294849678981196, 41.84092489368161], [1.2949700732703482, 41.84092668142522], [1.295090467570398, 41.840928469042694], [1.2952108618813438, 41.84093025653403], [1.2953312562031858, 41.84093204389924], [1.2954516505359222, 41.840933831138315], [1.2955720448795527, 41.840935618251265], [1.2956924392340763, 41.84093740523808], [1.2958128335994925, 41.840939192098766], [1.2958104441444935, 41.84102922135794], [1.2959308386894086, 41.84103100809811], [1.2960512332452143, 41.841032794712135], [1.2961716278119106, 41.841034581200034], [1.2961740167610887, 41.84094455192402], [1.2962944111700676, 41.84094633828017], [1.2964148055899347, 41.8409481245102], [1.2965352000206898, 41.84094991061409], [1.2965328115773327, 41.841039939906935], [1.2966532061875822, 41.84104172589031], [1.2966508179019458, 41.84113175518723], [1.2967712126916895, 41.84113354105008], [1.2968916074923194, 41.84113532678678], [1.2970120023038338, 41.841137112397355], [1.297132397126233, 41.841138897881805], [1.2972527919595145, 41.841140683240134], [1.2973731868036793, 41.841142468472306], [1.2973755740776673, 41.84105243914173], [1.2974959687641052, 41.84105422424217], [1.297616363461425, 41.84105600921648], [1.2977367581696242, 41.84105779406466], [1.2977391449269078, 41.84096776471573], [1.297859539477379, 41.840969549432174], [1.297979934038729, 41.84097133402248], [1.2981003286109571, 41.84097311848666], [1.298220723194063, 41.84097490282469], [1.298223109266038, 41.84088487345183], [1.2982254953271373, 41.840794844077436], [1.298345889583905, 41.840796628278135], [1.2984662838515484, 41.84079841235269], [1.2984686695645598, 41.84070838296557], [1.2984710552666963, 41.84061835357692], [1.2985914492080042, 41.84062013751415], [1.2987118431601854, 41.84062192132525], [1.2988322371232401, 41.84062370501022], [1.2989526310971666, 41.84062548856906], [1.299073025081965, 41.84062727200176], [1.299193419077634, 41.84062905530834], [1.299313813084173, 41.840630838488785], [1.2994342071015814, 41.840632621543094], [1.299554601129858, 41.84063440447128], [1.2995569853036804, 41.840544375030674], [1.2995593694666345, 41.84045434558855], [1.29967976316857, 41.8404561283794], [1.2998001568813726, 41.840457911044126], [1.299920550605042, 41.84045969358271], [1.299922934251319, 41.840369664122264], [1.300043327817249, 41.84037144652913], [1.3000457112840582, 41.840281417061554], [1.3001661046922506, 41.84028319933669], [1.300286498111306, 41.8402849814857], [1.3004068915412252, 41.840286763508566], [1.3004092744913642, 41.840196734022676], [1.3005296677635432, 41.840198515913826], [1.3005320505342186, 41.84010848642081], [1.3005344332940327, 41.84001845692625], [1.3005368160429853, 41.83992842743019], [1.3006572088202233, 41.839930209178426], [1.3007776016083226, 41.83993199080051], [1.300779984009216, 41.83984196129174], [1.3009003766395757, 41.83984374278211], [1.3010207692807934, 41.839845524146355], [1.3010231513336306, 41.83975549462485], [1.301143543817108, 41.839757275857366], [1.3012639363114422, 41.83975905696377], [1.3012663180162258, 41.83966902742956], [1.3012686997101532, 41.8395789978938], [1.3013890918781492, 41.83958077886289], [1.3015094840570007, 41.839582559705846], [1.3015118654028788, 41.83949253015737], [1.3016322574239891, 41.83949431086861], [1.3016346385904165, 41.83940428131303], [1.3017550304537846, 41.839406061892554], [1.3018754223280058, 41.83940784234594], [1.3019958142130792, 41.8394096226732], [1.3019981948628676, 41.83931959309932], [1.3020005755018054, 41.8392295635239], [1.3021209670605407, 41.83923134371386], [1.3022413586301271, 41.83923312377769], [1.302243738921026, 41.839143094189566], [1.3022461192010746, 41.83905306459992], [1.302366510444324, 41.83905484452644], [1.302486901698422, 41.83905662432685], [1.3024892816304368, 41.83896659472449], [1.3024916615516033, 41.83887656512059], [1.3026120524793658, 41.83887834478369], [1.3027324434179763, 41.83888012432066], [1.3027348229911127, 41.83879009470408], [1.3028552137719784, 41.83879187410933], [1.302857593165679, 41.83870184448563], [1.3029779837887998, 41.838703623759166], [1.3029803630030654, 41.83861359412835], [1.3029827422064852, 41.838523564496], [1.3029851213990602, 41.83843353486214], [1.30310551152726, 41.83843531399279], [1.3031078905404034, 41.838345284351796], [1.3032282805108604, 41.838347063350746], [1.303230659344573, 41.83825703370265], [1.3032330381674428, 41.83816700405301], [1.3033534278115708, 41.83816878291467], [1.3034738174665412, 41.8381705616502], [1.303476195941398, 41.83808053198787], [1.303478574405413, 41.83799050232402], [1.3035989637340557, 41.83799228092225], [1.3037193530735385, 41.83799405939436], [1.3037217311895448, 41.83790402971782], [1.303724109294712, 41.83781400003973], [1.3037264873890386, 41.83772397036012], [1.3037288654725256, 41.83763394067899], [1.3038492541485187, 41.83763571900264], [1.3039696428353504, 41.83763749720017], [1.3040900315330206, 41.837639275271584], [1.3042104202415277, 41.83764105321688], [1.3042127976398528, 41.83755102351188], [1.3042151750273407, 41.83746099380536], [1.3042175524039925, 41.8373709640973], [1.3042199297698078, 41.83728093438772], [1.3042223071247867, 41.83719090467662], [1.3042246844689291, 41.837100874963994], [1.3042270618022358, 41.83701084524983], [1.304229439124706, 41.83692081553414], [1.3042318164363398, 41.83683078581693], [1.304234193737138, 41.836740756098195], [1.3042365710271002, 41.836650726377925], [1.304238948306226, 41.83656069665614], [1.3042413255745156, 41.83647066693283], [1.3042437028319704, 41.83638063720797], [1.3042460800785884, 41.8362906074816], [1.3042484573143711, 41.83620057775371], [1.3042508345393182, 41.83611054802428], [1.3042532117534296, 41.83602051829333], [1.3042555889567053, 41.835930488560855], [1.3042579661491456, 41.835840458826844], [1.3042603433307505, 41.83575042909132], [1.3042627205015196, 41.83566039935428], [1.3043831055122628, 41.83566217705061], [1.3043854825036332, 41.83557214730644], [1.3043878594841687, 41.83548211756074], [1.3043902364538698, 41.835392087813524], [1.3043926134127362, 41.835302058064784], [1.304272229076245, 41.83530028039079], [1.304274606192838, 41.83521025064609], [1.3042769832985963, 41.83512022089989], [1.3041565993100603, 41.83511844311094], [1.3040362153323604, 41.8351166651959], [1.303915831365497, 41.835114887154745], [1.3037954474094704, 41.835113108987485], [1.303675063464282, 41.83511133069411], [1.3035546795299329, 41.83510955227463], [1.303552301412815, 41.83519958198733], [1.3035499232848577, 41.83528961169851], [1.3035475451460605, 41.83537964140816], [1.303667929586092, 41.835381419844396], [1.303665551605017, 41.835471449558106], [1.303663173613103, 41.8355614792703], [1.3035427888359472, 41.83555970082289], [1.3035404106646309, 41.83564973052796], [1.3034200257297508, 41.83564795194885], [1.3034176473790304, 41.835737981646815], [1.303415269017469, 41.835828011343246], [1.3032948837563005, 41.83582623262686], [1.3032925052153326, 41.835916262316175], [1.3032901266635224, 41.83600629200397], [1.3032877481008711, 41.836096321690235], [1.3032853695273774, 41.83618635137497], [1.3031649836027839, 41.83618457251013], [1.3031626048498801, 41.83627460218775], [1.3031602260861332, 41.83636463186385], [1.303039839835244, 41.83636285286171], [1.3030374608920836, 41.83645288253071], [1.3029170744834673, 41.83645110339688], [1.3029146953608934, 41.83654113305874], [1.3027943087945506, 41.83653935379319], [1.302791929492561, 41.83662938344795], [1.3027895501797253, 41.836719413101186], [1.302669163287083, 41.83671763369835], [1.3026667837948294, 41.83680766334446], [1.3026644042917297, 41.836897692989055], [1.3026620247777834, 41.83698772263211], [1.3025416373902656, 41.8369859430864], [1.3025392576968984, 41.83707597272234], [1.3025368779926842, 41.837166002356746], [1.3025344982776226, 41.83725603198964], [1.3024141103952236, 41.83725425230105], [1.3024117305007372, 41.837344281926825], [1.3022913424606082, 41.83734250210652], [1.3022889623866958, 41.83743253172517], [1.3022865823019347, 41.837522561342304], [1.3021661939354972, 41.8375207813847], [1.3021638136713072, 41.837610810994704], [1.3020434251471389, 41.8376090309054], [1.3020410447035184, 41.837699060508285], [1.3020386642490482, 41.83778909010966], [1.301918275398569, 41.83778730988304], [1.3017978865589415, 41.8377855295303], [1.3017955057564559, 41.83787555911898], [1.301675116759098, 41.837873778634524], [1.3016727357771778, 41.83796380821607], [1.3015523466220904, 41.8379620275999], [1.301549965460734, 41.83805205717432], [1.3014295761479169, 41.83805027642645], [1.3013091868459548, 41.83804849555245], [1.3013068053365762, 41.83813852511417], [1.3013044238163423, 41.838228554674345], [1.3011840341880663, 41.838226773663045], [1.301063644570647, 41.83822499252563], [1.3010612627023865, 41.83831502207308], [1.3009408729272376, 41.838313240803956], [1.3009384908795343, 41.8384032703443], [1.3008181009466582, 41.838401488943454], [1.3008157187195097, 41.83849151847667], [1.3008133364815029, 41.83858154800836], [1.3006929462223105, 41.83857976647019], [1.3006905638048565, 41.83866979599476], [1.3008109542326376, 41.83867157753853], [1.3008085719729134, 41.83876160706716], [1.300688181376543, 41.83875982551781], [1.300567790791033, 41.83875804384233], [1.3005654081832698, 41.83884807335824], [1.30044501744003, 41.83884629155106], [1.3004426346528162, 41.838936321059855], [1.3003222437518465, 41.838934539120935], [1.3003198607851802, 41.8390245686226], [1.300199469726482, 41.83902278655196], [1.3001970865803616, 41.8391128160465], [1.3000766953639347, 41.83911103384414], [1.2999563041583706, 41.83910925151566], [1.2999539206642023, 41.839199280997484], [1.2998335293009093, 41.83919749853728], [1.2998311456272829, 41.83928752801197], [1.2997107541062631, 41.83928574542005], [1.2997083702531773, 41.83937577488762], [1.2995879785744293, 41.83937399216396], [1.2995855945418824, 41.8394640216244], [1.299465202705407, 41.83946223876902], [1.2994628184933974, 41.83955226822234], [1.2994604342705205, 41.83964229767414], [1.299340042107721, 41.83964051468143], [1.2992196499557898, 41.8396387315626], [1.2990992578147282, 41.83963694831763], [1.2989788656845371, 41.839635164946536], [1.2988584735652169, 41.83963338144933], [1.2988608586310737, 41.83954335202554], [1.2987404666912215, 41.83954156840779], [1.298738081456768, 41.83963159782597], [1.2986176893591912, 41.83962981407651], [1.298615303945269, 41.839719843487565], [1.2984949116899696, 41.83971805960636], [1.2983745194455434, 41.83971627559904], [1.2982541272119934, 41.839714491465585], [1.2981337349893178, 41.839712707206004], [1.298131348890133, 41.839802736593114], [1.2980109565097366, 41.839800952201806], [1.297890564140218, 41.83979916768436], [1.2978881776929614, 41.83988919705875], [1.297767785165723, 41.839887412409574], [1.2976473926493632, 41.839885627634274], [1.2975270001438828, 41.83988384273284], [1.2974066076492825, 41.83988205770529], [1.2972862151655637, 41.8398802725516], [1.2971658226927272, 41.8398784872718], [1.297163435223002, 41.83996851661102], [1.297043042592449, 41.83996673119946], [1.2970406549432425, 41.840056760531546], [1.2969202621549738, 41.84005497498828], [1.2967998693775902, 41.84005318931887], [1.2966794766110916, 41.840051403523326], [1.2965590838554788, 41.840049617601665], [1.2964386911107522, 41.840047831553875], [1.2963182983769133, 41.84004604537996], [1.2961979056539616, 41.8400442590799], [1.2960775129419, 41.84004247265372], [1.2959571202407272, 41.84004068610142], [1.2959547310632424, 41.84013071538148], [1.295834338204361, 41.84012892869744], [1.295713945356371, 41.84012714188726], [1.2957115558307961, 41.84021717115458], [1.2955911628250985, 41.840215384212655], [1.2954707698302932, 41.84021359714462], [1.295350376846382, 41.84021180995044], [1.2952299838733647, 41.840210022630146], [1.295227593662495, 41.840300051873484], [1.2951072005317734, 41.84029826442144], [1.2949868074119473, 41.84029647684326], [1.2948664143030177, 41.840294689138965], [1.2947460212049853, 41.840292901308544], [1.2947436303088171, 41.84038293052788], [1.2946232370530824, 41.84038114256571], [1.294620845977414, 41.84047117177791], [1.2946184548908466, 41.840561200988596], [1.2944980613088075, 41.84055941288906], [1.2943776677376677, 41.8405576246634], [1.294375276302995, 41.8406476538613], [1.2943728848574216, 41.84073768305769], [1.294252490959976, 41.84073589469467], [1.2942548825741529, 41.8406458655039], [1.2941344888562123, 41.84064407702036], [1.2940140951491748, 41.840642288410685], [1.29389370145304, 41.840640499674876], [1.2937733077678086, 41.840638710812954], [1.2936529140934825, 41.84063692182489], [1.293532520430061, 41.8406351327107]]]}, "properties": {"area_ha": 12.94, "dnbr_threshold_core": 0.35, "dnbr_threshold_grow": 0.22, "forest_mask": "esa_worldcover_2021_10_20", "part": 22, "fire_id": "558907_22", "burn_year": 2026, "source": "sentinel", "aoi_source": "effis", "dnbr_threshold": 0.35, "buffer_m": 1200.0, "post_windows": 2, "post_window_dates": [{"start": "2026-07-14", "end": "2026-08-06"}, {"start": "2026-08-06", "end": "2026-09-05"}], "pre_window": {"start": "2026-04-23", "end": "2026-06-30"}, "fire_date": "2026-07-07", "severity": "moderada", "severity_method": "threshold_proxy", "aoi_id": "558907", "seed_id": "558907"}}]}
