{"type": "FeatureCollection", "features": [{"type": "Feature", "geometry": {"type": "Polygon", "coordinates": [[[2.8392167941975357, 41.97929610682823], [2.8392165676332053, 41.979386173475554], [2.839216341067841, 41.97947624012146], [2.839216114501442, 41.979566306765925], [2.8393368226654476, 41.97956647575584], [2.839336596268108, 41.97965654239943], [2.8393363698697343, 41.979746609041605], [2.8394570783749606, 41.97974677790566], [2.839456852145648, 41.979836844546945], [2.839456625915303, 41.9799269111868], [2.839577334761753, 41.979927079925], [2.8396980436092347, 41.979927248536285], [2.839697817718049, 41.98001731517579], [2.8398185267366585, 41.98001748366069], [2.8399392357562987, 41.98001765201866], [2.8399390102042763, 41.980107718657806], [2.8400597193950428, 41.98010788688939], [2.8401804285868386, 41.98010805499406], [2.8401802033739827, 41.98019812163284], [2.8403009127369048, 41.98019828961112], [2.840301137779663, 41.980108222971815], [2.840421846973514, 41.98010839082264], [2.840422071845148, 41.980018324181394], [2.840422296715755, 41.979928257538724], [2.8403015878620974, 41.97992808968894], [2.8403018129017727, 41.97983802304537], [2.840302037940422, 41.97974795640039], [2.840422746453889, 41.97974812424913], [2.840422971321416, 41.97965805760219], [2.8404231961879165, 41.97956799095384], [2.8405439043622236, 41.979568158674596], [2.8406646125375556, 41.97956832626843], [2.8406643880112417, 41.97965839291784], [2.8407850963576924, 41.97965856038528], [2.8407848720004476, 41.97974862703381], [2.8409055805180166, 41.979748794374856], [2.841026289036609, 41.979748961589], [2.8411469975562245, 41.979749128676225], [2.841267706076862, 41.97974929563654], [2.84138841459852, 41.97974946246994], [2.841509123121199, 41.97974962917641], [2.841509346457879, 41.97965956252475], [2.84150956979354, 41.97956949587167], [2.841630277977051, 41.97956966245019], [2.8417509861615806, 41.97956982890179], [2.841871694347129, 41.97956999522647], [2.841871471521748, 41.97966006188111], [2.8419921798784067, 41.97966022807941], [2.8419924025336942, 41.97957016142424], [2.8421131107212756, 41.9795703274951], [2.8421128882360813, 41.97966039415078], [2.842112665749872, 41.97975046080505], [2.842112443262647, 41.979840527457895], [2.8421122207744056, 41.97993059410932], [2.8422329296433806, 41.97993076005534], [2.8422331519615263, 41.9798406934034], [2.8422333742786567, 41.97975062675003], [2.8422335965947725, 41.979660560095226], [2.8422338189098726, 41.97957049343903], [2.842354527099485, 41.97957065925605], [2.842354749243478, 41.9794805925979], [2.842234041223959, 41.9794804267814], [2.842113333205454, 41.97948026083799], [2.8421135556886163, 41.97939019417946], [2.8421137781707633, 41.979300127519515], [2.842114000651894, 41.97921006085816], [2.841993293144678, 41.9792098947894], [2.841872585638479, 41.979209728593716], [2.841872808458773, 41.97911966193197], [2.84175210112368, 41.97911949560989], [2.841631393789606, 41.97911932916091], [2.8416316169490603, 41.979029262498806], [2.841631840107496, 41.978939195835274], [2.8415111331146163, 41.978939029260424], [2.8415113564421204, 41.978848962596], [2.8413906496203483, 41.978848795894756], [2.8413908731169184, 41.97875872922943], [2.8413910966124694, 41.97866866256269], [2.8413913201069994, 41.978578595894525], [2.8413915436005093, 41.97848852922495], [2.8413917670929987, 41.978398462553955], [2.841391990584468, 41.97830839588154], [2.841392214074917, 41.97821832920769], [2.8415129197061018, 41.978218495905274], [2.8416336253383054, 41.978218662475946], [2.841633848487572, 41.978128595799646], [2.841513143025449, 41.97812842922949], [2.8413924375643456, 41.978128262532444], [2.841392661052754, 41.978038195855774], [2.841392884540142, 41.977948129177676], [2.8413931080265096, 41.97785806249817], [2.841393331511857, 41.97776799581724], [2.84127262673209, 41.97776782899538], [2.8411519219533434, 41.97776766204659], [2.841031217175619, 41.977767494970905], [2.840910512398917, 41.977767327768326], [2.840789807623238, 41.97776716043883], [2.840789583287502, 41.97785722711712], [2.8406688783427696, 41.97785705966019], [2.8406686538359307, 41.97794712633656], [2.8405479487221448, 41.97794695875219], [2.840427243609385, 41.97794679104092], [2.8403065384976514, 41.97794662320273], [2.840185833386945, 41.97794645523764], [2.8401856081987638, 41.978036521910475], [2.8401853830095543, 41.97812658858189], [2.8400646775597167, 41.978126420488834], [2.8399439721109077, 41.978126252268865], [2.8399437465805084, 41.97821631893781], [2.83994352104908, 41.97830638560534], [2.8399432955166217, 41.97839645227145], [2.839943069983134, 41.97848651893614], [2.839942844448616, 41.9785765855994], [2.839942618913069, 41.97866665226124], [2.8398219124447928, 41.978666483911184], [2.8398216867381305, 41.9787565505711], [2.8397009801007993, 41.97875638209361], [2.83970075422302, 41.97884644875157], [2.8395800474166344, 41.978846280146634], [2.839579821367737, 41.978936346802634], [2.839579595317807, 41.97902641345721], [2.839458888172279, 41.97902624472431], [2.839458661951229, 41.979116311376956], [2.8394584357291457, 41.979206378028174], [2.839337728244472, 41.979206209167295], [2.839337501851266, 41.97929627581655], [2.8392167941975357, 41.97929610682823]], [[2.8394573046032403, 41.97965671126295], [2.839457530830487, 41.97956664461883], [2.839578238996559, 41.979566813354914], [2.8395784650526803, 41.97947674670885], [2.8395786911077696, 41.97938668006135], [2.8396993989346897, 41.979386848669456], [2.839699173049692, 41.979476915317484], [2.839819881047735, 41.979477083799196], [2.839820106762641, 41.97938701715065], [2.8399408145916225, 41.979387185504926], [2.8399405890468086, 41.979477252154005], [2.8399403635009643, 41.979567318801664], [2.8399401379540903, 41.9796573854479], [2.839939912406187, 41.979747452092724], [2.839819203896834, 41.97974728373633], [2.8396984953885114, 41.97974711525303], [2.83957778688122, 41.9797469466428], [2.8394570783749606, 41.97974677790566], [2.8394573046032403, 41.97965671126295]], [[2.839941040135407, 41.97929711885444], [2.8398203324765166, 41.97929695050069], [2.8396996248186563, 41.97929678202003], [2.8396998507015914, 41.97920671536917], [2.839820558189362, 41.97920688384931], [2.839820783901176, 41.97911681719649], [2.8398210096119603, 41.979026750542275], [2.839941716760583, 41.979026918894434], [2.8399414912198875, 41.97911698554918], [2.8400621985396284, 41.97911715377496], [2.840182905860398, 41.97911732187382], [2.8403036131821957, 41.97911748984578], [2.8403038382126256, 41.979027423189436], [2.840424545365362, 41.97902759103395], [2.8405452525191253, 41.97902775875154], [2.8405450278288726, 41.97911782540893], [2.8406657351537503, 41.979117993000145], [2.8407864424796525, 41.979118160464424], [2.8407862181285535, 41.97920822712146], [2.8406655106325616, 41.97920805965664], [2.8405448031375946, 41.979207892064906], [2.8405445784452903, 41.97929795871946], [2.840423870781259, 41.979297791000285], [2.840303163118254, 41.979297623154196], [2.840302938084742, 41.97938768980628], [2.840182230252674, 41.97938752183274], [2.840061522421634, 41.979387353732285], [2.8399408145916225, 41.979387185504926], [2.839941040135407, 41.97929711885444]]]}, "properties": {"area_ha": 3.27, "dnbr_threshold_core": 0.35, "dnbr_threshold_grow": 0.22, "forest_mask": "esa_worldcover_2021_10_20", "part": 0, "fire_id": "274520_0", "burn_year": 2025, "source": "sentinel", "aoi_source": "effis", "dnbr_threshold": 0.35, "buffer_m": 1200.0, "post_windows": 2, "post_window_dates": [{"start": "2025-07-11", "end": "2025-08-03"}, {"start": "2025-08-03", "end": "2025-09-02"}], "pre_window": {"start": "2025-04-20", "end": "2025-06-27"}, "fire_date": "2025-07-04", "severity": "moderada", "severity_method": "threshold_proxy", "aoi_id": "274520", "seed_id": "274520"}}]}
