{"type": "FeatureCollection", "features": [{"type": "Feature", "geometry": {"type": "Polygon", "coordinates": [[[0.9308263460388925, 41.01748218515728], [0.9309452036565343, 41.017484319685785], [0.9309480217852705, 41.01739429642596], [0.9310668792540698, 41.017396430825265], [0.931069697208436, 41.01730640755714], [0.9314262692065898, 41.01731281000005], [0.9314234517370422, 41.017402833288344], [0.9315423092568895, 41.01740496719776], [0.9315394919361885, 41.01749499049122], [0.931658349630403, 41.01749712428488], [0.9316555324585494, 41.0175871475835], [0.9317743903271322, 41.01758928126142], [0.9317715733041277, 41.017679304565185], [0.9318904313470777, 41.01768143812736], [0.9318932482084733, 41.017591414816884], [0.9321309640094302, 41.017595681560366], [0.9321337805348514, 41.01750565823485], [0.9324903538471349, 41.01751205741136], [0.9324931698749762, 41.017422034064104], [0.93261202750964, 41.01742416687128], [0.9326176592038457, 41.01724412015863], [0.9327365165280495, 41.01724625282987], [0.9327393321944165, 41.017156229464476], [0.9328581893697676, 41.01715836200654], [0.9328610048617769, 41.01706833863284], [0.9329798618882745, 41.017070471045706], [0.9329826772059279, 41.016980447663705], [0.9334581047930066, 41.0169889760636], [0.9334609194514932, 41.01689895265316], [0.9332232059556621, 41.0168946887116], [0.933237280672891, 41.01644457170303], [0.9331184247521074, 41.01644243958216], [0.933124054872951, 41.01626239278119], [0.9328863437160295, 41.0162581281989], [0.9328835283387861, 41.016348151586726], [0.9326458169096734, 41.016343886501126], [0.9326430011964795, 41.016433909873946], [0.9325241453394532, 41.01643177714073], [0.9325269612142459, 41.01634175377463], [0.9322892498616531, 41.01633748795424], [0.9322948822193685, 41.01615744124424], [0.9320571715641867, 41.01615317496087], [0.9320599880471054, 41.01606315161695], [0.931822277766142, 41.01605888485717], [0.9318166441411616, 41.01623893151651], [0.9315789332648432, 41.01623466423997], [0.9315732989424379, 41.01641471086614], [0.9313355874707655, 41.01641044307281], [0.9313412224395621, 41.016230396473546], [0.9312223670460623, 41.01622826240664], [0.931219549406447, 41.01631828570032], [0.931100693864112, 41.01631615150423], [0.9310978760501362, 41.01640617478962], [0.9307413090149136, 41.01639977144633], [0.9307384907033799, 41.01648979470996], [0.9306196348889014, 41.016487660010526], [0.930616816403003, 41.01657768326587], [0.9303791044891452, 41.01657341348616], [0.9303734668326507, 41.0167534599652], [0.9296603294583081, 41.01674064760606], [0.9296575096413029, 41.01683067080285], [0.9295386532953407, 41.016828534974294], [0.9295330132998102, 41.01700858134967], [0.9296518699689764, 41.0170107171917], [0.9296490501136563, 41.01710074038377], [0.9297679069571972, 41.01710287611006], [0.9297650872507092, 41.01719289930728], [0.9294085162735898, 41.01718649174081], [0.9294000556230492, 41.017456561262485], [0.9292811981714061, 41.01745442514186], [0.9292755573506314, 41.01763447146832], [0.9291566995885479, 41.01763233521176], [0.9291538789973904, 41.017722358365894], [0.928916163188334, 41.01771808547187], [0.9289077003685544, 41.01798815488447], [0.9290265587515236, 41.017990291412914], [0.9290209171310091, 41.018170337693604], [0.9291397758499761, 41.01817247411305], [0.9291341345015823, 41.01835252040091], [0.929847289023002, 41.01836533642643], [0.9298501087339063, 41.01827531324287], [0.9302066856821966, 41.01828171958202], [0.9302095048954907, 41.018191696376704], [0.93032836374218, 41.018193831571416], [0.9303255446904989, 41.01828385478344], [0.9305632627454075, 41.018288124818895], [0.9305717188924716, 41.01801805513768], [0.9304528603434707, 41.01801592020139], [0.9304613168604671, 41.01774585052623], [0.9303424588090644, 41.017743715487654], [0.9303452777841374, 41.0176536922662], [0.9301075620428534, 41.01764942183508], [0.9301132006011267, 41.01746937541437], [0.9303509156959804, 41.01747364581856], [0.9303480967464425, 41.01756366904316], [0.9305858122155808, 41.017567938970934], [0.9305829935764917, 41.01765796220743], [0.9307018514918194, 41.01766009699431], [0.9306933959827826, 41.017930166714564], [0.9309311128213913, 41.017934435961315], [0.9309395673607697, 41.017664366200705], [0.930820709419912, 41.017662231658754], [0.9308263460388925, 41.01748218515728]], [[0.9323940252220702, 41.01678973770681], [0.9323968413094802, 41.01669971435372], [0.9325156976385536, 41.016701847229584], [0.9325128817127456, 41.0167918705894], [0.9323940252220702, 41.01678973770681]]]}, "properties": {"area_ha": 4.58, "dnbr_threshold_core": 0.35, "dnbr_threshold_grow": 0.22, "dnbr_mean": 0.5114, "dnbr_max": 0.7723, "severity": "alta", "severity_method": "dnbr_mean", "forest_mask": "esa_worldcover_2021_10_20", "part": 0, "fire_id": "508986", "burn_year": 2026, "source": "sentinel", "aoi_source": "effis", "dnbr_threshold": 0.35, "buffer_m": 1200.0, "post_windows": 2, "post_window_dates": [{"start": "2026-06-17", "end": "2026-07-10"}, {"start": "2026-07-10", "end": "2026-08-09"}], "pre_window": {"start": "2026-03-27", "end": "2026-06-03"}, "fire_date": "2026-06-10"}}]}
