{"type": "FeatureCollection", "features": [{"type": "Feature", "geometry": {"type": "Polygon", "coordinates": [[[1.0701026683122388, 41.949135278408505], [1.0700999522171897, 41.94922529469248], [1.0699793694170474, 41.94922326703218], [1.0699766531401587, 41.94931328330823], [1.0699739368508787, 41.94940329958273], [1.0698533537242283, 41.94940127178313], [1.0698506372531071, 41.94949128804971], [1.0698479207695948, 41.949581304314705], [1.0698452042736895, 41.94967132057817], [1.0698424877653938, 41.94976133684005], [1.069721903973327, 41.94975930888843], [1.069601320193653, 41.94975728081025], [1.0695986033340574, 41.94984729705784], [1.0694780193973228, 41.94984526884674], [1.0693574354729831, 41.949843240509075], [1.069354718262085, 41.949933256742376], [1.0693520010387922, 41.950023272974114], [1.0693492838031036, 41.9501132892043], [1.0692286993827935, 41.95011126072097], [1.0691081149748791, 41.950109232111075], [1.069105397387882, 41.95019924832696], [1.0691026797884886, 41.95028926454128], [1.0690999621766986, 41.95037928075405], [1.0690972445525115, 41.95046929696526], [1.0692178296382564, 41.95047132560063], [1.0692151121711315, 41.95056134181665], [1.0692123946916106, 41.9506513580311], [1.0690918092669452, 41.950649329383005], [1.0690890916055664, 41.95073934558952], [1.0690863739317904, 41.95082936179449], [1.0690836562456172, 41.9509193779979], [1.0692042421786687, 41.95092140666511], [1.0693248281241161, 41.950923435205766], [1.0693221107644726, 41.951013451420344], [1.0694426968917796, 41.95101547984079], [1.0695632830314816, 41.95101750813466], [1.069560565998371, 41.95110752436043], [1.0696811523199319, 41.9511095525341], [1.069678435443892, 41.95119956876467], [1.0697990219473124, 41.95120159681814], [1.0699196084631255, 41.95120362474504], [1.0700401949913303, 41.95120565254537], [1.0701607815319265, 41.95120768021914], [1.0701580653213585, 41.95129769647361], [1.0701553490984, 41.951387712726515], [1.0702759359903202, 41.951389740286444], [1.0703965228946308, 41.9513917677198], [1.070393806998217, 41.95148178398389], [1.0705143940843846, 41.95148381129703], [1.0705116783450506, 41.95157382756591], [1.0705089625933277, 41.95166384383323], [1.070506246829217, 41.95175386009899], [1.0703856592346401, 41.95175183276675], [1.070382943288669, 41.95184184902458], [1.0702623555370108, 41.9518398215594], [1.0702596394091781, 41.95192983780933], [1.0701390515004379, 41.95192781021122], [1.0701363351907427, 41.95201782645321], [1.0700157471249214, 41.95201579872215], [1.0700130306333613, 41.95210581495621], [1.0700103141294093, 41.95219583118871], [1.0700075976130652, 41.95228584741966], [1.0700048810843283, 41.95237586364905], [1.070125469828048, 41.95237789140556], [1.070122753456396, 41.95246790763976], [1.0701200370723523, 41.952557923872384], [1.0702406261674164, 41.95255995151505], [1.0702379099404595, 41.95264996775249], [1.0702351937011114, 41.95273998398835], [1.0702324774493723, 41.95283000022267], [1.070229761185242, 41.95292001645544], [1.0702270449087212, 41.95301003268663], [1.0701064549662593, 41.95300800501214], [1.0701037385078653, 41.95309802123541], [1.070101022037079, 41.953188037457124], [1.0700983055539013, 41.953278053677266], [1.0702188960048111, 41.953280081370856], [1.0702161796787244, 41.95337009759582], [1.0702134633402474, 41.95346011381922], [1.0702107469893778, 41.95355013004106], [1.0702080306261172, 41.953640146261336], [1.0702053142504657, 41.95373016248005], [1.0702025978624221, 41.953820178697214], [1.070199881461986, 41.95391019491281], [1.0701971650491588, 41.95400021112684], [1.07019444862394, 41.95409022733932], [1.070073856647645, 41.95408819958845], [1.070071140040543, 41.95417821579299], [1.0700684234210474, 41.954268231996004], [1.0699478311181618, 41.95426620410582], [1.069945114316782, 41.95435622030089], [1.0699423975030078, 41.954446236494384], [1.0698218048735306, 41.954444208464885], [1.0698190878778684, 41.95453422465048], [1.069816370869812, 41.9546242408345], [1.069936963838278, 41.95462626887673], [1.0699342469873223, 41.95471628506555], [1.069931530123973, 41.95480630125283], [1.0699288132482296, 41.95489631743854], [1.0699260963600925, 41.954986333622685], [1.0699233794595608, 41.95507634980528], [1.0699206625466349, 41.95516636598631], [1.0700412565444806, 41.95516839394015], [1.0701618505547201, 41.95517042176741], [1.0701591339684013, 41.955260437959595], [1.0702797281605332, 41.95526246566664], [1.0704003223650576, 41.955264493247086], [1.0703976061053477, 41.955354509450466], [1.0705182004917648, 41.95535653691068], [1.0705154843891662, 41.955446553118854], [1.0705127682741766, 41.95553656932547], [1.070633363011989, 41.955538596671836], [1.0706306470541127, 41.95562861288327], [1.0706279310838467, 41.95571862909311], [1.0707485261730576, 41.955720656325624], [1.0708691212746577, 41.95572268343154], [1.0709897163886464, 41.955724710410855], [1.0709870009145064, 41.955814726638245], [1.0711075962103884, 41.95581675349734], [1.0711048808933668, 41.95590676972953], [1.0712254763711424, 41.9559087964684], [1.071346071861304, 41.95591082308068], [1.0714666673638513, 41.95591284956637], [1.071587262878783, 41.95591487592548], [1.0715845482274036, 41.956004892181554], [1.0715818335636398, 41.95609490843606], [1.071702429429971, 41.9560969346813], [1.0718230253086862, 41.95609896079993], [1.0719436211997833, 41.95610098679198], [1.0720642171032626, 41.95610301265744], [1.0720615031051506, 41.956193028935836], [1.072058789094658, 41.95628304521268], [1.072179385349537, 41.95628507096427], [1.0721766714961742, 41.9563750872459], [1.0721739576304308, 41.95646510352597], [1.0722945542367126, 41.956467129163684], [1.0724151508553748, 41.95646915467479], [1.0725357474864154, 41.95647118005932], [1.0726563441298347, 41.95647320531726], [1.0727769407856313, 41.95647523044858], [1.0728975374538046, 41.95647725545333], [1.0730181341343532, 41.95647928033148], [1.0731387308272773, 41.95648130508303], [1.0732593275325757, 41.956483329708], [1.0733799242502475, 41.95648535420638], [1.0735005209802924, 41.95648737857815], [1.0736211177227089, 41.95648940282334], [1.0737417144774972, 41.95649142694193], [1.073744426139585, 41.956401410579225], [1.0738650227372306, 41.95640343456487], [1.0738677342174365, 41.956313418194256], [1.0739883306579399, 41.95631544204696], [1.0739910419562655, 41.95622542566842], [1.0741116382396267, 41.95622744938818], [1.074114349356073, 41.95613743300172], [1.0742349454822926, 41.95613945658854], [1.074237656416861, 41.95604944019419], [1.0742403673390628, 41.95595942379828], [1.0741197715518613, 41.955957400224165], [1.0741224826312046, 41.955867383833045], [1.0741251936981788, 41.95577736744037], [1.0741279047527867, 41.95568735104613], [1.0741306157950266, 41.95559733465033], [1.0741333268248983, 41.95550731825298], [1.074136037842403, 41.955417301854055], [1.0740154430846056, 41.95541527819147], [1.0740181542592462, 41.95532526179734], [1.074020865421519, 41.95523524540167], [1.0739002710150962, 41.9552332216252], [1.0737796766210417, 41.95523119772215], [1.0737823881099497, 41.9551411813376], [1.073785099586488, 41.955051164951506], [1.073664505543806, 41.95504914093457], [1.0735439115134933, 41.95504711679106], [1.0735466233166622, 41.95495710041611], [1.0735493351074599, 41.9548670840396], [1.073428741428518, 41.954865059782186], [1.073308147761947, 41.95486303539822], [1.073310859879371, 41.95477301903286], [1.0733135719844227, 41.95468300266593], [1.0733162840771022, 41.954592986297456], [1.0733189961574094, 41.954502969927425], [1.0733217082253448, 41.954412953555824], [1.0733244202809078, 41.954322937182674], [1.0733271323240987, 41.954232920807954], [1.0733298443549177, 41.95414290443168], [1.0734504366655238, 41.954144928764826], [1.0735710289885012, 41.95414695297139], [1.073573740667964, 41.954056936580855], [1.0735764523350568, 41.95396692018875], [1.0735791639897796, 41.9538769037951], [1.0735818756321325, 41.95378688739987], [1.0737024672895152, 41.953788911454446], [1.0737051787500083, 41.95369889505131], [1.0737078901981332, 41.95360887864661], [1.0738284815289074, 41.9536109025619], [1.0738311927951745, 41.95352088614929], [1.07395178396883, 41.95352290993165], [1.0739544950532416, 41.953432893511135], [1.0740750860697776, 41.95343491716055], [1.0740777969723359, 41.95334490073211], [1.074080507862528, 41.953254884302126], [1.0742010985524584, 41.95325690781227], [1.074321689254755, 41.95325893119581], [1.0743243997936098, 41.95316891475158], [1.0743271103201009, 41.953078898305755], [1.0744477006957933, 41.953080921550026], [1.0745682910838494, 41.95308294466773], [1.0745710012590084, 41.95299292820766], [1.0745737114218037, 41.95290291174604], [1.0746943014832582, 41.952904934724444], [1.0746970114642085, 41.9528149182549], [1.0748176013685424, 41.95281694110039], [1.0749381912852378, 41.95281896381931], [1.074935481643252, 41.95290898030154], [1.0750560717417903, 41.95291100290022], [1.0750587812142949, 41.95282098641164], [1.0750614906744385, 41.95273096992148], [1.0750642001222221, 41.95264095342979], [1.0750669095576466, 41.95255093693652], [1.0750696189807105, 41.9524609204417], [1.075190208244206, 41.952462942882065], [1.0751929174854324, 41.95237292637933], [1.0751956267142992, 41.95228290987504], [1.0753162156511977, 41.95228493217612], [1.0753135065918085, 41.95237494868677], [1.0754340957105428, 41.95237697086763], [1.0754313868082732, 41.95246698738306], [1.0754286778936468, 41.95255700389693], [1.0755492673636968, 41.95255902596391], [1.0756698568461032, 41.95256104790431], [1.0757904463408654, 41.95256306971814], [1.0759110358479829, 41.9525650914054], [1.0760316253674553, 41.952567112966065], [1.0760343334346842, 41.95247709642048], [1.0761549227970308, 41.95247911784823], [1.0761576306824274, 41.95238910129472], [1.076278219887647, 41.95239112258956], [1.076280927591213, 41.952301106028145], [1.0764015166393068, 41.952303127190056], [1.0765221056997525, 41.9523051482254], [1.0765248130520113, 41.95221513164974], [1.0766454019553289, 41.95221715255216], [1.0766481091257607, 41.9521271359686], [1.076768697871951, 41.9521291567381], [1.0767714048605568, 41.95203914014665], [1.07689199344962, 41.952041160783224], [1.0770125820510312, 41.952043181293234], [1.077015288688338, 41.95195316468752], [1.0770179953132974, 41.95186314808026], [1.077138583588105, 41.951865168451015], [1.0772591718752589, 41.951867188695196], [1.0772618781489234, 41.951777172073676], [1.077264584410242, 41.951687155450614], [1.077143996462036, 41.95168513521912], [1.077146702880482, 41.95159511860084], [1.077026115114094, 41.95159309824912], [1.0770288216896657, 41.95150308163562], [1.0769082341050962, 41.95150106116366], [1.0767876465328743, 41.95149904056513], [1.076790353435041, 41.95140902396276], [1.0767930603248599, 41.95131900735883], [1.076672473103926, 41.951316986646425], [1.0766751801508658, 41.95122697004728], [1.0766778871854563, 41.95113695344657], [1.0765573003158098, 41.95113493262028], [1.07656000750752, 41.951044916024344], [1.0764394208196895, 41.951042895077826], [1.0763188341442098, 41.95104087400474], [1.0761982474810814, 41.95103885280508], [1.0762009551688414, 41.95094883622664], [1.0760803686875315, 41.95094681490674], [1.075959782218574, 41.95094479346028], [1.075839195761969, 41.95094277188727], [1.07583648756581, 41.951032788446675], [1.0758337793572965, 41.95112280500453], [1.0757131925741121, 41.95112078329225], [1.0757104841837766, 41.9512107998422], [1.0755898972434805, 41.951208777996996], [1.0755871886713215, 41.95129879453903], [1.0755844800868064, 41.9513888110795], [1.0754638928199272, 41.95138678909504], [1.0754611840535866, 41.951476805627614], [1.0753405966295948, 41.95147478351023], [1.0752200092179598, 41.951472761266274], [1.0750994218186842, 41.95147073889575], [1.0751021310934348, 41.951380722382204], [1.0751048403558268, 41.95129070586712], [1.075107549605859, 41.95120068935048], [1.0751102588435335, 41.951110672832264], [1.075112968068849, 41.951020656312494], [1.0752335546207832, 41.95102267865128], [1.0753541411850758, 41.95102470086349], [1.0753568500591, 41.950934684329475], [1.0753595589207674, 41.950844667793895], [1.075238972695406, 41.95084264559436], [1.0752416817141803, 41.95075262906358], [1.075121095670642, 41.95075060674384], [1.075123804846522, 41.95066059021784], [1.075003218984806, 41.95065856777787], [1.0748826331354489, 41.950656545211345], [1.0748853426378966, 41.95056652869646], [1.0748880521279844, 41.950476512180046], [1.0747674666299114, 41.95047448949965], [1.0747701762771005, 41.95038447298801], [1.0748907616057122, 41.95038649566205], [1.0748934710710798, 41.95029647914252], [1.0748961805240884, 41.95020646262142], [1.0748988899647365, 41.950116446098754], [1.0749015993930255, 41.95002642957453], [1.0750221840561591, 41.950028452096625], [1.0750248933026312, 41.94993843556448], [1.0751454778086669, 41.94994045795366], [1.0751481868733228, 41.94985044141363], [1.075150895925621, 41.94976042487204], [1.0751536049655623, 41.94967040832888], [1.075156313993145, 41.94958039178417], [1.0751590230083703, 41.94949037523789], [1.0750384393496102, 41.949488352880465], [1.074917855703209, 41.94948633039647], [1.074797272069167, 41.94948430778591], [1.0746766884474845, 41.94948228504879], [1.074679398128163, 41.94939226852635], [1.0746821077964805, 41.94930225200237], [1.0745615245260638, 41.94930022915138], [1.0744409412680078, 41.949298206173836], [1.074320358022315, 41.949296183069734], [1.0741997747889835, 41.94929415983907], [1.0740791915680172, 41.94929213648183], [1.073958608359415, 41.94929011299804], [1.0738380251631776, 41.9492880893877], [1.073717441979306, 41.949286065650774], [1.0737201529908693, 41.94919604917604], [1.073599569988815, 41.94919402531891], [1.0734789869991288, 41.949192001335234], [1.0734816983372246, 41.94910198487163], [1.0733611155293563, 41.94909996076773], [1.0732405327338568, 41.94909793653729], [1.0732432443984818, 41.949007920084846], [1.0732459560507375, 41.94891790363084], [1.073248667690624, 41.94882788717528], [1.0732513793181404, 41.94873787071815], [1.0732540909332877, 41.948647854259455], [1.0733746728815514, 41.948649878458134], [1.0733773843148842, 41.94855986199155], [1.0732568025360651, 41.948557837799214], [1.073259514126474, 41.94846782133742], [1.073262225704513, 41.94837780487405], [1.0731416442769508, 41.94837578056788], [1.073144356012063, 41.948285764109315], [1.0732649372701826, 41.94828778840914], [1.0732676488234838, 41.948197771942645], [1.0732703603644151, 41.94810775547461], [1.0731497794451785, 41.94810573118749], [1.0731524911431811, 41.94801571472426], [1.0731552028288143, 41.947925698259446], [1.0730346222608265, 41.94792367385849], [1.0730373341035284, 41.947833657398476], [1.07304004593386, 41.94774364093691], [1.0730427577518216, 41.94765362447377], [1.0729221777045175, 41.94765159996533], [1.0729248896795447, 41.947561583507], [1.072804309814048, 41.94755955887836], [1.0728070219461396, 41.947469542424834], [1.0728097340658602, 41.94737952596972], [1.0728124461732087, 41.94728950951307], [1.0726918668283876, 41.947287484776936], [1.0725712874959374, 41.94728545991425], [1.0725685750497214, 41.9473754763582], [1.0725658625911325, 41.94746549280058], [1.07256315012017, 41.947555509241404], [1.0725604376368347, 41.94764552568066], [1.072557725141126, 41.947735542118366], [1.0725550126330432, 41.94782555855452], [1.0725523001125876, 41.9479155749891], [1.0725495875797586, 41.94800559142213], [1.072429006904192, 41.94800356638205], [1.0724262941895493, 41.948093582807154], [1.0723057133569172, 41.94809155763416], [1.0723030004604597, 41.94818157405135], [1.072300287551626, 41.94827159046698], [1.0722975746304189, 41.94836160688106], [1.0721769933018381, 41.94835958156243], [1.0720564119856335, 41.94835755611724], [1.0719358306818054, 41.94835553054549], [1.071815249390356, 41.948353504847184], [1.0718179629893312, 41.948263488458544], [1.0716973818797015, 41.948261462640055], [1.07170009563574, 41.948171446256204], [1.0715795147079306, 41.9481694203175], [1.0714589337925007, 41.948167394252245], [1.071338352889452, 41.948165368060444], [1.0712177719987845, 41.94816334174207], [1.071220486420203, 41.948073325382126], [1.0713410671414307, 41.94807535169412], [1.0714616478750398, 41.94807737787957], [1.0714643619451985, 41.947987361505334], [1.0714670760029765, 41.94789734512953], [1.0714697900483745, 41.94780732875217], [1.0713492098230808, 41.947805302585806], [1.0713464956082452, 41.94789531895681], [1.0713437813810285, 41.94798533532625], [1.0712232008292402, 41.94798330902061], [1.0711026202898337, 41.94798128258841], [1.07098203976281, 41.94797925602965], [1.0709793250148951, 41.94806927237845], [1.0709766102545961, 41.948159288725684], [1.0708560294010772, 41.94815726202764], [1.0707354485599432, 41.94815523520307], [1.0707327334483796, 41.94824525153602], [1.0706121524501904, 41.94824322457852], [1.0706094371568005, 41.948333240903544], [1.0706067218510247, 41.94842325722702], [1.0706040065328624, 41.948513273548926], [1.0706012912023137, 41.94860328986928], [1.0705985758593783, 41.948693306188076], [1.0705958605040566, 41.9487833225053], [1.0705931451363486, 41.948873338820974], [1.0704725629644418, 41.94887131169238], [1.0703519808049224, 41.948869284437215], [1.070349265085935, 41.94895930073859], [1.0703465493545596, 41.949049317038416], [1.0703438336107949, 41.9491393333367], [1.0702232509553224, 41.949137305935885], [1.0701026683122388, 41.949135278408505]]]}, "properties": {"area_ha": 33.9, "dnbr_threshold": 0.27, "part": 0, "fire_id": "2024250998", "burn_year": 2024, "source": "sentinel", "aoi_source": "official", "buffer_m": 800.0, "fire_date": "2024-08-09"}}, {"type": "Feature", "geometry": {"type": "Polygon", "coordinates": [[[1.0725004727162653, 41.95764139180638], [1.072379873881502, 41.9576393663392], [1.07237716018147, 41.95772938261016], [1.0722565611895634, 41.95772735701004], [1.0722538473076288, 41.95781737327307], [1.0723744464690586, 41.957819398879565], [1.072495045642868, 41.95782142435945], [1.0724923320876005, 41.95791144063365], [1.0726129314433133, 41.9579134659933], [1.072733530811405, 41.95791549122635], [1.0727308175828079, 41.95800550751171], [1.0727281043418333, 41.95809552379551], [1.0727253910884806, 41.95818554007774], [1.0727226778227508, 41.958275556358416], [1.0726020777765546, 41.95827353109994], [1.0725993643289184, 41.9583635473727], [1.0725966508689033, 41.9584535636439], [1.0727172512541558, 41.95845558891509], [1.0727145379512923, 41.95854560519109], [1.0727118246360496, 41.958635621465525], [1.0728324253727404, 41.95863764662283], [1.0729530261218088, 41.958639671653536], [1.0729503131332507, 41.95872968793912], [1.072947600132316, 41.95881970422315], [1.073068201232824, 41.95882172913997], [1.073188802345709, 41.95882375393018], [1.0731860896714633, 41.95891377022536], [1.0731833769848418, 41.95900378651899], [1.0733039784491687, 41.959005811195304], [1.07342457992587, 41.95900783574502], [1.0734218675659426, 41.95909785204981], [1.0734191551936414, 41.95918786835302], [1.0735397570217868, 41.959189892788835], [1.0735370448066484, 41.95927990909684], [1.0736576468167032, 41.959281933412406], [1.0736549347587279, 41.95937194972522], [1.0737755369506923, 41.95937397392053], [1.0737728250498828, 41.959463990238135], [1.0738934274237566, 41.9594660143132], [1.073890715680114, 41.95955603063559], [1.0740113182358986, 41.959558054590396], [1.0741319208040534, 41.95956007841859], [1.0741292093871186, 41.959650094752135], [1.0742498121371828, 41.95965211846008], [1.0743704148996152, 41.95965414204142], [1.0744910176744165, 41.959656165496156], [1.0744883067537339, 41.959746181847194], [1.0746089097104428, 41.959748205181675], [1.0746061989469344, 41.95983822153751], [1.0746034881710589, 41.95992823789178], [1.0747240914792187, 41.959930261112355], [1.0747268020855516, 41.95984024475172], [1.074847405236535, 41.95984226783933], [1.074844694799744, 41.95993228420631], [1.074965298132635, 41.95993430717366], [1.0750859014778902, 41.9599363300144], [1.0750831913678214, 41.96002634639251], [1.0750804812453885, 41.960116362769064], [1.075201084942094, 41.960118385495896], [1.075321688651164, 41.960120408096124], [1.0754422923725955, 41.96012243056974], [1.0755628961063886, 41.96012445291675], [1.0756834998525429, 41.96012647513714], [1.0756862091272548, 41.960036458728844], [1.0758068127162237, 41.960038480816294], [1.0759274163175525, 41.96004050277711], [1.0760480199312392, 41.96004252461134], [1.07605072868496, 41.95995250818243], [1.076171332141461, 41.959954529883696], [1.0762919356103187, 41.959956551458355], [1.076412539091532, 41.959958572906395], [1.0765331425851001, 41.95996059422783], [1.0766537460910228, 41.959962615422654], [1.0766564539846701, 41.95987259896047], [1.0766591618659633, 41.959782582496736], [1.076779765045154, 41.95978460355227], [1.076777057333404, 41.95987462002235], [1.0767743496092999, 41.95996463649088], [1.076894953139929, 41.95996665743248], [1.076892245573017, 41.9600566739058], [1.0770128492855429, 41.96005869472714], [1.0771334530104202, 41.96006071542187], [1.0771307457702464, 41.9601507319063], [1.0771280385177218, 41.960240748389175], [1.077248642594041, 41.96024276896999], [1.077245935498712, 41.96033278545766], [1.0771253312528462, 41.96033076487051], [1.0770047270193308, 41.96032874415675], [1.0770074344537532, 41.96023872768176], [1.0768868304021364, 41.96023670684774], [1.0767662263628721, 41.96023468588709], [1.0767689341240343, 41.960144669423244], [1.0766483302666683, 41.96014264834234], [1.0765277264216564, 41.960140627134834], [1.0764071225889988, 41.96013860580071], [1.0764044143191998, 41.960228622245516], [1.0764017060370452, 41.960318638688776], [1.076281101877651, 41.96031661721535], [1.0761604977306132, 41.96031459561531], [1.0760398935959323, 41.960312573888665], [1.0759192894736094, 41.96031055203541], [1.0759165805009112, 41.960400568451725], [1.0760371847927803, 41.96040259031133], [1.0760344759772718, 41.960492606732416], [1.0761550804510471, 41.960494628471764], [1.0762756849371802, 41.960496650084494], [1.076396289435669, 41.96049867157061], [1.0763935811164476, 41.960588688009196], [1.0765141857968412, 41.96059070937503], [1.0765168939465137, 41.96050069293012], [1.0766374984697125, 41.96050271416301], [1.0767581030052662, 41.960504735269296], [1.0768787075531727, 41.96050675624897], [1.0768759999121469, 41.96059677271292], [1.076996604641955, 41.960598793572316], [1.0771172093841146, 41.96060081430511], [1.0772378141386256, 41.9606028349113], [1.0772351069938968, 41.96069285139271], [1.0773557119303077, 41.96069487187862], [1.0773584189054872, 41.960604855390855], [1.0774790236846972, 41.960606875743814], [1.0775996284762566, 41.96060889597016], [1.0777202332801639, 41.96061091606988], [1.077717526813635, 41.96070093257667], [1.0778381317994397, 41.96070295255612], [1.0778354254901144, 41.960792969067704], [1.0779560306578169, 41.96079498892688], [1.077953324505696, 41.96088500544326], [1.0779506183412304, 41.96097502195805], [1.077830012834424, 41.96097300208617], [1.077827306488059, 41.96106301859307], [1.077947912164419, 41.961065038471276], [1.078068517853125, 41.96106705822287], [1.0780712238603831, 41.960977041703295], [1.0780739298552964, 41.96088702518216], [1.0781945352172406, 41.960889044794456], [1.0783151405915292, 41.96089106428015], [1.078312434935722, 41.96098108081396], [1.0781918293918802, 41.96097906132193], [1.0781891235541758, 41.961069077847846], [1.0783097292675705, 41.96107109734622], [1.0784303349933095, 41.961073116717955], [1.0785509407313916, 41.961075135963085], [1.078671546481815, 41.96107715508161], [1.0786688413099834, 41.961167171631324], [1.078666136125811, 41.96125718817948], [1.0787867422276856, 41.961259207184064], [1.0787894472423036, 41.96116919062957], [1.0787921522445807, 41.96107917407352], [1.0789127580196862, 41.9610811929388], [1.0789100531869633, 41.961171209501195], [1.078907348341902, 41.96126122606202], [1.0790279544684578, 41.96126324481337], [1.0790252497806119, 41.96135326137898], [1.079145856089063, 41.961355280010046], [1.079266462409852, 41.96135729851451], [1.0793870687429792, 41.961359316892334], [1.0795076750884431, 41.96136133514356], [1.0795103790980638, 41.9612713185526], [1.0796309852863064, 41.96127333667087], [1.0797515914868854, 41.96127535466252], [1.0797488878163783, 41.96136537126615], [1.079869494198849, 41.96136738913753], [1.0798667906855648, 41.96145740574591], [1.0799873972499259, 41.961459423497004], [1.0801080038266204, 41.96146144112148], [1.080110707000789, 41.96137142450042], [1.0802313134202575, 41.96137344199194], [1.0802286104156467, 41.96146345861934], [1.0803492170170044, 41.96146547599057], [1.0804698236306935, 41.9614674932352], [1.0805904302567122, 41.96146951035321], [1.0805877277484457, 41.961559526998045], [1.0805850252278493, 41.96164954364131], [1.0805823226949243, 41.96173956028302], [1.0805796201496696, 41.96182957692319], [1.0804590128454108, 41.961827559779856], [1.080338405553484, 41.96182554250991], [1.0803357026567761, 41.96191555913584], [1.080332999747737, 41.962005575760216], [1.0804536073787887, 41.96200759304283], [1.0805742150221715, 41.962009610198834], [1.0806948226778832, 41.96201162722821], [1.0808154303459248, 41.96201364413096], [1.0809360380262931, 41.9620156609071], [1.08093333595274, 41.96210567756158], [1.0810539438149993, 41.96210769421743], [1.081174551689585, 41.96210971074666], [1.0811772534240116, 41.96201969407952], [1.081056645718989, 41.96201767755662], [1.0810593476106523, 41.96192766089425], [1.0809387400875183, 41.961925644251075], [1.0808181325767126, 41.96192362748126], [1.0808208347951733, 41.961833610830006], [1.0808235370013062, 41.96174359417717], [1.080826239195111, 41.961653577522796], [1.0809468461972331, 41.96165559427361], [1.0810674532116826, 41.96165761089781], [1.0811880602384585, 41.96165962739539], [1.0811907619112566, 41.96156961072047], [1.0811934635717293, 41.96147959404397], [1.0813140702717117, 41.96148161040228], [1.0813167717503003, 41.96139159371791], [1.081196165219876, 41.96138957736594], [1.081198866855698, 41.961299560686335], [1.0813194732165645, 41.961301577031975], [1.0813221746705046, 41.96121156034449], [1.0813248761121201, 41.96112154365544], [1.0813275775414113, 41.96103152696484], [1.0813302789583783, 41.96094151027267], [1.081450884653347, 41.96094352646638], [1.0815714903606386, 41.96094554253349], [1.0815741914261745, 41.9608555258271], [1.081694796976235, 41.96085754176126], [1.081815402538618, 41.96085955756879], [1.0818181032527248, 41.960769540848204], [1.0819387086578747, 41.96077155652281], [1.082059314075345, 41.96077357207079], [1.082056613700345, 41.96086358880404], [1.0821772192996884, 41.960865604231735], [1.0821745190819225, 41.96095562096977], [1.0822951248631387, 41.96095763627717], [1.082415730656673, 41.96095965145798], [1.0825363364625236, 41.960961666512155], [1.082656942280692, 41.96096368143972], [1.0826596418202405, 41.9608736646764], [1.0826623413474734, 41.960783647911526], [1.0826650408623908, 41.9606936311451], [1.0825444355528833, 41.9606916162365], [1.0825471352250373, 41.960601599474835], [1.0824265300973988, 41.96059958444595], [1.082429229926788, 41.96050956768905], [1.0823086249810174, 41.96050755253989], [1.082188020047564, 41.960505537264105], [1.0821907202037369, 41.96041552051829], [1.0820701154521526, 41.96041350512223], [1.0819495107128876, 41.96041148959954], [1.081952211195841, 41.96032147286483], [1.0819549116664742, 41.96023145612857], [1.0819576121247876, 41.96014143939074], [1.0819603125707817, 41.960051422651354], [1.081839708522029, 41.96004940702736], [1.0818424091252494, 41.95995939029275], [1.0818451097161497, 41.95986937355657], [1.081724506018808, 41.95986735781863], [1.081727206766933, 41.95977734108722], [1.081606603251458, 41.959775325228996], [1.0816093041568053, 41.95968530850236], [1.0816120050498303, 41.95959529177417], [1.081491401885764, 41.95959327580199], [1.08149410293601, 41.95950325907857], [1.081373499953808, 41.95950124298612], [1.0812528969839292, 41.95949922676705], [1.0811322940263741, 41.959497210421375], [1.0810116910811438, 41.95949519394909], [1.080891088148239, 41.959493177350204], [1.0808883862502832, 41.95958319404198], [1.0807677831601628, 41.959581177310156], [1.0806471800823692, 41.95957916045171], [1.080649882319409, 41.9594891437726], [1.0805292794234846, 41.95948712679388], [1.0804086765398895, 41.959485109688565], [1.0802880736686236, 41.95948309245664], [1.0802907764019576, 41.95939307579496], [1.0801701737125629, 41.95939105844273], [1.0801728766031067, 41.959301041785835], [1.0802934791229615, 41.95930305913171], [1.0802961818316357, 41.959213042466914], [1.0801755794813201, 41.959211025127374], [1.0801782823472024, 41.95912100846735], [1.0801809852007547, 41.95903099180577], [1.0801836880419764, 41.958940975142625], [1.0800630862126028, 41.95893895769547], [1.0799424843955614, 41.958936940121724], [1.0798218825908517, 41.95893492242136], [1.0798245859283504, 41.95884490577566], [1.0797039843055092, 41.95884288795503], [1.0797066878002106, 41.958752871314104], [1.079709391282578, 41.95866285467162], [1.0797120947526124, 41.958572838027585], [1.0795914936507076, 41.95857082009935], [1.079594197277941, 41.958480803460084], [1.0794735963579027, 41.95847878541158], [1.0794763001423344, 41.95838876877709], [1.079596900892841, 41.95839078681926], [1.0795996044954068, 41.958300770176876], [1.079720205088716, 41.95830278808611], [1.0798408056943587, 41.95830480586874], [1.0798435089455298, 41.95821478921212], [1.0797229085094175, 41.95821277143583], [1.0797256119177863, 41.95812275478401], [1.0796050116635363, 41.95812073688744], [1.0796077152291013, 41.95803072024037], [1.079487115156714, 41.95802870222355], [1.0794844114216207, 41.95811871886428], [1.0793638111920394, 41.95811670071451], [1.0793665150966616, 41.9580266840801], [1.079369218988948, 41.957936667444166], [1.079371922868899, 41.95784665080667], [1.0793746267365154, 41.957756634167595], [1.0792540271973794, 41.95775461591658], [1.0791334276705784, 41.95775259753895], [1.079136131864911, 41.95766258091099], [1.079015532519972, 41.9576605624131], [1.0790182368714925, 41.957570545789935], [1.079020941210675, 41.9574805291652], [1.0790236455375213, 41.95739051253891], [1.07902634985203, 41.95730049591105], [1.0789057511975222, 41.95729847731192], [1.078785152555352, 41.95729645858617], [1.0786645539255206, 41.95729443973383], [1.0785439553080283, 41.9572924207549], [1.0785466602882854, 41.95720240415084], [1.0784260618526544, 41.95720038505163], [1.0783054634293643, 41.95719836582583], [1.0783081687363225, 41.95710834923289], [1.0781875704948942, 41.957106329886834], [1.0781902759590303, 41.95701631329867], [1.0781929814108238, 41.95692629670896], [1.0783135793132135, 41.95692831604233], [1.0784341772279447, 41.95693033524912], [1.0784368823283605, 41.95684031864515], [1.0784395874164354, 41.95675030203964], [1.0785601850044726, 41.95675232110715], [1.07856288991069, 41.95666230449373], [1.0785655948045687, 41.956572287878764], [1.0784449975555643, 41.956570268823924], [1.0783244003189003, 41.956568249642494], [1.078327105539469, 41.956478233038645], [1.078206508484661, 41.95647621373696], [1.0780859114421946, 41.95647419430868], [1.0780886169894501, 41.95638417771596], [1.0779680201288404, 41.95638215816742], [1.0778474232805741, 41.95638013849229], [1.0778447173942904, 41.956470155072346], [1.0777241203888546, 41.95646813526429], [1.0777214143207121, 41.95655815183644], [1.0778420114956628, 41.95656017165085], [1.0778393055846909, 41.95665018822778], [1.0778365996613746, 41.95674020480316], [1.0777160021473926, 41.956738184976075], [1.0775954046457554, 41.95673616502241], [1.077598110908104, 41.956646148459704], [1.0774775135883286, 41.956644128385776], [1.0774802200078468, 41.95655411182785], [1.0774829264150183, 41.95646409526839], [1.0776035233957637, 41.95646611532963], [1.0776062296210747, 41.95637609876226], [1.0776089358340402, 41.95628608219332], [1.0776116420346606, 41.956196065622834], [1.0774910455624536, 41.95619404558061], [1.077370449102593, 41.95619202541178], [1.0772498526550798, 41.956190005116376], [1.077252559351888, 41.95609998856335], [1.0771319630862337, 41.95609796814769], [1.077134669940205, 41.95600795159944], [1.0770140738564096, 41.95600593106353], [1.0768934777849637, 41.95600391040102], [1.0767728817258673, 41.956001889611926], [1.0766522856791219, 41.95599986869623], [1.0766549931987819, 41.95590985217182], [1.0766577007060913, 41.955819835645826], [1.0765371050107153, 41.95581781461624], [1.0764165093276916, 41.95581579346006], [1.0764138014813653, 41.95590580997335], [1.0764110936226863, 41.9559958264851], [1.0762904976129974, 41.95599380518963], [1.0761699016156627, 41.95599178376757], [1.0761671934056103, 41.956081800265075], [1.0760465972511206, 41.95607977871007], [1.0760493056306824, 41.955989762218934], [1.075928709658058, 41.95598774054369], [1.0759260011089864, 41.95607775702849], [1.0758054049792085, 41.956075735220324], [1.0756848088617867, 41.956073713285555], [1.0756820999613381, 41.9561637297561], [1.0755615036867643, 41.956161707688395], [1.0755587946044467, 41.95625172415104], [1.0755560855097699, 41.95634174061212], [1.075435488908532, 41.95633971840513], [1.0753148923196534, 41.95633769607154], [1.0753121828735936, 41.95642771251836], [1.0751915861275627, 41.95642569005184], [1.0750709893938932, 41.956423667458715], [1.0750736991789784, 41.956333651024586], [1.074953102627183, 41.95633162831122], [1.0748325060877506, 41.95632960547126], [1.0748297959636408, 41.9564196218927], [1.0749503926725856, 41.956421644738995], [1.0749476827056252, 41.956511661165216], [1.0748270858271671, 41.95650963831256], [1.0747064889610731, 41.95650761533331], [1.0747037786427227, 41.956597631745275], [1.074583181619479, 41.95659560863308], [1.0744625846085996, 41.95659358539428], [1.074459873938856, 41.956683601791994], [1.074339276770829, 41.95668157842026], [1.0742186796151685, 41.956679554921934], [1.074215968594029, 41.956769571305365], [1.0740953712812216, 41.95676754767409], [1.0739747739807821, 41.95676552391621], [1.0739774853409514, 41.95667550754548], [1.073856888222396, 41.956673483667366], [1.0737362911162105, 41.956671459662665], [1.0736156940223953, 41.956669435531374], [1.0734950969409514, 41.95666741127347], [1.07337449987188, 41.956665386888986], [1.0732539028151815, 41.95666336237791], [1.0732511904379238, 41.95675337871051], [1.073248478048292, 41.95684339504158], [1.0731278806649376, 41.95684137039118], [1.0731251680934162, 41.95693138671431], [1.0730045705529205, 41.956929361930975], [1.0728839730247999, 41.95692733702106], [1.072881260101871, 41.95701735332992], [1.07276066241661, 41.957015328287035], [1.0727579493117867, 41.957105344587994], [1.0726373514693859, 41.957103319412155], [1.0726346381826677, 41.957193335705185], [1.0725140401831272, 41.95719131039639], [1.0723934421959647, 41.95718928496101], [1.0723907285578314, 41.957279301239765], [1.0722701304135296, 41.95727727567143], [1.072267416593497, 41.95736729194227], [1.0723880149073184, 41.95736931751697], [1.072385301244426, 41.9574593337926], [1.0725058997401469, 41.95746135924707], [1.0725031862343952, 41.95755137552751], [1.0725004727162653, 41.95764139180638]], [[1.0773665397569283, 41.96033480591819], [1.0773638328187976, 41.96042482241064], [1.077361125868317, 41.960514838901524], [1.0772405212710046, 41.960512818428306], [1.0772432283910331, 41.96042280194376], [1.077245935498712, 41.96033278545766], [1.0773665397569283, 41.96033480591819]], [[1.0767635185893567, 41.96032470234938], [1.0766429143928984, 41.960322681255796], [1.0766456223359604, 41.960232664799854], [1.0767662263628721, 41.96023468588709], [1.0767635185893567, 41.96032470234938]], [[1.0735451814149453, 41.95900986016812], [1.0736657829163934, 41.95901188446463], [1.0736630708955357, 41.95910190078212], [1.0735424692245528, 41.959099876479264], [1.0735451814149453, 41.95900986016812]], [[1.072991006662102, 41.957379443491504], [1.0731116050501888, 41.95738146830662], [1.0731088924044194, 41.9574714846204], [1.0732294909744018, 41.957473509315264], [1.0732267784857776, 41.95756352563385], [1.0732240659847796, 41.957653541950855], [1.0732213534714072, 41.95774355826632], [1.0732186409456606, 41.95783357458021], [1.0730980416975873, 41.95783154985992], [1.0731007543928581, 41.95774153355238], [1.0729801553266844, 41.95773950871184], [1.0729828681791023, 41.95764949240909], [1.0729855810191447, 41.9575594761048], [1.0729882938468112, 41.95746945979893], [1.072991006662102, 41.957379443491504]], [[1.0735967106815953, 41.95729954996035], [1.073476112413533, 41.95729752565798], [1.0734788245259956, 41.95720750932202], [1.073599422624539, 41.957209533618034], [1.0735967106815953, 41.95729954996035]], [[1.076417955544644, 41.95977854000586], [1.0765385586991265, 41.9597805613146], [1.076535850648291, 41.95987057777199], [1.0764152473242654, 41.9598685564569], [1.0762946440125956, 41.9598665350152], [1.0762973524025163, 41.95977651857049], [1.076417955544644, 41.95977854000586]], [[1.0768176717126559, 41.958524372807396], [1.0769382725306815, 41.95852639364751], [1.076935565161395, 41.958616410145765], [1.076932857779758, 41.95870642664245], [1.0768122566226672, 41.95870440578965], [1.0768149641738372, 41.9586143892993], [1.0768176717126559, 41.958524372807396]], [[1.076598132691998, 41.95780019885746], [1.0764775332672558, 41.95779817768832], [1.0764802412034844, 41.9577081612014], [1.076600840458702, 41.95771018236422], [1.0766035482130534, 41.957620165869415], [1.0767241473110998, 41.95762218689928], [1.0767268548835751, 41.95753217039657], [1.07684745382445, 41.957534191293504], [1.0768501612150503, 41.9574441747829], [1.0769707599987541, 41.95744619554688], [1.0770913587948077, 41.95744821618428], [1.0772119576032113, 41.957450236695074], [1.0773325564239635, 41.957452257079275], [1.0774531552570632, 41.95745427733688], [1.077450448714077, 41.957544293879195], [1.0775710477290465, 41.95754631401654], [1.0775683413432362, 41.95763633056366], [1.0775656349450797, 41.957726347109194], [1.0775629285345762, 41.9578163636532], [1.0774423290110324, 41.95781434349683], [1.077321729499836, 41.957812323213865], [1.077201130000988, 41.9578103028043], [1.077080530514489, 41.95780828226813], [1.0769599310403404, 41.95780626160537], [1.0768393315785412, 41.95780424081601], [1.0767187321290936, 41.95780221990004], [1.076598132691998, 41.95780019885746]], [[1.0775737541025099, 41.95745629746787], [1.077694352960304, 41.95745831747228], [1.0776916467563633, 41.95754833402728], [1.0775710477290465, 41.95754631401654], [1.0775737541025099, 41.95745629746787]], [[1.0785779934664488, 41.96017497044361], [1.0785806986720754, 41.96008495388308], [1.0787013025574506, 41.96008697293188], [1.0788219064551658, 41.96008899185408], [1.0789425103652217, 41.96009101064966], [1.0789398056682333, 41.9601810272292], [1.0789371009589057, 41.96027104380716], [1.0788164967097569, 41.9602690249989], [1.0788192015886313, 41.960179008427275], [1.0786985975213697, 41.96017698949874], [1.0785779934664488, 41.96017497044361]], [[1.0772838337094888, 41.95907255448853], [1.077286540631924, 41.95898253797904], [1.0771659389291783, 41.95898051748702], [1.0771686460087992, 41.95889050098232], [1.077171353076071, 41.95880048447606], [1.077174060130992, 41.95871046796824], [1.0772946613251344, 41.95871248844122], [1.077415262531625, 41.958714508787615], [1.0775358637504644, 41.95871652900738], [1.0775331572041442, 41.95880654553423], [1.077530450645476, 41.95889656205952], [1.0776510522157308, 41.958898582165375], [1.0776483458142514, 41.95898859869545], [1.077768947566388, 41.95899061868104], [1.0777662413220976, 41.9590806352159], [1.077763535065461, 41.9591706517492], [1.0777608287964784, 41.95926066828092], [1.077640226535731, 41.9592586482763], [1.0775196242873297, 41.95925662814508], [1.0773990220512766, 41.95925460788725], [1.077401728828872, 41.95916459137455], [1.0774044355941197, 41.95907457486028], [1.0772838337094888, 41.95907255448853]], [[1.0798776046646978, 41.961097339302974], [1.079998210550833, 41.96109935702873], [1.0799955072441054, 41.961189373648146], [1.0798749011884148, 41.96118735591606], [1.0798776046646978, 41.961097339302974]]]}, "properties": {"area_ha": 26.88, "dnbr_threshold": 0.27, "part": 3, "fire_id": "2024250998", "burn_year": 2024, "source": "sentinel", "aoi_source": "official", "buffer_m": 800.0, "fire_date": "2024-08-09"}}]}
