{"type": "FeatureCollection", "features": [{"type": "Feature", "geometry": {"type": "Polygon", "coordinates": [[[1.3992146477828542, 41.48449770385071], [1.3994541247849783, 41.484501037246034], [1.3994807194305219, 41.48342056231004], [1.3997201924979386, 41.483423895081174], [1.3997246241353392, 41.48324381588305], [1.3993654155430444, 41.483238816570925], [1.3993698481338643, 41.48305873739821], [1.3991303764518486, 41.4830554039215], [1.3991281598302396, 41.48314544349813], [1.3992478958318284, 41.48314711030401], [1.3992456793657617, 41.48323714988437], [1.3991259431985545, 41.483235483073244], [1.3991237265567928, 41.48332552264685], [1.399003990234043, 41.48332385570588], [1.3989995565890496, 41.48350393483806], [1.3987600833113003, 41.48350060056139], [1.3987534317744947, 41.48377071921688], [1.3986336946538716, 41.483769051875925], [1.3986292599143573, 41.483949130961534], [1.3985095224725654, 41.4839474634855], [1.3985073049220633, 41.48403750302079], [1.3983875673247272, 41.48403583541493], [1.3983853495985186, 41.48412587494346], [1.3982656118456385, 41.484124207207756], [1.3982567401774766, 41.48448436528579], [1.3983764785928678, 41.48448603304247], [1.3983742608162506, 41.48457607256344], [1.3984939994073533, 41.48457774020078], [1.3984873465139054, 41.484847858770365], [1.3989663029666952, 41.48485452813675], [1.398961868979056, 41.48503460721755], [1.3992013479284566, 41.48503794117416], [1.399203564596048, 41.48494790162403], [1.3994430432544882, 41.48495123507179], [1.3994452595807365, 41.48486119550965], [1.3992057812535628, 41.48485786207239], [1.3992146477828542, 41.48449770385071]]]}, "properties": {"area_ha": 1.38, "dnbr_threshold_core": 0.35, "dnbr_threshold_grow": 0.22, "dnbr_mean": 0.5185, "dnbr_max": 0.8016, "severity": "alta", "severity_method": "dnbr_mean", "forest_mask": "esa_worldcover_2021_10_20", "part": 10, "fire_id": "562510", "burn_year": 2026, "source": "sentinel", "aoi_source": "effis", "dnbr_threshold": 0.35, "buffer_m": 1200.0, "post_windows": 2, "post_window_dates": [{"start": "2026-07-25", "end": "2026-08-17"}, {"start": "2026-08-17", "end": "2026-09-16"}], "pre_window": {"start": "2026-05-04", "end": "2026-07-11"}, "fire_date": "2026-07-18"}}]}
