{"type": "FeatureCollection", "features": [{"type": "Feature", "geometry": {"type": "Polygon", "coordinates": [[[0.7664899594768275, 42.5693371108004], [0.7663682128789572, 42.56933473644988], [0.7663650005180145, 42.56942472559284], [0.7662432537601332, 42.56942235110563], [0.7662400412097229, 42.56951234023955], [0.7661182942918319, 42.569509965615666], [0.7661150815519535, 42.56959995474052], [0.765993334474052, 42.56959757997995], [0.7659901215447028, 42.56968756909576], [0.7658683743067912, 42.56968519419849], [0.7658651611879704, 42.569775183305254], [0.7658619480544185, 42.56986517241039], [0.7659836956418135, 42.569867547322524], [0.7661054432439396, 42.56986992210541], [0.7661022304451415, 42.56995991122382], [0.7662239782367395, 42.569962285884884], [0.7662207655979563, 42.570052275009104], [0.7663425135790279, 42.57005464954836], [0.7663393011002593, 42.57014463867839], [0.7664610492708045, 42.57014701309584], [0.766457836952053, 42.57023700223171], [0.7665795853120719, 42.57023937652732], [0.7667013336868168, 42.57024175069368], [0.766698121702831, 42.57033173984281], [0.7668198702670491, 42.57033411388735], [0.7669416188459927, 42.57033648780265], [0.7670633674396611, 42.570338861588695], [0.7671851160480535, 42.57034123524548], [0.767306864671169, 42.57034360877301], [0.7673036535461942, 42.57043359795768], [0.7673004424064979, 42.57052358714074], [0.7674221913938318, 42.570525960553894], [0.7674254023587798, 42.570435971363395], [0.7674286133090066, 42.5703459821713], [0.7675503619615657, 42.570348355440316], [0.7676721106288457, 42.570350728580095], [0.7677938593108452, 42.57035310159061], [0.767915608007564, 42.57035547447188], [0.7680373567190012, 42.57035784722389], [0.7681591054451555, 42.57036021984665], [0.7682808541860268, 42.57036259234015], [0.768402602941614, 42.5703649647044], [0.7685243517119165, 42.5703673369394], [0.7686461004969326, 42.57036970904514], [0.768642891294189, 42.570459698311545], [0.768639682076732, 42.570549687576346], [0.7687614312259593, 42.57055205956769], [0.7688831803899011, 42.57055443142978], [0.7690049295685538, 42.57055680316261], [0.7691266787619182, 42.57055917476619], [0.7691298872803776, 42.57046918547167], [0.7690081382617628, 42.57046681387553], [0.7690113469402593, 42.570376824586845], [0.7691330957841256, 42.57037919617557], [0.7692548446427017, 42.57038156763504], [0.7693765935159869, 42.57038393896526], [0.7694983424039814, 42.570386310166214], [0.7696200913066833, 42.57038868123792], [0.7696168835019317, 42.570478670563745], [0.7696136756824724, 42.57056865988796], [0.7697354249493806, 42.57057103084525], [0.7697386325940899, 42.57048104151362], [0.7697418402240928, 42.57039105218038], [0.769863589156208, 42.57039342299358], [0.7698603817009552, 42.57048341233425], [0.7699821308225253, 42.57048578302561], [0.7699789235273165, 42.5705757723721], [0.7698571742309959, 42.57057340167331], [0.7698539667463318, 42.57066339101074], [0.7698507592469614, 42.57075338034656], [0.7699725088927856, 42.5707557510602], [0.7700942585533141, 42.570758121644594], [0.7702160082285473, 42.57076049209971], [0.7702192152036612, 42.57067050274162], [0.7703409647188456, 42.57067287306006], [0.7703441715045045, 42.57058288369294], [0.7704659208596403, 42.57058525387471], [0.7705876702294769, 42.57058762392723], [0.7707094196140148, 42.57058999385048], [0.770831169013253, 42.57059236364449], [0.7708279629265996, 42.57068235304131], [0.7707062133526104, 42.570679983239884], [0.7705844637933208, 42.5706776133092], [0.7705812573424629, 42.570767602689564], [0.770459507623123, 42.57076523262219], [0.7703377579184841, 42.570762862425575], [0.770334551103419, 42.57085285178948], [0.770331344273652, 42.570942841151776], [0.7702095942342089, 42.57094047081105], [0.7702063872149842, 42.571030460164316], [0.7700846370154903, 42.57102808968691], [0.7699628868307002, 42.57102571908026], [0.7698411366606165, 42.571023348344355], [0.7698379291024223, 42.571113337673715], [0.7698347215295228, 42.57120332700147], [0.7697129710246337, 42.57120095612145], [0.7697161787722896, 42.57111096680112], [0.7695944284568629, 42.57110859579928], [0.7694726781561446, 42.57110622466817], [0.7694694700589776, 42.571196213973636], [0.7695912205344518, 42.57119858511218], [0.7695880125973322, 42.571288574423455], [0.769584804645505, 42.57137856373313], [0.7695815966789702, 42.5714685530412], [0.7697033476934239, 42.571470924072756], [0.7697001398869401, 42.57156091338661], [0.7695783886977272, 42.57155854234764], [0.7695751807017757, 42.57164853165248], [0.7695719726911165, 42.57173852095569], [0.769568764665749, 42.5718285102573], [0.7695655566256728, 42.571918499557285], [0.7694438047521247, 42.57191612835935], [0.7693220528932857, 42.57191375703214], [0.7693252612828857, 42.571823767747006], [0.769447012966963, 42.57182613906678], [0.7694502211670918, 42.571736149772605], [0.769328469657776, 42.571733778460256], [0.7692067181631698, 42.57173140701865], [0.7690849666832741, 42.57172903544779], [0.7690881753929749, 42.57163904617427], [0.7692099266981107, 42.57164141773771], [0.7692131352183404, 42.57155142845515], [0.7692163437238593, 42.57146143917099], [0.7692195522146689, 42.571371449885206], [0.7690978014338093, 42.571369078344034], [0.7689760506676615, 42.571366706673615], [0.7688542999162253, 42.57136433487394], [0.768851090901143, 42.57145432413745], [0.7687293399896621, 42.57145195220108], [0.7686075890928944, 42.57144958013546], [0.768604379713583, 42.57153956938249], [0.7687261307851087, 42.571541941455536], [0.7688478818713483, 42.57154431339932], [0.7688446728268403, 42.571634302659604], [0.7688414637676187, 42.57172429191827], [0.7688382546936855, 42.5718142811753], [0.7689600063189175, 42.57181665301212], [0.7690817579588622, 42.57181902471967], [0.7690785492197381, 42.57190901398996], [0.7689567974050316, 42.57190664227498], [0.7689535884764335, 42.57199663153622], [0.7690753404659025, 42.57199900325863], [0.7691970924700837, 42.57200137485179], [0.7693188444889749, 42.57200374631568], [0.769440596522577, 42.57200611765029], [0.7695623485708879, 42.572008488855666], [0.7696841006339074, 42.57201085993176], [0.7698058527116348, 42.572013230878596], [0.7698026449916693, 42.57210322019021], [0.7697994372569972, 42.5721932095002], [0.7696776848297414, 42.57219083853851], [0.7696744769055965, 42.572280827839464], [0.7697962295076175, 42.572283198808584], [0.7697930217435313, 42.57237318811534], [0.7697898139647369, 42.572463177420495], [0.7697866061712353, 42.572553166724035], [0.7699083593122652, 42.57255553758616], [0.7699115669309985, 42.572465548275204], [0.770033319911967, 42.572467919000644], [0.7700301124680019, 42.57255790831901], [0.7701518656384436, 42.57256027892261], [0.7702736188235906, 42.57256264939694], [0.7702704117144573, 42.57265263872856], [0.7703921650890778, 42.57265500908105], [0.7703953720234417, 42.572565019742015], [0.770517125237996, 42.57256738995782], [0.7706388784672537, 42.57256976004436], [0.770642085037378, 42.57247977068885], [0.7707638381065682, 42.572482140638705], [0.7708855911904594, 42.57248451045928], [0.770888797396347, 42.57239452108733], [0.7708920035875341, 42.572304531713755], [0.7710137563365912, 42.57230690139025], [0.7711355091003468, 42.57230927093746], [0.7711387149273019, 42.57221928154743], [0.7711419207395585, 42.57212929215579], [0.7712636731684808, 42.572131661558906], [0.7713854256121001, 42.572134030832764], [0.7713822201493754, 42.57222402023923], [0.7713790146719529, 42.57231400964411], [0.7713758091798343, 42.57240399904735], [0.7713726036730183, 42.572493988449], [0.7712508505303314, 42.57249161914547], [0.7711290974023426, 42.57248924971267], [0.7711258915312923, 42.572579239097855], [0.7711226856455439, 42.572669228481416], [0.7710009321827146, 42.57266685890452], [0.7708791787345843, 42.57266448919837], [0.7708759724845972, 42.57275447856547], [0.7708727662199091, 42.57284446793097], [0.7707510124369387, 42.5728420980807], [0.7707478059827783, 42.572932087437174], [0.7706260520397373, 42.572929717450215], [0.7706228453961033, 42.57301970679763], [0.7705010912929925, 42.573017336673985], [0.7703793372045847, 42.57301496642108], [0.7702575831308803, 42.57301259603889], [0.7701358290718803, 42.573010225527455], [0.7701326217144523, 42.57310021484356], [0.7702543759482245, 42.573102585362435], [0.7702511687508642, 42.57319257468438], [0.7703729231741157, 42.5731949450814], [0.7704946776120704, 42.57319731534916], [0.7706164320647283, 42.57319968548765], [0.7707381865320889, 42.57320205549688], [0.7707413930303537, 42.57311206614525], [0.7708631473376413, 42.57311443601779], [0.7708663536464313, 42.57302444665713], [0.7709881077936463, 42.57302681639298], [0.7709913139129633, 42.572936827023284], [0.7711130679001049, 42.57293919662245], [0.7711162738299502, 42.57284920724373], [0.771238027657019, 42.57285157670619], [0.7712412333973946, 42.57276158731843], [0.77136298706439, 42.572763956644216], [0.7714847407460835, 42.572766325840746], [0.7714815353552509, 42.57285631524334], [0.7714783299497224, 42.572946304644326], [0.7713565759184855, 42.572943935432974], [0.771353370323487, 42.57303392482492], [0.7712316161321753, 42.57303155547687], [0.7712284103477061, 42.57312154485979], [0.7712252045485383, 42.5732115342411], [0.7712219987346731, 42.573301523620785], [0.7711002440337358, 42.5732991541212], [0.7710970380303955, 42.573389143491866], [0.7709752831693817, 42.57338677385561], [0.7709720769765654, 42.573476763217236], [0.7708503219554751, 42.573474393444286], [0.7707285669490861, 42.57347202354206], [0.7707253603920143, 42.573562012887216], [0.7707221538202421, 42.573652002230766], [0.7707189472337667, 42.5737419915727], [0.7707157406325894, 42.573831980913035], [0.7705939849417888, 42.57382961085187], [0.7704722292656906, 42.573827240661416], [0.7703504736042958, 42.573824870341696], [0.7703472664640757, 42.57391485965814], [0.7702255106426056, 42.573912489201724], [0.7702223033128996, 42.57400247850912], [0.7701005473313537, 42.57400010791602], [0.7699787913645143, 42.57399773719366], [0.7699755836705394, 42.57408772648459], [0.7700973398121607, 42.5740900972144], [0.7700941322782615, 42.57418008651114], [0.7699723759618581, 42.574177715773914], [0.7699691682384691, 42.57426770506164], [0.7699659605003727, 42.57435769434774], [0.769844203849109, 42.5743553234664], [0.7698409959215208, 42.57444531274345], [0.7698377879792241, 42.5745353020189], [0.7699595449800583, 42.5745376729151], [0.7699563371978396, 42.57462766219635], [0.7700780943881672, 42.57463003297069], [0.7700748867660288, 42.57472002225776], [0.7701966441458502, 42.57472239291026], [0.7701998515932021, 42.574632403615766], [0.7703216088129428, 42.57463477413156], [0.770443366047389, 42.574637144518086], [0.7704465731304613, 42.57454715520713], [0.7703248160708019, 42.574544784828035], [0.7703280233139559, 42.57445479552288], [0.7702062664437873, 42.57445242502194], [0.7702094738470213, 42.574362435722605], [0.7703312305424045, 42.57436480621614], [0.770452987252493, 42.57436717658039], [0.7705747439772849, 42.57436954681536], [0.7706965007167812, 42.57437191692107], [0.7708182574709795, 42.5743742868975], [0.7709400142398797, 42.574376656744676], [0.7710617710234812, 42.574379026462566], [0.7710649771885177, 42.57428903710966], [0.7711867338120343, 42.57429140669086], [0.7711899397875881, 42.574201417328915], [0.7713116962510195, 42.57420378677342], [0.7713149020370893, 42.574113797402454], [0.7714366583404362, 42.574116166710276], [0.771439863937026, 42.57402617733027], [0.7715616200802876, 42.57402854650139], [0.7715648254873984, 42.573938557112356], [0.7714430695189186, 42.57393618794865], [0.7714462750861131, 42.57384619856541], [0.7714494806386105, 42.573756209180566], [0.771452686176411, 42.57366621979411], [0.7714558916995142, 42.57357623040603], [0.77145909720792, 42.57348624101635], [0.7715808523025031, 42.57348861014296], [0.7715840576214353, 42.57339862074423], [0.7717058125559374, 42.573400989734154], [0.7717090176853973, 42.5733110003264], [0.7718307724598181, 42.57331336917964], [0.7718339773998067, 42.57322337976285], [0.7719557320141467, 42.5732257484794], [0.7720774866431804, 42.57322811706668], [0.7720806912189255, 42.57313812763344], [0.7722024456878768, 42.573140496084044], [0.7721992412869066, 42.5732304855247], [0.7723209959453247, 42.57323285385344], [0.7724427506184341, 42.57323522205291], [0.7724395465523244, 42.57332521150678], [0.7723177917044395, 42.57332284329988], [0.772314587448862, 42.57341283274472], [0.7721928324408915, 42.57341046440116], [0.7721896279958453, 42.573500453836964], [0.7720678728277894, 42.573498085356704], [0.7720646681932732, 42.57358807478348], [0.7721864235361077, 42.57359044327115], [0.7721832190616771, 42.573680432703725], [0.7721800145725539, 42.57377042213471], [0.7723017702796394, 42.57377279050795], [0.7722985659506048, 42.573862779944726], [0.7724203218471623, 42.573865148196106], [0.7724171176782184, 42.57395513763867], [0.7725388737642487, 42.57395750576821], [0.7725356697553952, 42.57404749521658], [0.7726574260308983, 42.57404986322426], [0.7726606298649688, 42.57395987376847], [0.7727823859803794, 42.573962241639464], [0.7727791823210912, 42.574052231102684], [0.7729009386259726, 42.57405459885181], [0.7728977351267788, 42.57414458832081], [0.7730194916211311, 42.574146955948095], [0.7731412481301708, 42.57414932344609], [0.7731444512797975, 42.57405933396226], [0.7732662076287391, 42.574061701323586], [0.7732694105888965, 42.573971711830715], [0.773391166777741, 42.573974079055354], [0.7733943695484303, 42.573884089553474], [0.7733975723044351, 42.57379410004997], [0.7734007750457559, 42.57370411054484], [0.7735225307249408, 42.57370647761797], [0.7736442864188091, 42.57370884456183], [0.7737660421273612, 42.573711211376406], [0.7738877978505936, 42.57371357806173], [0.7738845958083964, 42.57380356759648], [0.7737628399103822, 42.57380120090376], [0.7737596376787221, 42.573891190429514], [0.7738813937515178, 42.57389355712964], [0.7738781916799581, 42.573983546661175], [0.7737564354323803, 42.57398117995362], [0.7736346791994835, 42.57397881311681], [0.7736314767636755, 42.574068802631906], [0.7736282743131849, 42.5741587921454], [0.773625071848011, 42.57424878165726], [0.7736218693681539, 42.574338771167525], [0.7737436263001879, 42.574341138033994], [0.7737468286052596, 42.57425114851631], [0.7738685853771899, 42.57425351524609], [0.7738717874927944, 42.574163525719406], [0.7739935441046216, 42.57416589231249], [0.7739967460307596, 42.574075902776784], [0.7741185024824833, 42.5740782692332], [0.7741217042191576, 42.57398827968845], [0.774124905941152, 42.573898290142104], [0.7742466620579896, 42.57390065645442], [0.7742498635905224, 42.573810666899035], [0.7743716195472572, 42.57381303307468], [0.7743748208903303, 42.57372304351027], [0.7744965766869611, 42.57372540954923], [0.7744997778405753, 42.5736354199758], [0.7746215334771026, 42.57363778587809], [0.7747432891283065, 42.5736401516511], [0.774746489917684, 42.573550162061245], [0.7747496906923869, 42.573460172469765], [0.7748714460087078, 42.57346253809869], [0.7749932013397018, 42.57346490359834], [0.7751149566853706, 42.57346726896873], [0.7751117564350056, 42.573557258582426], [0.7751085561699677, 42.5736472481945], [0.7751053558902565, 42.57373723780497], [0.7752271117749386, 42.5737396030683], [0.7752239116553362, 42.57382959268456], [0.7751021555958727, 42.57382722741382], [0.7749803995510823, 42.57382486201381], [0.7749771990672428, 42.57391485161364], [0.774973998568729, 42.57400484121186], [0.7749707980555414, 42.57409483080847], [0.7750925546246807, 42.5740971962307], [0.7752143112084945, 42.57409956152366], [0.7753360678069809, 42.57410192668736], [0.7753392677958164, 42.57401193706853], [0.77534246776998, 42.57392194744809], [0.775345667729472, 42.57383195782603], [0.7753488676742926, 42.57374196820236], [0.7754706235883189, 42.57374433320715], [0.7755923795170151, 42.57374669808269], [0.7757141354603811, 42.573749062828924], [0.7757173348661864, 42.57365907318143], [0.7758390906494406, 42.573661437791], [0.7758358914184168, 42.573751427445906], [0.7759576473911207, 42.57375379193362], [0.7759608464473627, 42.57366380227131], [0.7759640454889376, 42.57357381260739], [0.7759672445158453, 42.57348382294186], [0.7760889999788749, 42.57348618727808], [0.7760858011267474, 42.57357617695102], [0.7762075567792227, 42.57357854116538], [0.7763293124463645, 42.573580905250466], [0.7763325109489323, 42.57349091556272], [0.7763357094368349, 42.573400925873365], [0.7762139541192525, 42.57339856180308], [0.7760921988163361, 42.573396197603536], [0.7760953976391308, 42.573306207927374], [0.7760985964472598, 42.5732162182496], [0.7762203514006202, 42.573218582434336], [0.7762235500193053, 42.573128592747544], [0.7763453048125541, 42.573130956795616], [0.7764670596204678, 42.57313332071442], [0.7764702578749357, 42.573043331011206], [0.7765920125227375, 42.573045694793336], [0.7765952105877659, 42.57295570508111], [0.776598408638132, 42.57286571536726], [0.7767201629510456, 42.572868079005325], [0.7767233608119747, 42.57277808928247], [0.7767265586582419, 42.572688099558015], [0.7768483126362705, 42.572690463052005], [0.7769700666289598, 42.57269282641672], [0.7769732641110205, 42.572602836675834], [0.7770950179435979, 42.57260519990389], [0.7770982152362267, 42.572515210153995], [0.777101412514196, 42.572425220402486], [0.7769796590311614, 42.57242285718923], [0.7769828564692417, 42.57233286744351], [0.7769860538926621, 42.57224287769616], [0.7769892513014228, 42.57215288794722], [0.7768674983573556, 42.5721505246269], [0.7768706959262247, 42.57206053488374], [0.7768738934804326, 42.57197054513897], [0.7768770910199806, 42.571880555392575], [0.7768802885448681, 42.57179056564457], [0.7768834860550954, 42.57170057589496], [0.7768866835506618, 42.57161058614374], [0.7767649316698488, 42.57160822273857], [0.7767681293255196, 42.571518232993114], [0.7766463776341301, 42.571515869466076], [0.7766495754499009, 42.571425879726426], [0.7765278239479345, 42.57142351607754], [0.7765310219238052, 42.57133352634368], [0.7764092706112627, 42.571331162572925], [0.7764124687472307, 42.57124117284485], [0.7764156668685362, 42.57115118311516], [0.7764188649751791, 42.57106119338387], [0.7762971142015772, 42.57105882950606], [0.7763003124683149, 42.57096883978055], [0.7761785618841345, 42.570966475780885], [0.7761817603109654, 42.570876486061174], [0.7761849587231315, 42.57078649633984], [0.7760632085031283, 42.57078413222572], [0.7760664070753855, 42.57069414251018], [0.7761881571206337, 42.57069650661689], [0.7761913555034727, 42.57060651689232], [0.776194553871647, 42.570516527166156], [0.7761977522251577, 42.57042653743836], [0.7763195017608094, 42.57042890139361], [0.7763226999249042, 42.570338911656805], [0.7764444493004666, 42.57034127547539], [0.7764476472751471, 42.57025128572958], [0.7764508452351656, 42.570161295982146], [0.7765725942758883, 42.57016365965667], [0.7765757920464953, 42.570073669900225], [0.7765789898024407, 42.56998368014217], [0.7767007385083265, 42.56998604367264], [0.776822487228872, 42.56998840707384], [0.7768256846206597, 42.56989841729938], [0.776947433181116, 42.56990078056394], [0.776950630383497, 42.56981079078045], [0.7770723787838644, 42.56981315390834], [0.7770755757968405, 42.56972316411584], [0.7771973240371186, 42.56972552710709], [0.7772005208606904, 42.56963553730558], [0.7773222689408792, 42.56963790016018], [0.7773254655750481, 42.56954791034966], [0.7773286621945625, 42.569457920537516], [0.7774504099399165, 42.569460283248056], [0.7774536063700306, 42.56937029342691], [0.7774568027854902, 42.569280303604145], [0.7773350553896227, 42.56927794090839], [0.7772133080084108, 42.56927557808339], [0.7772101112434651, 42.56936556789137], [0.777088363702167, 42.56936320492971], [0.7769666161755254, 42.569360841838815], [0.7768448686635434, 42.56935847861865], [0.776723121166219, 42.56935611526925], [0.7767199236876426, 42.569446105046], [0.7765981760302346, 42.56944374155994], [0.7764764283874872, 42.56944137794463], [0.7764732305447625, 42.56953136770497], [0.7764700326873765, 42.56962135746369], [0.7763482847098018, 42.56961899370432], [0.7762265367468895, 42.569616629815705], [0.7761047887986395, 42.56961426579783], [0.77610798718026, 42.569524276061316], [0.7759862394214192, 42.56952191192159], [0.7758644916772428, 42.56951954765262], [0.7758676903936874, 42.5694295579293], [0.7758708890954661, 42.56933956820436], [0.77587408778258, 42.56924957847781], [0.7757523405772978, 42.5692472141018], [0.7756305933866817, 42.56924484959653], [0.7755088462107321, 42.56924248496201], [0.7753870990494508, 42.569240120198245], [0.7753902984208638, 42.56915013049969], [0.7752685514489913, 42.56914776561409], [0.7752717509804761, 42.569057775921344], [0.7751500041980135, 42.56905541091388], [0.7751532038895685, 42.56896542122694], [0.775156403566454, 42.56887543153835], [0.7752781499994392, 42.568877796531005], [0.7753998964470932, 42.568880161394404], [0.7755216429094154, 42.56888252612855], [0.7755248420474179, 42.56879253641614], [0.7755280411707529, 42.56870254670213], [0.7755312402794207, 42.5686125569865], [0.7754094943413103, 42.56861019227457], [0.7752877484178671, 42.56860782743339], [0.7752909478613388, 42.56851783773097], [0.7752941472901422, 42.56842784802692], [0.7752973467042769, 42.56833785832126], [0.7753005461037432, 42.568247868613994], [0.7753037454885413, 42.56815787890511], [0.7754254905383152, 42.56816024370927], [0.7755472356027571, 42.56816260838418], [0.7755504346234244, 42.56807261865887], [0.7756721795278013, 42.56807498319712], [0.7757939244468441, 42.56807734760613], [0.775797123103383, 42.5679873578644], [0.7758003217452567, 42.567897368121066], [0.7758035203724665, 42.567807378376095], [0.7756817759776138, 42.56780501398929], [0.7756849747648862, 42.56771502425014], [0.775563230559427, 42.56771265974151], [0.7755664295067617, 42.56762267000814], [0.775444685490697, 42.56762030537766], [0.7753229414892988, 42.56761794061794], [0.7753261407714206, 42.56752795089778], [0.7752043969594168, 42.56752558601622], [0.775082653162082, 42.567523221005416], [0.7750794535305068, 42.56761321071078], [0.7749577095731147, 42.56761084556333], [0.7748359656303925, 42.56760848028664], [0.7748327656346942, 42.567698469975575], [0.7747110215319161, 42.56769610456223], [0.7745892774438099, 42.56769373901964], [0.7745924777889626, 42.56760374934552], [0.7744707338902552, 42.567601383681094], [0.7743489900062218, 42.567599017887446], [0.7742272461368631, 42.567596651964536], [0.77422404526753, 42.567686641616426], [0.7741023012381197, 42.567684275556864], [0.7740991001793851, 42.56777426519973], [0.7739773559899226, 42.56777189900352], [0.7738556118151367, 42.56776953267806], [0.7738588132233262, 42.56767954305001], [0.7738620146168377, 42.56758955342035], [0.7738652159956726, 42.567499563789085], [0.7737434723597435, 42.56749719735661], [0.7737466738986263, 42.56740720773112], [0.7737498754228304, 42.56731721810402], [0.7737530769323562, 42.56722722847531], [0.7737562784272046, 42.56713723884499], [0.7737594799073755, 42.567047249213054], [0.7736377371597399, 42.56704488268841], [0.7736409387999537, 42.566954893062274], [0.7735191962417174, 42.56695252641578], [0.7733974536981609, 42.56695015964005], [0.7732757111692831, 42.56694779273509], [0.7732789133189779, 42.56685780312956], [0.7731571709795013, 42.56685543610276], [0.7731539686550876, 42.56694542570089], [0.7730322261555727, 42.56694305853745], [0.7729104836707403, 42.566940691244746], [0.772907280982204, 42.56703068082641], [0.7727855383373349, 42.567028313397074], [0.77266379570715, 42.567025945838495], [0.772660592654489, 42.56711593540372], [0.7725388498642682, 42.56711356770848], [0.7725356466222004, 42.56720355726468], [0.7724139036719445, 42.567201189432794], [0.7724107002404687, 42.56729117897994], [0.7724074967943059, 42.56738116852551], [0.7725292400940074, 42.567383536372226], [0.7726509834083959, 42.567385904089704], [0.7727727267374687, 42.56738827167794], [0.7728944700812265, 42.56739063913694], [0.7728912673192729, 42.56748062871054], [0.7728880645426359, 42.56757061828252], [0.7728848617513155, 42.56766060785287], [0.7728816589453109, 42.567750597421636], [0.772878456124622, 42.56784058698878], [0.7730002003566925, 42.567842954355605], [0.7729969976960483, 42.56793294392855], [0.77311874211753, 42.567935311173535], [0.7732404865536937, 42.567937678289276], [0.7732372842278252, 42.56802766787543], [0.7733590288534002, 42.56803003486934], [0.7733558266875784, 42.568120024461294], [0.7732340818872733, 42.56811765745997], [0.7731123371016496, 42.5681152903294], [0.7729905923307094, 42.568112923069584], [0.772987389626015, 42.56820291263769], [0.7731091345716862, 42.56820527990491], [0.7731059320270396, 42.5682952694788], [0.7732276771621251, 42.5682976366242], [0.7732244747775278, 42.56838762620391], [0.7732212723782489, 42.56847761578199], [0.7730995268936979, 42.56847524862177], [0.7730963243050027, 42.56856523819082], [0.7729745786604011, 42.568562870893935], [0.7728528330304829, 42.568560503467815], [0.7728496300776344, 42.568650493020435], [0.7728464271101021, 42.568740482571435], [0.7727246811453987, 42.568738115001246], [0.7726029351953811, 42.56873574730179], [0.7724811892600498, 42.56873337947308], [0.7724843927517876, 42.56864338994432], [0.7723626470058785, 42.56864102199379], [0.7722409012746573, 42.56863865391401], [0.7722376974334488, 42.568728643427946], [0.7721159515421813, 42.56872627521149], [0.7719942056656035, 42.5687239068658], [0.7719974098562813, 42.568633917366704], [0.7721191555581246, 42.56863628570498], [0.7721223595593781, 42.56854629619685], [0.7722441051011766, 42.56854866439846], [0.7722473089130074, 42.568458674881306], [0.7723690542947609, 42.568461042946254], [0.7724907996912022, 42.568463410881954], [0.7726125451023304, 42.56846577868842], [0.7726157483752746, 42.568375789147396], [0.7726189516335327, 42.56828579960477], [0.772497206571869, 42.56828343181314], [0.7723754615248924, 42.56828106389227], [0.7722537164926032, 42.56827869584215], [0.7721319714750018, 42.568276327662794], [0.7721287675178169, 42.568366317175766], [0.7721255635459422, 42.56845630668711], [0.7720038181935659, 42.568453938363675], [0.7718820728558806, 42.56845156991098], [0.7717603275328864, 42.56844920132905], [0.7716385822245835, 42.568446832617866], [0.771635377539087, 42.56853682209793], [0.7715136320707436, 42.568534453250095], [0.7713918866170938, 42.56853208427299], [0.7713886815674369, 42.56862207373663], [0.7712669359537478, 42.56861970462287], [0.7711451903547542, 42.568617335379855], [0.771141984940934, 42.56870732482704], [0.771020239181902, 42.56870495544736], [0.7710170335786513, 42.5687949448855], [0.7708952876595804, 42.56879257536915], [0.7707735417552086, 42.568790205723566], [0.7706517958655337, 42.56878783594873], [0.7705300499905589, 42.56878546604466], [0.7705268436736687, 42.568875455451504], [0.770523637342079, 42.568965444856715], [0.770401891132332, 42.56896307480855], [0.7702801449372861, 42.568960704631124], [0.7701583987569427, 42.568958334324456], [0.7701551918864421, 42.569048323705786], [0.7701519850012377, 42.569138313085524], [0.7700302384861218, 42.56913594263476], [0.7699084919857101, 42.56913357205474], [0.7697867455000024, 42.56913120134549], [0.7697835380758813, 42.569221190701334], [0.7696617914301405, 42.569218819855394], [0.7696585838165747, 42.569308809202205], [0.7695368370108014, 42.569306438219584], [0.7694150902197355, 42.56930406710773], [0.7692933434433764, 42.56930169586663], [0.7691715966817266, 42.569299324496264], [0.7691683883544957, 42.56938931381176], [0.7690466414328168, 42.569386942304725], [0.7690498499347861, 42.56929695299666], [0.7689281032025557, 42.56929458136781], [0.768806356485036, 42.5692922096097], [0.7688095653217718, 42.569202220314885], [0.768687818793702, 42.569199848434955], [0.7685660722803449, 42.569197476425785], [0.7685628630941326, 42.56928746570574], [0.7684411164207511, 42.569285093559884], [0.7684379070450857, 42.56937508283081], [0.768316160211679, 42.569372710548286], [0.7681944133929868, 42.5693703381365], [0.7680726665890105, 42.569367965595475], [0.7679509197997519, 42.569365592925195], [0.7679477097104143, 42.56945558216478], [0.7678259627611336, 42.569453209357825], [0.7677042158265704, 42.56945083642161], [0.7675824689067267, 42.56944846335615], [0.7674607220016024, 42.56944609016145], [0.7674639327898968, 42.56935610095159], [0.7673421860742327, 42.569353727635054], [0.7672204393732901, 42.56935135418928], [0.7672236504963407, 42.56926136499266], [0.7672268616046684, 42.56917137579443], [0.7671051152679228, 42.56916900223427], [0.7669833689459004, 42.56916662854488], [0.7669865803889799, 42.569076639359885], [0.7668648342564172, 42.56907426554866], [0.7668616226386024, 42.56916425472621], [0.7668584110060623, 42.56925424390214], [0.766736664538751, 42.5692518699468], [0.7666149180861656, 42.569249495862216], [0.766618130068179, 42.569159506701155], [0.7664963838050557, 42.569157132494766], [0.7664931716483054, 42.56924712164838], [0.7664899594768275, 42.5693371108004]], [[0.7686493096849627, 42.570279719777126], [0.7686525188582796, 42.570189730507494], [0.7687742673085145, 42.57019210246913], [0.7687710583099449, 42.570282091746186], [0.7688928069496395, 42.57028446358599], [0.7688895981111055, 42.57037445286886], [0.7687678492966629, 42.57037208102163], [0.7686461004969326, 42.57036970904514], [0.7686493096849627, 42.570279719777126]], [[0.7698218910908599, 42.57156328429634], [0.7698186834444287, 42.57165327361601], [0.7696969320657486, 42.57165090269888], [0.7697001398869401, 42.57156091338661], [0.7698218910908599, 42.57156328429634]], [[0.775118156921062, 42.57337727935342], [0.7752399121066248, 42.57337964458713], [0.7752367120457115, 42.57346963420984], [0.7751149566853706, 42.57346726896873], [0.775118156921062, 42.57337727935342]], [[0.7755955790976014, 42.57365670844259], [0.7755987786635185, 42.57356671880089], [0.7757205342573225, 42.57356908353233], [0.7757173348661864, 42.57365907318143], [0.7755955790976014, 42.57365670844259]], [[0.7761015904023552, 42.56970425553272], [0.7762233385253507, 42.569706619558], [0.7762201402891483, 42.569796609298685], [0.7760983919914072, 42.56979424526602], [0.7759766437083294, 42.56979188110408], [0.77597344510797, 42.56988187082836], [0.7758516966648105, 42.569879506529766], [0.7757299482363175, 42.56987714210192], [0.7756081998224904, 42.569874777544825], [0.7754864514233304, 42.56987241285847], [0.7754832521093156, 42.5699624025515], [0.7753615035500767, 42.56996003772849], [0.7753583040466452, 42.57005002741252], [0.7752365553273269, 42.57004766245284], [0.7751148066226791, 42.570045297363926], [0.7751116067550804, 42.57013528703151], [0.775108406872811, 42.570225276697506], [0.7751052069758709, 42.57031526636187], [0.7749834577616445, 42.57031290112147], [0.7749802576752824, 42.57040289077682], [0.7748585083009764, 42.570400525399755], [0.7748553080251904, 42.57049051504608], [0.7747335584908054, 42.57048814953235], [0.7746118089710939, 42.57048578388937], [0.7746150095963834, 42.570395794257855], [0.7744932602660981, 42.570393428493034], [0.7743715109504876, 42.570391062598944], [0.7742497616495528, 42.570388696575606], [0.7742529627844214, 42.5702987069647], [0.774131213672914, 42.57029634081951], [0.7741344149678555, 42.57020635121441], [0.7741376162481194, 42.57011636160769], [0.7741408175137062, 42.570026371999354], [0.774144018764616, 42.569936382389415], [0.7740222703667807, 42.569934016144614], [0.7740254717777599, 42.569844026540466], [0.7740286731740615, 42.569754036934704], [0.7740318745556853, 42.56966404732733], [0.7739101266967653, 42.5696616809755], [0.7739069251403958, 42.56975167057547], [0.7739037235693484, 42.569841660173815], [0.7739005219836234, 42.56993164977055], [0.7737787736151434, 42.56992928326724], [0.7736570252613436, 42.56992691663468], [0.7735352769222246, 42.56992454987286], [0.7735384790321895, 42.56983456029836], [0.7735416811274733, 42.56974457072225], [0.7734199331525262, 42.569742203846], [0.7732981851922617, 42.56973983684049], [0.7733013876223533, 42.56964984727759], [0.7733045900377632, 42.56955985771308], [0.7733077924384905, 42.56946986814694], [0.7733109948245358, 42.5693798785792], [0.7734327420858277, 42.56938224555504], [0.7734359442824491, 42.56929225597827], [0.7735576913836812, 42.569294622817466], [0.7736794384995935, 42.5692969895274], [0.7738011856301853, 42.56929935610809], [0.7738043872879039, 42.56920936650746], [0.7739261342584343, 42.56921173295149], [0.7740478812436425, 42.569214099266254], [0.774044679935406, 42.5693040888817], [0.7741664271100318, 42.56930645507464], [0.7742881742993346, 42.56930882113832], [0.7742849733259044, 42.56939881076697], [0.7744067207046247, 42.5694011767088], [0.7745284680980201, 42.56940354252139], [0.7745252674593998, 42.56949353216324], [0.7746470150422119, 42.569495897854], [0.7746502155060899, 42.569405908204736], [0.7747719629288327, 42.569408273758825], [0.7748937103662478, 42.569410639183666], [0.7748969104659681, 42.56932064951798], [0.7750186577433127, 42.56932301480616], [0.7751404050353279, 42.56932537996507], [0.7752621523420139, 42.569327744994744], [0.775383899663369, 42.569330109895176], [0.7755056469993927, 42.569332474666346], [0.7755024477733852, 42.56942246436906], [0.7754992485327099, 42.56951245407017], [0.7756209962328877, 42.5695148187269], [0.7756177971522891, 42.56960480843381], [0.7757395450418785, 42.56960717296868], [0.7758612929461335, 42.569609537374326], [0.7759830408650543, 42.5696119016507], [0.7761047887986395, 42.56961426579783], [0.7761015904023552, 42.56970425553272]], [[0.7746086083311297, 42.570575773519266], [0.77448685865134, 42.57057340773962], [0.7744900594660566, 42.57048341811713], [0.7746118089710939, 42.57048578388937], [0.7746086083311297, 42.570575773519266]], [[0.7672172282355175, 42.569441343384284], [0.7670954813745585, 42.569438969801816], [0.7670986926870695, 42.56934898061425], [0.7672204393732901, 42.56935135418928], [0.7672172282355175, 42.569441343384284]], [[0.7720999183648505, 42.57259819100016], [0.7722216717851689, 42.57260055940625], [0.7723434252201782, 42.57260292768308], [0.7724651786698785, 42.57260529583065], [0.7724619747065988, 42.572695285295815], [0.7724587707286298, 42.572785274759354], [0.7724555667359714, 42.5728752642213], [0.7723338127619578, 42.57287289605148], [0.772330608579836, 42.572962885504396], [0.7722088544457404, 42.5729605171979], [0.772087100326337, 42.57295814876213], [0.772090304858004, 42.57286815932406], [0.7719685509280654, 42.57286579076646], [0.7719717556198121, 42.57277580133417], [0.7719749602968646, 42.572685811900286], [0.7720967138772612, 42.57268818044306], [0.7720999183648505, 42.57259819100016]], [[0.7718916638069502, 42.57160356998473], [0.7720134152754655, 42.57160593856776], [0.7721351667586733, 42.571608307021535], [0.7721319624326928, 42.5716982964822], [0.7721287580920212, 42.57178828594126], [0.7720070062592903, 42.57178591747265], [0.7720102107747238, 42.57169592802102], [0.7718884591314477, 42.57169355943057], [0.7718916638069502, 42.57160356998473]], [[0.7716641858187073, 42.57114888525168], [0.771542435268066, 42.57114651631796], [0.7715456403796817, 42.57105652688469], [0.7715488454766021, 42.57096653744979], [0.7716705956777316, 42.570968906368684], [0.7717923458935552, 42.570971275158314], [0.7719140961240718, 42.57097364381868], [0.7720358463692809, 42.570976012349796], [0.7720326419713824, 42.57106600181435], [0.7719108915514177, 42.57106363327582], [0.7719076869640711, 42.57115362273135], [0.7719044823620327, 42.57124361218524], [0.771782731607247, 42.57124124350262], [0.7717859363840426, 42.57115125405613], [0.7716641858187073, 42.57114888525168]], [[0.7714270952901675, 42.57096416840165], [0.7714303005471478, 42.57087417897258], [0.7714335057894323, 42.5707841895419], [0.7714367110170213, 42.570694200109585], [0.7715584606791946, 42.57069656913547], [0.7716802103560629, 42.57069893803211], [0.7716834152194524, 42.570608948583356], [0.7718051647362616, 42.570611317343314], [0.7718019600476247, 42.570701306799485], [0.7717987553442948, 42.570791296254036], [0.771795550626271, 42.57088128570698], [0.771673800585203, 42.57087891692477], [0.7715520505588279, 42.57087654801331], [0.7715488454766021, 42.57096653744979], [0.7714270952901675, 42.57096416840165]], [[0.7713149613695434, 42.57069183095443], [0.7713181667571887, 42.570601841527946], [0.771439916229915, 42.570604210675675], [0.7714367110170213, 42.570694200109585], [0.7713149613695434, 42.57069183095443]], [[0.7703858583801829, 42.569413021773336], [0.7705076054636226, 42.56941539185863], [0.7705043990438308, 42.569505381254146], [0.7705011926093372, 42.569595370648074], [0.77062294005696, 42.56959774061896], [0.7706197337825088, 42.569687730018686], [0.7706165274933571, 42.569777719416805], [0.7704947796962479, 42.569775349431076], [0.7703730319138392, 42.56977297931611], [0.7703762385524774, 42.56968298993284], [0.7703794451764148, 42.569593000547954], [0.7703826517856491, 42.56950301116146], [0.7703858583801829, 42.569413021773336]], [[0.7665956458848314, 42.56978943079468], [0.7664738983985332, 42.569787056536235], [0.7664771106436464, 42.5696970673923], [0.7664803228740326, 42.56960707824675], [0.7666020700108482, 42.56960945249032], [0.7665988579552027, 42.56969944164331], [0.7667206052814856, 42.569701815765065], [0.7667173933858552, 42.56979180492388], [0.7667141814755002, 42.569881794081056], [0.7665924337997331, 42.569879419944435], [0.7665956458848314, 42.56978943079468]], [[0.7675760476354561, 42.5696284417859], [0.7675792582784511, 42.569538452571834], [0.7677010053730354, 42.56954082564472], [0.7678227524823382, 42.56954319858836], [0.7679444996063594, 42.569545571402756], [0.7679412894875868, 42.569635560639114], [0.7678195421888244, 42.56963318781729], [0.7676977949047807, 42.56963081486622], [0.7675760476354561, 42.5696284417859]], [[0.7681879938985536, 42.569550316643785], [0.7681847841292633, 42.569640305895014], [0.7680630368010668, 42.569637933331684], [0.768066246745098, 42.56954794408789], [0.7681879938985536, 42.569550316643785]], [[0.7703088960535988, 42.5715727666426], [0.7704306473310438, 42.57157513690602], [0.770552398623191, 42.57157750704018], [0.77067414993004, 42.571579877045075], [0.7707959012515898, 42.57158224692071], [0.7707991074852405, 42.57149225754004], [0.7708023137041906, 42.57140226815773], [0.7708055199084409, 42.57131227877383], [0.7706837691111674, 42.57130990892046], [0.7705620183285947, 42.57130753893783], [0.770440267560723, 42.571305168825944], [0.7704434742745447, 42.57121517946269], [0.7705652248676593, 42.57121754956716], [0.7706869754754748, 42.571219919542365], [0.7708087260979908, 42.57122228938832], [0.7708119322728413, 42.57113230000119], [0.7709336827353007, 42.57113466971047], [0.7709368887206955, 42.571044680314294], [0.771058639023099, 42.571047049886886], [0.7711803893401995, 42.57104941933022], [0.7711771837043158, 42.57113940874124], [0.7710554332124594, 42.57113703929047], [0.7710522273871223, 42.57122702869244], [0.7711739780537351, 42.57122939815062], [0.7711707723884577, 42.571319387558404], [0.7712925232445257, 42.57132175689473], [0.7712893177393084, 42.57141174630832], [0.7711675667084819, 42.57140937696456], [0.7711643610138085, 42.571499366369125], [0.7711611553044377, 42.57158935577206], [0.7711579495803695, 42.57167934517338], [0.771036198039961, 42.5716769756781], [0.7710329921264336, 42.571766965070395], [0.7709112404259613, 42.57176459543844], [0.7707894887401889, 42.571762225677226], [0.7707862824624384, 42.57185221505305], [0.7706645306166047, 42.57184984515516], [0.770542778785472, 42.571847475127996], [0.7705395721434953, 42.57193746448737], [0.770417820152302, 42.57193509432353], [0.7702960681758115, 42.57193272403042], [0.7702992751673137, 42.57184273468588], [0.770302482144112, 42.571752745339744], [0.770305689106207, 42.57166275599198], [0.7703088960535988, 42.5715727666426]], [[0.7701871447908574, 42.57157039624992], [0.7701903518983046, 42.57148040690637], [0.7703121029862868, 42.571482777291614], [0.7703088960535988, 42.5715727666426], [0.7701871447908574, 42.57157039624992]], [[0.7700686008250269, 42.571478036391845], [0.7700718080925292, 42.571388047054086], [0.7701935589910489, 42.57139041756117], [0.7701903518983046, 42.57148040690637], [0.7700686008250269, 42.571478036391845]], [[0.7712957287350457, 42.57123176747954], [0.7714174794310532, 42.5712341366792], [0.7714142741152907, 42.571324126101814], [0.7712925232445257, 42.57132175689473], [0.7712957287350457, 42.57123176747954]], [[0.7700525642669421, 42.57192798305641], [0.7700557716079693, 42.571837993726724], [0.7701775233802896, 42.57184036427093], [0.7701743162140244, 42.571930353608046], [0.7700525642669421, 42.57192798305641]], [[0.7699564720491177, 42.57120569775223], [0.7700782225834186, 42.57120806837373], [0.7700814298068062, 42.57111807903114], [0.7702031801810556, 42.57112044951596], [0.7701999731324236, 42.571210438865975], [0.7701967660690879, 42.571300428214386], [0.7700750153453265, 42.57129805771471], [0.7699532646362688, 42.571295687085794], [0.7699564720491177, 42.57120569775223]], [[0.7699243972588676, 42.57210559101521], [0.7700461495407724, 42.57210796171095], [0.7700429421556294, 42.57219795103579], [0.7700397347557807, 42.57228794035902], [0.769917982124346, 42.57228556964843], [0.7699211896989603, 42.57219558033262], [0.7699243972588676, 42.57210559101521]], [[0.7709433006473891, 42.57086470151711], [0.7709400946913921, 42.5709546909165], [0.7708183445784432, 42.57095232122207], [0.7708215507091949, 42.57086233183009], [0.7708247568252469, 42.57077234243651], [0.7709465065886879, 42.57077471211609], [0.7710682563668287, 42.57077708166643], [0.7710650506002831, 42.57086707107486], [0.7709433006473891, 42.57086470151711]], [[0.7705716379016841, 42.571037570820955], [0.7704498876580823, 42.57103520073133], [0.7704530943277977, 42.57094521136324], [0.7705748443966456, 42.57094758144544], [0.7706965944801943, 42.57094995139838], [0.7706933881599881, 42.571039940781326], [0.7705716379016841, 42.571037570820955]], [[0.7710201683253343, 42.57212692262341], [0.7710169623383125, 42.57221691200763], [0.7708952097640217, 42.57221454233858], [0.7708984159258085, 42.57212455296178], [0.7710201683253343, 42.57212692262341]], [[0.773625005101732, 42.57082681236508], [0.7736218030050261, 42.57091680192924], [0.7735000527436454, 42.570914435085896], [0.7734968504575028, 42.57100442464103], [0.7734936481566784, 42.571094414194555], [0.7733718975604669, 42.57109204720714], [0.7733751000360476, 42.57100205766102], [0.7732533496292754, 42.570999690551744], [0.7731315992371867, 42.57099732331321], [0.7731348020475959, 42.57090733378031], [0.7731380048433217, 42.570817344245796], [0.7731412076243626, 42.57072735470967], [0.7731444103907197, 42.570637365171926], [0.7732661600837905, 42.57063973238081], [0.7733879097915448, 42.570642099460436], [0.7733911121937131, 42.57055210990624], [0.7733943145811986, 42.57046212035045], [0.7735160639541306, 42.570464487285996], [0.773637813341745, 42.570466854092274], [0.7736410153650457, 42.57037686452005], [0.7737627645925887, 42.570379231189676], [0.7738845138348124, 42.57038159773004], [0.7738813121610136, 42.570471587317094], [0.7738781104725363, 42.57056157690253], [0.7738749087693787, 42.57065156648637], [0.773753159002899, 42.57064919992377], [0.7737499571103091, 42.57073918949857], [0.7736282071837561, 42.5707368227993], [0.773625005101732, 42.57082681236508]], [[0.772654208299915, 42.57071788455192], [0.7727759581089978, 42.570720252285234], [0.772779161399614, 42.57063026276974], [0.7729009110486302, 42.5706326303664], [0.7729041141498085, 42.57054264084186], [0.7730258636387578, 42.570545008301835], [0.7730226607123326, 42.57063499783379], [0.773019457771222, 42.57072498736412], [0.7728977079327672, 42.57072261988931], [0.7728945048022188, 42.5708126094106], [0.7727727548036954, 42.57081024179912], [0.7726510048198583, 42.570807874058396], [0.772654208299915, 42.57071788455192]], [[0.7740927969887625, 42.571376215954885], [0.7739710457948731, 42.57137384959152], [0.7739742474407068, 42.57128386001319], [0.7740959984598367, 42.571286226369146], [0.7742177494936453, 42.571288592595856], [0.7742145481973299, 42.571378582189], [0.7740927969887625, 42.571376215954885]], [[0.7742690724774681, 42.573270729532865], [0.7742722739072507, 42.5731807399662], [0.7743940286405339, 42.573183106089964], [0.7743972298808623, 42.573093116514265], [0.7744004311065137, 42.57300312693696], [0.7744036323174884, 42.572913137358036], [0.7744068335137857, 42.572823147777484], [0.7745285875626473, 42.57282551374236], [0.774650341626186, 42.572827879577964], [0.7747720957043996, 42.572830245284294], [0.7748938497972884, 42.57283261086136], [0.774890649300085, 42.57292260047154], [0.7748874487882073, 42.573012590080104], [0.7748842482616561, 42.57310257968705], [0.7748810477204303, 42.57319256929237], [0.7747592929284428, 42.57319020368567], [0.7746375381511297, 42.57318783794971], [0.7745157833884936, 42.57318547208447], [0.7745125823082631, 42.57327546166597], [0.7743908273855271, 42.57327309566404], [0.7743876261158433, 42.57336308523652], [0.7743844248314813, 42.573453074807375], [0.774262669573867, 42.57345070866138], [0.7742658710330069, 42.57336071909793], [0.7741441159648496, 42.57335835283006], [0.7741473175840874, 42.57326836327242], [0.7742690724774681, 42.573270729532865]], [[0.7751437582783817, 42.57265736237289], [0.7751405581600702, 42.5727473520011], [0.7750188042126075, 42.57274498668996], [0.7750220045056908, 42.572654997069165], [0.7751437582783817, 42.57265736237289]], [[0.7750506561862023, 42.56842311798645], [0.7751724017308375, 42.568425483071316], [0.7751692021273, 42.568515472767956], [0.7750474564079298, 42.56851310767567], [0.77492571070323, 42.568510742454166], [0.7749289106562361, 42.56842075277234], [0.774932110594572, 42.5683307630889], [0.7750538559498039, 42.5683331282956], [0.7750506561862023, 42.56842311798645]], [[0.7764830507461697, 42.57268337218223], [0.7763612968121285, 42.57268100830044], [0.776364495168051, 42.57259101859656], [0.776367693509309, 42.572501028891075], [0.7764894470938064, 42.57250339275806], [0.7764862489273199, 42.572593382470956], [0.7764830507461697, 42.57268337218223]], [[0.7762459399394755, 42.572498664894816], [0.7761241863843072, 42.5724963007693], [0.7761273850604419, 42.57240631107702], [0.776130583721911, 42.57231632138309], [0.7760088305309477, 42.57231395714312], [0.77601202935252, 42.57222396745501], [0.7760152281594256, 42.57213397776528], [0.7761369810008527, 42.57213634199045], [0.7762587338569447, 42.57213870608635], [0.7763804867277005, 42.57214107005299], [0.7763772884450987, 42.57223105976494], [0.7763740901478329, 42.572321049475256], [0.7763708918359027, 42.57241103918397], [0.776367693509309, 42.572501028891075], [0.7762459399394755, 42.572498664894816]], [[0.7762715275397815, 42.57177874725206], [0.7762747259238298, 42.57168875753946], [0.7763964779207574, 42.57169112146909], [0.7763932797114736, 42.57178111118909], [0.7762715275397815, 42.57177874725206]], [[0.7756115767804878, 42.57320676021793], [0.7754898219004661, 42.573204395386846], [0.7754930215678115, 42.57311440574448], [0.7756147762730561, 42.573116770568156], [0.7756115767804878, 42.57320676021793]]]}, "properties": {"area_ha": 33.35, "dnbr_threshold_core": 0.35, "dnbr_threshold_grow": 0.22, "forest_mask": "esa_worldcover_2021_10_20", "part": 3, "fire_id": "591809", "burn_year": 2026, "source": "sentinel", "aoi_source": "effis", "dnbr_threshold": 0.35, "buffer_m": 1200.0, "post_windows": 2, "post_window_dates": [{"start": "2026-08-09", "end": "2026-09-01"}, {"start": "2026-09-01", "end": "2026-09-22"}], "pre_window": {"start": "2026-05-19", "end": "2026-07-26"}, "fire_date": "2026-08-02"}}, {"type": "Feature", "geometry": {"type": "Polygon", "coordinates": [[[0.7697259406132879, 42.56741903258031], [0.7697227332938285, 42.56750902195941], [0.7698444766196814, 42.56751139266427], [0.7698412694602408, 42.56760138204917], [0.769963012975521, 42.56760375263223], [0.7700847565055036, 42.567606123086044], [0.7700815496808092, 42.56769611248417], [0.769959805976101, 42.56769374202293], [0.769838062286097, 42.56769137143245], [0.7697163186107961, 42.56768900071273], [0.7695945749502003, 42.56768662986377], [0.7694728313043101, 42.567684258885556], [0.7694760390026273, 42.567594269524555], [0.7693542955461673, 42.567591898424524], [0.7692325521044139, 42.56758952719526], [0.7692293440566484, 42.56767951654142], [0.7691076004548792, 42.56767714517549], [0.76910439221768, 42.567767134512614], [0.7691011839657722, 42.56785712384813], [0.7689794400292612, 42.567854752338086], [0.7689762315879184, 42.567944741664554], [0.7690979756991555, 42.56794711318201], [0.7692197198251015, 42.56794948457022], [0.7692229279169917, 42.567859495228916], [0.7693446718829196, 42.56786186648045], [0.7693478797853759, 42.5677718771301], [0.7694696235912857, 42.567774248244966], [0.7695913674119013, 42.56777661923059], [0.769588159858897, 42.5678666085958], [0.7694664158635552, 42.567864237602755], [0.7694632081211186, 42.56795422695891], [0.769341463965756, 42.567951855829186], [0.7693382560338856, 42.56804184517632], [0.7692165117185038, 42.56803947390992], [0.7692133035971968, 42.56812946324801], [0.769210095461182, 42.56821945258449], [0.7690883508110511, 42.568217081174], [0.7690851424855982, 42.56830707050144], [0.7690819341454364, 42.568397059827255], [0.7692036791450267, 42.5683994312526], [0.7692004709648865, 42.568489420584235], [0.7691972627700379, 42.56857940991425], [0.7690755174209833, 42.56857703847406], [0.7689537720866381, 42.56857466690461], [0.7689505635276147, 42.56866465621816], [0.7690723090366925, 42.56866702779504], [0.7691940545604804, 42.56866939924265], [0.7691908463362136, 42.56875938856944], [0.7693125920494445, 42.56876175989524], [0.7694343377773826, 42.56876413109179], [0.7695560835200285, 42.56876650215909], [0.7695592912200928, 42.56867651281004], [0.7695624989054513, 42.56858652345936], [0.7696842443133362, 42.568588894382565], [0.7696874518092555, 42.56849890502284], [0.7698091970571131, 42.568501275809375], [0.7698124043635951, 42.568411286440636], [0.7699341494514259, 42.5684136570905], [0.769937356568472, 42.56832366771271], [0.7699405636708156, 42.56823367833329], [0.7699437707584551, 42.568143688952276], [0.7699469778313909, 42.56805369956963], [0.7700687222350057, 42.568056070060564], [0.770190466653323, 42.568058440422256], [0.7701936733621, 42.56796845102315], [0.7701968800561745, 42.56787846162245], [0.7702000867355476, 42.56778847222012], [0.7702032934002195, 42.56769848281617], [0.7702065000501889, 42.56760849341062], [0.7703282436095759, 42.56761086360595], [0.7704499871836635, 42.567613233672034], [0.7704467808831433, 42.56770322309244], [0.7705685246466556, 42.567705593036706], [0.7706902684248671, 42.56770796285173], [0.7706934743759366, 42.56761797341649], [0.7706966803123088, 42.56752798397964], [0.7708184237557694, 42.567530353650575], [0.7709401672139261, 42.56753272319227], [0.7709433727861522, 42.567442733738964], [0.7710651160842829, 42.567445103143996], [0.7710683214670898, 42.56735511368166], [0.7711900646051933, 42.56735748295004], [0.7711932697985827, 42.567267493478646], [0.7711964749772767, 42.567177504005656], [0.7713182177806308, 42.56717987312995], [0.7714399605986784, 42.56718224212501], [0.7714431654132374, 42.56709225263555], [0.7714463702131019, 42.5670022631445], [0.7714495749982739, 42.56691227365183], [0.7714527797687541, 42.56682228415753], [0.771331037649585, 42.56681991519214], [0.7712092955451089, 42.56681754609754], [0.771212500650331, 42.56672755661648], [0.7712157057408581, 42.5666375671338], [0.7710939640005101, 42.56663519792478], [0.770972222274858, 42.56663282858652], [0.7709754277001233, 42.56654283911706], [0.7709786331106925, 42.566452849646], [0.7708568917491665, 42.56645048019334], [0.7707351504023368, 42.566448110611454], [0.7706134090702035, 42.56644574090033], [0.7704916677527691, 42.566443371059954], [0.7703699264500329, 42.566441001090354], [0.7703667201658901, 42.56653099052431], [0.7702449787031395, 42.566528620418055], [0.7702417722295816, 42.56661860984298], [0.770120030606816, 42.56661623960005], [0.7699982889987518, 42.5666138692279], [0.7699950821610617, 42.56670385863635], [0.7699918753086695, 42.566793848043204], [0.769870133365875, 42.56679147752696], [0.7697483914377841, 42.56678910688148], [0.7697451842212542, 42.56687909627187], [0.7697419769900201, 42.56696908566066], [0.7697387697440825, 42.56705907504781], [0.7697355624834403, 42.56714906443336], [0.7698573051104056, 42.567151435108535], [0.7698605121963276, 42.56706144571557], [0.7699822546632767, 42.56706381625408], [0.7701039971449285, 42.567066186663354], [0.7701007904084461, 42.567156176071165], [0.7702225330795194, 42.56715854635863], [0.7703442757652939, 42.567160916516855], [0.7704660184657682, 42.56716328654583], [0.7704628122387466, 42.567253275974295], [0.770341069363551, 42.567250905937904], [0.7702193265030558, 42.56724853577226], [0.770216119911891, 42.56733852518427], [0.7702129133060256, 42.567428514594674], [0.7700911701107865, 42.56742614428495], [0.7700943768913749, 42.56733615488197], [0.7699726338855615, 42.56733378445042], [0.7699758408261694, 42.567243795053244], [0.7698540980097799, 42.56724142449989], [0.769732355208094, 42.56723905381728], [0.7697291479180431, 42.56732904319961], [0.7696074049563404, 42.56732667238034], [0.7694856620093425, 42.56732430143184], [0.7694824543551436, 42.5674142907977], [0.7696041974768634, 42.56741666175362], [0.7697259406132879, 42.56741903258031]], [[0.7704692246780912, 42.56707329711573], [0.770590967218545, 42.567075667008055], [0.7705877611809426, 42.56716565644557], [0.7704660184657682, 42.56716328654583], [0.7704692246780912, 42.56707329711573]]]}, "properties": {"area_ha": 2.08, "dnbr_threshold_core": 0.35, "dnbr_threshold_grow": 0.22, "forest_mask": "esa_worldcover_2021_10_20", "part": 4, "fire_id": "591809", "burn_year": 2026, "source": "sentinel", "aoi_source": "effis", "dnbr_threshold": 0.35, "buffer_m": 1200.0, "post_windows": 2, "post_window_dates": [{"start": "2026-08-09", "end": "2026-09-01"}, {"start": "2026-09-01", "end": "2026-09-22"}], "pre_window": {"start": "2026-05-19", "end": "2026-07-26"}, "fire_date": "2026-08-02"}}, {"type": "Feature", "geometry": {"type": "Polygon", "coordinates": [[[0.7742051294792985, 42.57849248820017], [0.7743268945404399, 42.57849485463185], [0.7743236925941471, 42.57858484411814], [0.7743204906331713, 42.578674833602825], [0.7743172886575161, 42.57876482308589], [0.7744390542578132, 42.5787671894105], [0.7744358524423013, 42.57885717889936], [0.7744326506121091, 42.57894716838661], [0.7745544165767395, 42.57894953459675], [0.7746761825560501, 42.578951900677616], [0.7747979485500406, 42.578954266629175], [0.7747947472296508, 42.57904425613704], [0.7747915458945828, 42.57913424564328], [0.7749133122529089, 42.579136611480365], [0.7750350786259121, 42.57913897718815], [0.7751568450135925, 42.57914134276663], [0.7752786114159499, 42.579143708215824], [0.7752818120517018, 42.579053718679944], [0.7754035782939047, 42.579056083992434], [0.7754067787401537, 42.57896609444753], [0.775528544822203, 42.57896845962332], [0.7755253445507828, 42.57905844917563], [0.7755221442646891, 42.57914843872632], [0.7756439107110701, 42.579150803787634], [0.7756407105851325, 42.57924079334413], [0.7756375104445218, 42.579330782899], [0.7757592772552373, 42.579333147845816], [0.7758810440806247, 42.57933551266335], [0.7758842438715733, 42.57924552309366], [0.7760060105368011, 42.57924788777449], [0.7760092101382482, 42.57915789819577], [0.7761309766433164, 42.5791602627399], [0.7762527431630549, 42.57916262715473], [0.7763745096974622, 42.579164991440265], [0.7764962762465382, 42.579167355596496], [0.776493077344414, 42.57925734520482], [0.7766148440829878, 42.57925970923917], [0.7767366108362284, 42.579262073144214], [0.7768583776041352, 42.57926443691997], [0.7769801443867065, 42.57926680056642], [0.7771019111839432, 42.57926916408358], [0.7771051092119127, 42.57917917443825], [0.7772268758489815, 42.57918153781871], [0.7773486425007127, 42.57918390106987], [0.7774704091671057, 42.57918626419174], [0.7775921758481601, 42.579188627184315], [0.7777139425438743, 42.57919099004759], [0.7778357092542482, 42.579193352781566], [0.7779574759792811, 42.57919571538626], [0.7780792427189713, 42.57919807786164], [0.7782010094733195, 42.57920044020773], [0.7783227762423229, 42.57920280242453], [0.778319579962669, 42.57929279214385], [0.7783163836683595, 42.57938278186155], [0.7784381508016834, 42.57938514396385], [0.7784413469211603, 42.57929515423874], [0.7784445430259823, 42.579205164512025], [0.7785663098242961, 42.57920752647023], [0.7785695057396321, 42.5791175367345], [0.7785727016403147, 42.57902754699716], [0.7786944681036206, 42.57902990881127], [0.7786912723777685, 42.579119898556016], [0.7788130390305583, 42.579122260248226], [0.7788098434648849, 42.57921224999875], [0.7786880766372639, 42.57920988829914], [0.7786848808821061, 42.57929987804065], [0.7785631138943064, 42.57929751620434], [0.7785599179496623, 42.57938750593684], [0.7785567219903642, 42.579477495667724], [0.7785535260164117, 42.57956748539701], [0.7785503300278055, 42.57965747512467], [0.7786720977149428, 42.57965983699056], [0.7786689018865182, 42.57974982672399], [0.7787906697631441, 42.579752188467985], [0.7787874740949033, 42.579842178207215], [0.7789092421610193, 42.57984453982928], [0.7790310102417876, 42.579846901322064], [0.7790342055603542, 42.579756911568055], [0.7791559734809366, 42.57975927292413], [0.7792777414161687, 42.57976163415092], [0.7792809363704115, 42.5796716443805], [0.7792841313100043, 42.57958165460847], [0.7794058989102138, 42.579584015691175], [0.7795276665250719, 42.57958637664457], [0.779530861100346, 42.579496386856135], [0.7795340556609713, 42.579406397066094], [0.779655822940808, 42.579408757875406], [0.7797775902352915, 42.57941111855543], [0.7797807844316026, 42.57932112874899], [0.779783978613268, 42.579231138940926], [0.7799057455727302, 42.579233499476864], [0.7800275125468383, 42.5792358598835], [0.7801492795355899, 42.579238220160846], [0.7802710465389854, 42.57924058030889], [0.7802742400066756, 42.579150590469666], [0.7803960068498812, 42.579152950481024], [0.7803928135570234, 42.579242940327646], [0.7805145805897036, 42.5792453002171], [0.7805177737077287, 42.57915531036309], [0.7805209668111133, 42.57906532050745], [0.7806427335087701, 42.57906768025283], [0.7807645002210669, 42.579070039868895], [0.780767692960148, 42.578980049996886], [0.7807708856845906, 42.578890060123264], [0.7808926520618654, 42.57889241959526], [0.7810144184537786, 42.57889477893797], [0.7810176108139221, 42.57880478904796], [0.7810208031594287, 42.57871479915632], [0.7811425692163205, 42.57871715835496], [0.781264335287849, 42.578719517424304], [0.7812675272690616, 42.578629527516284], [0.7812707192356388, 42.57853953760666], [0.7813924849721475, 42.578541896531924], [0.7815142507232911, 42.57854425532791], [0.7816360164890684, 42.57854661399459], [0.7816328250469737, 42.578636603926384], [0.7817545910022123, 42.57863896247116], [0.7818763569720835, 42.578641320886646], [0.7818795480645226, 42.57855133094007], [0.7820013138741976, 42.57855368921888], [0.7820045047771774, 42.578463699263324], [0.7820076956655272, 42.578373709306156], [0.782010886539246, 42.57828371934737], [0.7820140773983343, 42.57819372938697], [0.7821358425233363, 42.578196087506946], [0.7822576076629674, 42.57819844549763], [0.7822607981577776, 42.57810845552084], [0.7822639886379588, 42.57801846554245], [0.7823857534425717, 42.57802082338907], [0.7823889437333008, 42.57793083340169], [0.7823921340094024, 42.57784084341269], [0.782395324270876, 42.57775085342209], [0.7823985145177222, 42.57766086342986], [0.7822767504123944, 42.577658505612774], [0.7822735599907279, 42.57774849559762], [0.7821517957252087, 42.57774613764386], [0.7820300314743179, 42.577743779560805], [0.7819082672380583, 42.57774142134847], [0.7817865030164283, 42.577739063006845], [0.7817833118808509, 42.57782905296053], [0.7817801207306417, 42.577919042912605], [0.7817769295658008, 42.57800903286307], [0.7817737383863277, 42.57809902281191], [0.7816519734800436, 42.57809666431145], [0.7816551648343391, 42.57800667436999], [0.7815334001175106, 42.57800431574762], [0.7815302085883921, 42.578094305681695], [0.7815270170446389, 42.57818429561417], [0.7814052519927971, 42.578181936847734], [0.7814020602595871, 42.57827192677121], [0.7813988685117418, 42.578361916693055], [0.7813956767492619, 42.5784519066133], [0.7812739111875799, 42.57844954769541], [0.7811521456405334, 42.57844718864823], [0.7811489535137659, 42.57853717855209], [0.7810271878065295, 42.57853481936822], [0.78090542211393, 42.578532460055065], [0.7809022296228708, 42.578622449942536], [0.7807804637700824, 42.5786200904927], [0.7807772710895572, 42.578710080371174], [0.7806555050765804, 42.578707720784635], [0.7805337390782425, 42.57870536106882], [0.7805369321084231, 42.578615371205146], [0.7804151662995541, 42.578613011367416], [0.7804183594899213, 42.578523021509504], [0.7802965938705199, 42.578520661549874], [0.7802997872210714, 42.578430671697745], [0.7804215526656468, 42.578433031649986], [0.7804247458267315, 42.57834304178885], [0.7804279389731745, 42.5782530519261], [0.7803061738782489, 42.57825069198863], [0.780309367184875, 42.578160702131676], [0.7804311321049769, 42.57816306206173], [0.7805528970397195, 42.57816542186251], [0.7805560899820583, 42.57807543198914], [0.7805592829097571, 42.57798544211416], [0.7806810475094945, 42.577987801770874], [0.7808028121238717, 42.57799016129828], [0.780924576752887, 42.577992520696405], [0.78104634139654, 42.577994879965225], [0.7810495336103123, 42.577904890059095], [0.7810527258094485, 42.57781490015133], [0.7810559179939475, 42.57772491024197], [0.7809341538747568, 42.5777225509953], [0.7808123897702035, 42.57772019161935], [0.780690625680289, 42.5777178321141], [0.7805688616050132, 42.57771547247957], [0.7804470975443772, 42.577713112715735], [0.7804502905883353, 42.5776231228417], [0.7804534836176531, 42.577533132966046], [0.7804566766323301, 42.57744314308879], [0.780578440168512, 42.57744550283045], [0.780581632993732, 42.577355512944195], [0.7805848258043135, 42.57726552305631], [0.7805880186002551, 42.57717553316681], [0.7805912113815573, 42.57708554327572], [0.7807129742331171, 42.57708790285853], [0.7807097816266286, 42.577177892757014], [0.7808315446676414, 42.577180252217936], [0.7809533077232915, 42.57718261154955], [0.7809501154517949, 42.57727260146121], [0.7808283522213295, 42.5772702421222], [0.7808251597603804, 42.57736023202485], [0.7809469231656614, 42.57736259137126], [0.7809437308648913, 42.57745258127969], [0.7809405385494839, 42.5775425711865], [0.7810623023190366, 42.577544930418384], [0.7811840661032258, 42.57754728952098], [0.7813058299020502, 42.57754964849428], [0.7813090216930044, 42.57745965856532], [0.7814307853316459, 42.57746201740196], [0.7815525489849218, 42.5774643761093], [0.7816743126528299, 42.57746673468735], [0.7816775039046984, 42.5773767447346], [0.7817992674124215, 42.57737910317598], [0.781921030934777, 42.577381461488066], [0.7819242218223801, 42.57729147151892], [0.7818024584748413, 42.57728911321423], [0.7818056495226299, 42.577199123250864], [0.7818088405557867, 42.577109133285894], [0.7819306035536947, 42.57711149157583], [0.7820523665662323, 42.57711384973647], [0.7821741295934003, 42.57711620776782], [0.782170939084689, 42.57720619775495], [0.7822927023013003, 42.577208555664406], [0.7824144655325397, 42.57721091344457], [0.7825362287784065, 42.577213271095445], [0.7826579920389006, 42.577215628617026], [0.782661181848351, 42.57712563860037], [0.7827829449486541, 42.57712799598529], [0.782904708063583, 42.57713035324091], [0.7829078975087783, 42.57704036320788], [0.7829110869393499, 42.57695037317323], [0.783032849719273, 42.576952730284816], [0.7830360389604074, 42.576862740241175], [0.7831578015801403, 42.576865097216086], [0.7831609906318394, 42.57677510716345], [0.7832827530913824, 42.57677746400169], [0.7832859419536469, 42.57668747394006], [0.7834077042529989, 42.576689830641634], [0.7835294665669711, 42.576692187213915], [0.7835326550649925, 42.57660219713592], [0.7836544172187728, 42.57660455357155], [0.7836576055273647, 42.57651456348456], [0.7837793675209533, 42.576516919783515], [0.7837825556401161, 42.57642692968754], [0.7839043174735137, 42.576429285849834], [0.7839075054032498, 42.57633929574485], [0.7839106933183694, 42.57624930563827], [0.7840324548167654, 42.57625166165653], [0.7840292670764544, 42.57634165177049], [0.7841510287642752, 42.576344007666826], [0.7842727904667114, 42.576346363433885], [0.7843945521837615, 42.57634871907166], [0.7843977393996472, 42.57625872893558], [0.784519500956503, 42.57626108443668], [0.7846412625279708, 42.576263439808514], [0.7846444493796277, 42.57617344965605], [0.784647636216672, 42.57608345950199], [0.7847693974531376, 42.57608581472978], [0.7848911587042132, 42.57608816982829], [0.7848943451770327, 42.57599817965786], [0.7848975316352431, 42.57590818948581], [0.7850192925513174, 42.57591054444028], [0.7851410534820012, 42.575912899265475], [0.7852628144272928, 42.57591525396138], [0.7853845753871921, 42.57591760852801], [0.7855063363616986, 42.575919962965344], [0.7855031507775182, 42.576009953174264], [0.7856249119414372, 42.5760123074897], [0.7857466731199614, 42.576014661675835], [0.7857498583545293, 42.57592467145218], [0.7858716193728517, 42.57592702550166], [0.7858748044180096, 42.57583703526903], [0.7858779894485636, 42.57574704503478], [0.7859997501318794, 42.575749398940246], [0.7860029349730262, 42.57565940869701], [0.786124695496141, 42.57566176246581], [0.7861278801478818, 42.57557177221361], [0.7861310647850206, 42.57548178195978], [0.7861342494075584, 42.575391791704334], [0.7862560094208673, 42.575394145321745], [0.786377769448776, 42.57539649880987], [0.786374585175842, 42.57548648908008], [0.7864963453931536, 42.57548884244629], [0.7866181056250644, 42.575491195683234], [0.7866212895483949, 42.5754012053983], [0.786743049620102, 42.57540355849859], [0.7867462333540325, 42.5753135682047], [0.7867494170733651, 42.5752235779092], [0.7868711768100678, 42.57522593086546], [0.7868743603400036, 42.575135940560976], [0.7868775438553425, 42.57504595025488], [0.786880727356085, 42.57495595994716], [0.7868839108422317, 42.57486596963784], [0.7870056698943364, 42.57486832243536], [0.7871274289610374, 42.574870675103604], [0.7871306120829938, 42.57478068477793], [0.7871337951903559, 42.574690694450645], [0.7871369782831228, 42.574600704121764], [0.787140161361296, 42.57451071379125], [0.7871433444248742, 42.574420723459134], [0.7870215862321495, 42.57441837082773], [0.7870247694559258, 42.57432838050138], [0.7870279526651077, 42.5742383901734], [0.7869061948365617, 42.57423603742746], [0.7867844370226116, 42.57423368455224], [0.7867876205667802, 42.5741436942374], [0.7867908040963522, 42.57405370392093], [0.7866690466465796, 42.57405135093118], [0.7866722303363449, 42.57396136062047], [0.7865504730759584, 42.573959007508805], [0.7864287158301703, 42.57395665426787], [0.7863069585989805, 42.573954300897654], [0.7861852013823906, 42.573951947398164], [0.7860634441804006, 42.5739495937694], [0.7860602596166912, 42.57403958404325], [0.7859385022545143, 42.57403723027784], [0.7859416869930127, 42.57394724001136], [0.7858199298202266, 42.57394488612404], [0.7858231147189109, 42.57385489586332], [0.7857013577355145, 42.5738525418541], [0.7857045427943834, 42.573762551599145], [0.7857077278386496, 42.573672561342576], [0.78558597121943, 42.57367020721882], [0.7855827860003783, 42.57376019746802], [0.7854610292209772, 42.57375784320763], [0.7854578438125339, 42.573847833447836], [0.7854546583894868, 42.57393782368644], [0.7855764155184622, 42.57394017796159], [0.7855732302555978, 42.57403016820595], [0.7855700449781285, 42.574120158448714], [0.7854482874995751, 42.574117804158824], [0.7853265300356275, 42.574115449739665], [0.7852047725862855, 42.57411309519123], [0.7850830151515501, 42.57411074051352], [0.7849612577314227, 42.57410838570653], [0.7848395003259034, 42.57410603077027], [0.7847177429349942, 42.57410367570474], [0.7845959855586947, 42.57410132050991], [0.7844742281970064, 42.57409896518583], [0.7843524708499291, 42.574096609732464], [0.7842307135174649, 42.57409425414983], [0.7842275263027055, 42.57418424430985], [0.784105768810065, 42.574181888590566], [0.7839840113320391, 42.574179532741994], [0.7838622538686282, 42.57417717676416], [0.7838590661148849, 42.574267166900434], [0.7837373084913001, 42.57426481078594], [0.783615550882332, 42.57426245454217], [0.783618738985654, 42.57417246442064], [0.7834969815660932, 42.57417010805497], [0.7835001698295864, 42.574080117939225], [0.7836219270743587, 42.57408247429752], [0.7837436843337485, 42.57408483052652], [0.7838654416077545, 42.57408718662627], [0.7839871988963772, 42.57408954259673], [0.7839903864461003, 42.57399955244985], [0.7841121435745486, 42.574001908283655], [0.7841153309348693, 42.57391191812779], [0.7839935739812087, 42.573909562301345], [0.783871817042162, 42.573907206345645], [0.7837500601177312, 42.57390485026066], [0.7836283032079169, 42.57390249404641], [0.7836314912527697, 42.57381250391844], [0.7837532479877973, 42.573814860125324], [0.7837564358432481, 42.57372486998836], [0.7837596236840821, 42.5736348798498], [0.7836378672986248, 42.57363252365767], [0.7836410552996274, 42.57354253352486], [0.7835192991035705, 42.57354017721084], [0.7833975429221319, 42.573537820767555], [0.7833943545715619, 42.573627810885604], [0.7833911662063732, 42.57371780100205], [0.7833879778265659, 42.57380779111686], [0.7832662211353918, 42.573805434522164], [0.783269409689984, 42.573715444414724], [0.7832725982299578, 42.57362545430567], [0.7831508419029722, 42.57362309759646], [0.7831476531882147, 42.573713087698145], [0.7830258967010656, 42.57371073085228], [0.782904140228537, 42.573708373877125], [0.7829009511495882, 42.57379836396244], [0.7828977620560184, 42.57388835404612], [0.7828945729478262, 42.5739783441282], [0.7828913838250116, 42.57406833420867], [0.78276962666796, 42.57406597707473], [0.7826478695255312, 42.574063619811525], [0.782644680038518, 42.57415360987561], [0.7826414905368809, 42.574243599938086], [0.7825197330594991, 42.57424124253084], [0.7823979755967414, 42.574238884994315], [0.7822762181486096, 42.574236527328516], [0.7821544607151031, 42.57423416953343], [0.7820327032962248, 42.57423181160908], [0.7819109458919735, 42.57422945355547], [0.7817891885023515, 42.57422709537256], [0.7817859977625643, 42.574317085381736], [0.7816642402127822, 42.57431472706219], [0.7816610492835755, 42.57440471706236], [0.7815392915736336, 42.574402358606136], [0.7814175338783232, 42.57440000002064], [0.7814207251571096, 42.574310010035234], [0.7812989676512216, 42.57430765132784], [0.7812957761976452, 42.574397641305865], [0.7811740185315996, 42.574395282461815], [0.7811772101599654, 42.57430529249118], [0.7810554526833438, 42.574302933525246], [0.7810522608801878, 42.574392923488496], [0.7809305032434101, 42.57439056438589], [0.7808087456212677, 42.57438820515402], [0.7808055534538965, 42.574478195100895], [0.7808023612718898, 42.57456818504615], [0.7809241192436134, 42.5745705442928], [0.780927311250829, 42.574480554340155], [0.7810490690623972, 42.57448291345015], [0.7811708268885996, 42.574485272430856], [0.7811676352309663, 42.57457526239826], [0.7810458772299722, 42.574572903410164], [0.7810426853829131, 42.574662893368576], [0.7810394935212189, 42.57475288332539], [0.7810363016448904, 42.57484287328057], [0.7810331097539264, 42.57493286323415], [0.7809113510683954, 42.57493050408723], [0.7809081589880011, 42.575020494031804], [0.7809049668929721, 42.57511048397477], [0.7807832078724852, 42.57510812468379], [0.780661448866635, 42.57510576526354], [0.7806582564073767, 42.57519575519011], [0.7806550639334815, 42.57528574511506], [0.7806518714449474, 42.57537573503842], [0.7805301119293429, 42.57537337546672], [0.7805269192513725, 42.57546336538106], [0.7805237265587637, 42.5755533552938], [0.7804019667081991, 42.57555099557804], [0.7803987738261509, 42.57564098548178], [0.7802770138154254, 42.575638625629345], [0.7801552538193408, 42.575636265647624], [0.7800334938378964, 42.575633905536634], [0.7799117338710945, 42.57563154529636], [0.7797899739189349, 42.5756291849268], [0.7796682139814192, 42.575626824427964], [0.7796650200359262, 42.575716814285734], [0.7796618260757888, 42.5758068041419], [0.7795400658033153, 42.57580444349899], [0.779418305545487, 42.57580208272681], [0.7792965453023047, 42.57579972182534], [0.7791747850737689, 42.575797360794596], [0.7790530248598811, 42.57579499963457], [0.7789312646606419, 42.575792638345256], [0.7789280696370471, 42.57588262815546], [0.7788063092776553, 42.57588026672947], [0.7788031140646091, 42.575970256530645], [0.7786813535450645, 42.57596789496799], [0.7785595930401715, 42.57596553327604], [0.7784378325499309, 42.5759631714548], [0.7783160720743421, 42.57596080950431], [0.7781943116134067, 42.57595844742452], [0.7780725511671258, 42.575956085215445], [0.7779507907355, 42.575953722877095], [0.7778290303185303, 42.57595136040945], [0.7777072699162166, 42.575948997812525], [0.7777040731152928, 42.57603898754552], [0.7775823125528342, 42.576036624811934], [0.77757911556245, 42.57612661453592], [0.7774573548398456, 42.57612425166565], [0.7773355941319017, 42.57612188866609], [0.7773323967772504, 42.57621187837365], [0.777210635909162, 42.5762095152374], [0.7772074383650456, 42.57629950493597], [0.7770856773368133, 42.57629714166304], [0.7770824796032305, 42.57638713135259], [0.7769607184148546, 42.576384767942976], [0.7769575204918041, 42.576474757623515], [0.7769543225540909, 42.57656474730243], [0.7770760840920801, 42.57656711072684], [0.7770728863145113, 42.57665710041156], [0.7771946480419702, 42.57665946371409], [0.7771978456447309, 42.57656947402197], [0.7773196072120432, 42.57657183718782], [0.7774413687940159, 42.576574200224385], [0.7774381715408714, 42.57666418993129], [0.7775599333123118, 42.57666655284598], [0.7775567362193169, 42.57675654255868], [0.7775535391116628, 42.57684653226975], [0.7776753012473804, 42.57684889506994], [0.7776721042998788, 42.5769388847868], [0.7775503419893495, 42.57693652197922], [0.7775471448523771, 42.57702651168707], [0.7775439477007463, 42.57711650139331], [0.777422185055253, 42.57711413844165], [0.7773004224244199, 42.577111775360684], [0.7771786598082473, 42.57710941215044], [0.7770568972067371, 42.5771070488109], [0.777053699341195, 42.577197038485934], [0.7769319365795343, 42.577194675009714], [0.7768101738325367, 42.57719231140421], [0.7768069756027054, 42.57728230106282], [0.7768037773582102, 42.57737229071982], [0.7768005790990502, 42.57746228037521], [0.7767973808252259, 42.57755227002898], [0.7767941825367372, 42.57764225968114], [0.7766724189303299, 42.57763989590934], [0.7765506553385877, 42.577637532008254], [0.7765474566857998, 42.577727521643986], [0.7765442580183457, 42.577817511278134], [0.7764224940916351, 42.57781514723293], [0.7763007301795904, 42.577812783058455], [0.7762975311478332, 42.57790277267617], [0.7761757670756384, 42.57790040836498], [0.7760540030181131, 42.57789804392453], [0.7759322389752565, 42.57789567935477], [0.7758104749470708, 42.577893314655725], [0.7756887109335556, 42.57789094982739], [0.7756919108394053, 42.57780096024671], [0.775695110730583, 42.5777109706644], [0.7755733470813762, 42.57770860572159], [0.7755701470153809, 42.57779859529649], [0.775448383206029, 42.57779623021699], [0.7753266194113504, 42.57779386500818], [0.7752048556313461, 42.577791499670106], [0.7752016550262245, 42.57788148922116], [0.775079891086078, 42.577879123746385], [0.774958127160607, 42.57787675814231], [0.7749549261911731, 42.57796674767694], [0.7748331621055604, 42.57796438193617], [0.7748299609466303, 42.57805437146179], [0.7747081967008762, 42.578052005584325], [0.7747049953524486, 42.57814199510091], [0.7745832309465528, 42.57813962908674], [0.7744614665553365, 42.578137262943294], [0.7744582648425883, 42.57822725244344], [0.7743365002912318, 42.578224886163284], [0.7743332983889827, 42.578314875654414], [0.7742115336774861, 42.578312509237556], [0.7742083315857334, 42.57840249871967], [0.7742051294792985, 42.57849248820017]], [[0.7804694485446371, 42.57708318356361], [0.7804726414861132, 42.57699319367829], [0.7805944041482209, 42.57699555338299], [0.7805912113815573, 42.57708554327572], [0.7804694485446371, 42.57708318356361]], [[0.7797935610703883, 42.57896116950708], [0.7796717946500648, 42.57895880886402], [0.7796749889479767, 42.578868819056915], [0.7795532227171296, 42.578866458291955], [0.7794314565009296, 42.578864097397705], [0.7794346511338526, 42.57877410760376], [0.7793128851071294, 42.578771746587606], [0.7791911190950547, 42.57876938544214], [0.7790693530976293, 42.578767024167405], [0.7789475871148541, 42.57876466276336], [0.7789507824324395, 42.57867467299739], [0.7789539777353746, 42.57858468322979], [0.7789571730236587, 42.57849469346059], [0.7789603682972913, 42.578404703689785], [0.7789635635562729, 42.57831471391735], [0.778841798462279, 42.57831235242099], [0.7788449938814334, 42.57822236265435], [0.7787232289769145, 42.57822000103609], [0.7787200333829365, 42.57830999079534], [0.7785982683182452, 42.578307629040395], [0.7784765032682084, 42.578305267156146], [0.7783547382328244, 42.57830290514262], [0.7782329732120956, 42.57830054299979], [0.778229776904169, 42.578390532727845], [0.7781080117232718, 42.578388170448335], [0.7779862465570306, 42.578385808039535], [0.7778644814054466, 42.57838344550143], [0.777742716268521, 42.57838108283404], [0.7776209511462538, 42.57837872003736], [0.777499186038647, 42.578376357111374], [0.777502383395515, 42.57828636742771], [0.7773806184773917, 42.57828400437983], [0.7773838159944216, 42.57819401470197], [0.7773870134967913, 42.57810402502248], [0.7775087780652711, 42.57810638805556], [0.7776305426484105, 42.57810875095933], [0.777633739786477, 42.57801876126343], [0.7776369369098843, 42.577928771565915], [0.7777587011580421, 42.57793113432561], [0.7778804654208579, 42.577933496956], [0.7778836621799669, 42.57784350724208], [0.7780054262826206, 42.577845869735796], [0.7781271903999316, 42.577848232100216], [0.778130386794745, 42.57775824236987], [0.7781335831749032, 42.577668252637935], [0.7781367795404063, 42.577578262904375], [0.7781399758912526, 42.577488273169195], [0.778143172227444, 42.57739828343242], [0.7781463685489791, 42.577308293694024], [0.7782681316320436, 42.577310655884766], [0.7783898947297625, 42.57731301794623], [0.7783866987578572, 42.57740300769942], [0.7783835027712981, 42.57749299745099], [0.7785052662333019, 42.57749535939795], [0.7785020704069052, 42.577585349155314], [0.778498874565855, 42.57767533891107], [0.7786206383921467, 42.577677700743536], [0.7786174427112617, 42.57776769050507], [0.7786142470157241, 42.577857680264984], [0.7786110513055342, 42.57794767002329], [0.7787328156709363, 42.57795003174866], [0.7788545800509905, 42.577952393344724], [0.7788513846757897, 42.578042383116205], [0.7789731492453164, 42.57804474459038], [0.7789699540302856, 42.57813473436765], [0.7790917187892845, 42.57813709571994], [0.7792134835629331, 42.57813945694292], [0.7792166784283195, 42.57804946715086], [0.7792198732790568, 42.5779594773572], [0.7793416377177107, 42.57796183843611], [0.7793384430417951, 42.578051828237165], [0.7794602076699186, 42.57805418919417], [0.7794570131541757, 42.57814417900103], [0.7794538186237863, 42.578234168806254], [0.7795755836162026, 42.578236529648755], [0.7796973486232646, 42.57823889036197], [0.7796941544278763, 42.57832888018037], [0.7798159196244085, 42.57833124077168], [0.7799376848355862, 42.5783336012337], [0.780059450061408, 42.578335961566424], [0.7800562563758479, 42.57842595140539], [0.7800530626756444, 42.57851594124275], [0.780049868960797, 42.578605931078485], [0.7801716347257398, 42.57860829130409], [0.7802934005053259, 42.5786106514004], [0.7802902071254902, 42.578700641249306], [0.7801684411710765, 42.578698281145606], [0.7801652476017701, 42.57878827098551], [0.7800434814871718, 42.578785910745125], [0.780040287728393, 42.57887590057602], [0.7799185214536092, 42.578873540198956], [0.7797967551934699, 42.57887117969257], [0.7797935610703883, 42.57896116950708]], [[0.7808538913819721, 42.57655032284291], [0.7808570837111847, 42.576460332925755], [0.7809788453683425, 42.57646269219828], [0.7809820375081101, 42.57637270227211], [0.7811037990050961, 42.57637506140796], [0.7812255605167177, 42.57637742041452], [0.7813473220429735, 42.57637977929179], [0.781469083583863, 42.57638213803979], [0.781472275009765, 42.57629214808246], [0.7814754664210342, 42.57620215812352], [0.7815972276269424, 42.576204516727465], [0.7817189888474833, 42.57620687520211], [0.7818407500826543, 42.57620923354747], [0.7818375591958058, 42.57629922352858], [0.7818343682943263, 42.57638921350806], [0.7817126067095403, 42.57638685514792], [0.7817094156186223, 42.57647684511841], [0.7817062245130729, 42.57656683508728], [0.7815844625933006, 42.57656447658309], [0.78146270068816, 42.57656211794961], [0.7813409387976537, 42.576559759186836], [0.7812191769217802, 42.57655740029479], [0.7812159851023597, 42.576647390232495], [0.7810942230663118, 42.57664503120378], [0.7810910310574456, 42.5767350211325], [0.7809692688612222, 42.57673266196709], [0.7809724610448986, 42.576642672045764], [0.7809756532139392, 42.57655268212283], [0.7808538913819721, 42.57655032284291]], [[0.7780405877424815, 42.576855982694795], [0.7780437841508955, 42.576765992954115], [0.7781655461704318, 42.576768355229774], [0.7781687423893813, 42.57667836548008], [0.7782905042487631, 42.57668072761904], [0.7782937002782485, 42.57659073786035], [0.7782968962930807, 42.57650074810004], [0.7783000922932585, 42.57641075833811], [0.7783032882787827, 42.576320768574575], [0.7784250494535884, 42.57632313055468], [0.7785468106430468, 42.57632549240549], [0.7785500062643065, 42.576235502625536], [0.7785532018709136, 42.57614551284399], [0.7786749627254136, 42.576147874550735], [0.778796723594566, 42.57615023612818], [0.7789184844783672, 42.57615259757635], [0.7789152893961746, 42.57624258738009], [0.7789120942993328, 42.57633257718222], [0.7789088991878409, 42.57642256698273], [0.7789057040616995, 42.57651255678164], [0.778902508920908, 42.57660254657892], [0.7788993137654664, 42.576692536374594], [0.7788961185953744, 42.576782526168664], [0.7787743564879208, 42.576780164668726], [0.7787711611283684, 42.576870154453786], [0.7786493988607543, 42.576867792817175], [0.7786462033117403, 42.57695778259321], [0.7785244408839678, 42.576955420819914], [0.7784026784708473, 42.57695305891733], [0.7782809160723809, 42.576950696885454], [0.7782777199842783, 42.57704068663771], [0.7781559574256538, 42.57703832446916], [0.7780341948816846, 42.577035962171315], [0.7780373913194109, 42.576945972433855], [0.7779156289649096, 42.57694361001413], [0.7779188255627908, 42.57685362028246], [0.7780405877424815, 42.576855982694795]], [[0.7776625133694208, 42.577208853927736], [0.7776593163632841, 42.577298843638154], [0.7775375533535047, 42.57729648080097], [0.7775407505344551, 42.57720649109796], [0.7776625133694208, 42.577208853927736]], [[0.777255655867414, 42.57837163087154], [0.7773774209456993, 42.57837399405611], [0.7773742233993465, 42.57846398373076], [0.7772524581462369, 42.578461620538796], [0.777255655867414, 42.57837163087154]], [[0.7778389062185705, 42.57910336309023], [0.777717139683027, 42.57910100036365], [0.7775953731621439, 42.57909863750777], [0.7775985704614673, 42.57900864782961], [0.777720336807521, 42.579011010678094], [0.7778421031682345, 42.57901337339727], [0.7778389062185705, 42.57910336309023]], [[0.780751284369204, 42.57600802395088], [0.7808730451376931, 42.57601038331574], [0.7808698528816654, 42.57610037324096], [0.7807480919383712, 42.576098013868716], [0.7807448994929006, 42.57618800378494], [0.7806231383894388, 42.576185644276016], [0.7806263310097146, 42.57609565436717], [0.7805045700956965, 42.57609329473636], [0.7805013773006154, 42.576183284637814], [0.7803796162264314, 42.57618092487032], [0.7803828091963174, 42.57609093497626], [0.7802610483115783, 42.57608857508687], [0.7801392874414801, 42.57608621506821], [0.7801424807463346, 42.57599622518733], [0.7802642414416288, 42.5759985851986], [0.7803860021515637, 42.57600094508059], [0.7805077628761384, 42.5760033048333], [0.780629523615352, 42.57600566445673], [0.780751284369204, 42.57600802395088]], [[0.7819497483965114, 42.57657155170782], [0.7818279864474765, 42.576569193462184], [0.7818311773782167, 42.57647920348593], [0.781952939152442, 42.57648156172417], [0.782074700941297, 42.57648391983314], [0.7820715103601757, 42.57657390982415], [0.7819497483965114, 42.57657155170782]], [[0.780959692222374, 42.577002631721406], [0.781081454943033, 42.57700499090896], [0.7810782628756235, 42.577094980831234], [0.7809564999801508, 42.57709262163628], [0.780959692222374, 42.577002631721406]], [[0.7810846469958062, 42.576915000985096], [0.7812064095562881, 42.57691736003597], [0.7812032176783282, 42.577007349967246], [0.781081454943033, 42.57700499090896], [0.7810846469958062, 42.576915000985096]], [[0.7813185969780598, 42.5771896887687], [0.7813154052310092, 42.57727967870252], [0.7811936419566355, 42.577277319751374], [0.7811968338785017, 42.57718732982494], [0.7813185969780598, 42.5771896887687]], [[0.781763662174421, 42.57494701540086], [0.7817604713175949, 42.57503700539715], [0.7818822302803494, 42.57503936364651], [0.7818790395836901, 42.57512935364857], [0.781757280446139, 42.57512699539183], [0.7816355213232181, 42.57512463700579], [0.7816387123694705, 42.57503464701851], [0.7816419034010919, 42.57494465702961], [0.781763662174421, 42.57494701540086]], [[0.7811325260311505, 42.5755651519334], [0.7812542859695346, 42.575567510873476], [0.7812510943110914, 42.57565750082894], [0.7811293341979064, 42.57565514188147], [0.7811325260311505, 42.5755651519334]], [[0.7835033580784626, 42.57399012782185], [0.7833816010230954, 42.57398777134167], [0.7833847894321404, 42.57389778123007], [0.7835065463127198, 42.57390013770288], [0.7835033580784626, 42.57399012782185]]]}, "properties": {"area_ha": 26.52, "dnbr_threshold_core": 0.35, "dnbr_threshold_grow": 0.22, "forest_mask": "esa_worldcover_2021_10_20", "part": 13, "fire_id": "591809", "burn_year": 2026, "source": "sentinel", "aoi_source": "effis", "dnbr_threshold": 0.35, "buffer_m": 1200.0, "post_windows": 2, "post_window_dates": [{"start": "2026-08-09", "end": "2026-09-01"}, {"start": "2026-09-01", "end": "2026-09-22"}], "pre_window": {"start": "2026-05-19", "end": "2026-07-26"}, "fire_date": "2026-08-02"}}]}
