{"type": "FeatureCollection", "features": [{"type": "Feature", "geometry": {"type": "Polygon", "coordinates": [[[1.4716596376611255, 41.194097474404316], [1.4717788495776454, 41.1940990566874], [1.4717767548983625, 41.19418910392384], [1.471895966987629, 41.19419068608857], [1.4718938724620896, 41.19428073332849], [1.4717746602095774, 41.19427915115878], [1.4717725655112903, 41.19436919839221], [1.471770470803501, 41.194459245624145], [1.4716512582339987, 41.19445766332112], [1.4716491633534596, 41.19454771054657], [1.4716470684634175, 41.194637757770515], [1.4716449735638721, 41.19472780499298], [1.471642878654824, 41.194817852213916], [1.4716407837362726, 41.19490789943336], [1.4716386888082176, 41.19499794665132], [1.4715194752687222, 41.19499636419504], [1.4715173801679124, 41.19508641140649], [1.4713981664746687, 41.195084828821884], [1.4713960712011023, 41.195174876026854], [1.4713939759180306, 41.19526492323034], [1.471391880625454, 41.19535497043232], [1.471272666451956, 41.19535338770939], [1.4712705709866196, 41.19544343490488], [1.4711513566593726, 41.19544185205362], [1.4711492610212753, 41.195531899242624], [1.4711471653736712, 41.19562194643013], [1.4710279507294188, 41.19562036344554], [1.4710258549090516, 41.19571041062655], [1.4711450697165604, 41.19571199361613], [1.4712642845335764, 41.19571357648235], [1.4713834993600985, 41.19571515922521], [1.4715027141961259, 41.19571674184473], [1.4716219290416568, 41.195718324340895], [1.4716240240457394, 41.19562827713495], [1.4717432387375173, 41.19562985950277], [1.4718624534387983, 41.195631441747246], [1.4719816681495814, 41.19563302386837], [1.4719837626543912, 41.19554297664596], [1.4721029772114191, 41.195544558638744], [1.4721050715434714, 41.19545451140987], [1.4722242859467443, 41.19545609327431], [1.4723435003595162, 41.19545767501541], [1.4723455943555572, 41.19536762777506], [1.4724648086145737, 41.19536920938783], [1.4724669024378618, 41.195279162141006], [1.4725861165431215, 41.195280743625425], [1.4725882101936576, 41.195190696372116], [1.4725903038346961, 41.195100649117286], [1.4725923974662372, 41.195010601860986], [1.4724731838507363, 41.195009020391495], [1.4723539702447332, 41.19500743879866], [1.472234756648229, 41.19500585708248], [1.472115543061225, 41.19500427524295], [1.4721176373362745, 41.19491422800506], [1.4721197316018237, 41.19482418076568], [1.4721218258578728, 41.19473413352479], [1.4722410389551253, 41.19473571534938], [1.4722431330384251, 41.194645668102005], [1.4723623459819275, 41.19464724979825], [1.4723644398924793, 41.1945572025444], [1.4723665337935323, 41.194467155289054], [1.472485746420037, 41.194468736852], [1.4724878401483448, 41.19437868959016], [1.4726070526211008, 41.194380271024755], [1.4726091461766642, 41.19429022375645], [1.4726112397227302, 41.19420017648664], [1.4726133332592997, 41.19411012921531], [1.4726154267863727, 41.1940200819425], [1.472496214966598, 41.19401850052782], [1.4724983086474173, 41.19392845325848], [1.4725004023187394, 41.193838405987655], [1.4723811908349485, 41.19383682445958], [1.4722619793606562, 41.19383524280818], [1.4722640733489638, 41.1937451955458], [1.4721448620474122, 41.19374361377602], [1.4721469561894625, 41.19365356651714], [1.4720277450606507, 41.193651984629014], [1.4720256507553595, 41.19374203188292], [1.4720235564405681, 41.193832079135326], [1.4719043449947744, 41.19383049711388], [1.47190225050724, 41.1939205443598], [1.471783038907705, 41.193918962210034], [1.4716638273176723, 41.19391737993691], [1.4716617324941503, 41.194007427171364], [1.4716596376611255, 41.194097474404316]]]}, "properties": {"area_ha": 1.45, "dnbr_threshold_core": 0.35, "dnbr_threshold_grow": 0.22, "forest_mask": "esa_worldcover_2021_10_20", "part": 0, "fire_id": "280768", "burn_year": 2025, "source": "sentinel", "aoi_source": "effis", "dnbr_threshold": 0.35, "buffer_m": 1200.0, "post_windows": 2, "post_window_dates": [{"start": "2025-08-30", "end": "2025-09-22"}, {"start": "2025-09-22", "end": "2025-10-22"}], "pre_window": {"start": "2025-06-09", "end": "2025-08-16"}, "fire_date": "2025-08-23", "severity": "moderada", "severity_method": "threshold_proxy"}}]}
