{"type": "FeatureCollection", "features": [{"type": "Feature", "geometry": {"type": "Polygon", "coordinates": [[[1.2866438238190674, 42.45618452161438], [1.2865222585388127, 42.45618270389775], [1.286524713334004, 42.45609268475824], [1.2866462784403072, 42.45609450246917], [1.2866536422365498, 42.45582444502435], [1.2865320776520965, 42.455822627330484], [1.2865345324022999, 42.45573260818485], [1.286656096812805, 42.455734425873004], [1.2866585513778146, 42.455644406720126], [1.286780115625618, 42.45564622427372], [1.286775206832249, 42.45582626258933], [1.2871399006868143, 42.455831714511135], [1.2871448084364954, 42.45565167616135], [1.2876310656750591, 42.455658943540776], [1.287633518837247, 42.45556892434081], [1.2877550830010414, 42.45557074085782], [1.2877575359780433, 42.45548072165063], [1.2876359719881951, 42.45547890513931], [1.2876408782563744, 42.45529886673171], [1.287884005551528, 42.45530249960271], [1.2878864583208705, 42.45521248038522], [1.2880080218113599, 42.45521429662175], [1.2880104743955216, 42.455124277397026], [1.2881320377233045, 42.45512609349899], [1.2881393948865425, 42.45485603579858], [1.287653143730136, 42.45484877068586], [1.2876555967911707, 42.45475875147208], [1.2875340342041046, 42.454756934877445], [1.2875315809691297, 42.45484695408552], [1.2870453300375104, 42.45483968639561], [1.2870428760955328, 42.45492970557939], [1.2869213132167925, 42.45492788832907], [1.2869188590896306, 42.455017907505606], [1.285946355073026, 42.45500336481857], [1.2859488105917163, 42.45491334568761], [1.2857056850479327, 42.454909708738654], [1.285703229181361, 42.45499972785822], [1.2853385404282547, 42.454994271451255], [1.2853360840286077, 42.455084290552186], [1.2852145209594716, 42.45508247148644], [1.2852120643746276, 42.45517249058016], [1.284968937922237, 42.4551688520507], [1.2849664809782528, 42.45525887113147], [1.284844917595, 42.455257051667736], [1.2848424604658157, 42.455347070741276], [1.2845993333851964, 42.45534343141584], [1.2845968758968658, 42.455433450476434], [1.2849615670565138, 42.45543890928841], [1.2849640240230118, 42.4553488902107], [1.285450278364358, 42.455356166799795], [1.2854429095184359, 42.455626224096704], [1.2855644736537448, 42.455628042938926], [1.2855620175232099, 42.45571806204053], [1.2847110675947797, 42.45570532739898], [1.2847135249429422, 42.45561530833728], [1.2844703968411713, 42.45561166871992], [1.284467939145116, 42.4557016877702], [1.2842248107404928, 42.45569804762599], [1.284219894618812, 42.45587808569915], [1.2839767655634464, 42.45587444501666], [1.2839497222619976, 42.456864654183846], [1.283706589424732, 42.45686101286039], [1.2837041305272834, 42.45695103185498], [1.2835825639515919, 42.45694921099423], [1.283580104868919, 42.45703922998158], [1.2834585381305363, 42.457037408986274], [1.2834560788626381, 42.45712742796638], [1.2833345119615642, 42.4571256068365], [1.2833320525084393, 42.457215625809354], [1.2832104854446738, 42.4572138045449], [1.28320802580632, 42.457303823510514], [1.2829648913646783, 42.45730018058358], [1.282957511338231, 42.45757023743698], [1.2827143758979034, 42.45756659396032], [1.2827119155186193, 42.45765661289697], [1.283076619217907, 42.45766207793578], [1.283079079075302, 42.457572058982], [1.2834437823541331, 42.45757752284386], [1.2834462416783696, 42.457487503871434], [1.2840540798319549, 42.45749660770193], [1.2840491629118458, 42.45767664570231], [1.2841707309242847, 42.4576784660932], [1.2841608976447618, 42.45803854209836], [1.2842824663643269, 42.4580403623832], [1.2842800081902557, 42.45813038138636], [1.2841584392967227, 42.458128561095805], [1.2841559809374201, 42.458218580091724], [1.2840344118811822, 42.4582167596666], [1.2840319533366464, 42.458306778655285], [1.2839103841177038, 42.45830495809558], [1.283907925387933, 42.45839497707703], [1.2836647866359032, 42.4583913355596], [1.2836598684466827, 42.45857137349505], [1.283538298739626, 42.45856955253161], [1.2835284615300862, 42.45892962836128], [1.284987307108962, 42.45895147169064], [1.284989764340548, 42.45886145266707], [1.2851113347046779, 42.45886327210112], [1.2851260768139363, 42.458323157893304], [1.2850045074936425, 42.45832133849345], [1.2850069646464215, 42.458231319459145], [1.2848853955113548, 42.45822949993614], [1.2848903101310758, 42.45804946187433], [1.285376585347136, 42.45805673914753], [1.285381498530086, 42.45787670103396], [1.285624635509783, 42.457880338874524], [1.2856344603488998, 42.45752026258341], [1.285756028159769, 42.45752208128759], [1.2857584841674514, 42.45743206220526], [1.2856369165305452, 42.45743024350679], [1.285649197269971, 42.45698014810069], [1.2858923308154302, 42.456983785311785], [1.2858947865816392, 42.45689376621458], [1.2860163531972884, 42.45689558462112], [1.2860188087782884, 42.45680556551666], [1.286140375231231, 42.45680738378865], [1.286142830627024, 42.45671736467696], [1.2862643969172587, 42.45671918281439], [1.2862693073271838, 42.456539144575004], [1.2866340052216452, 42.45654459817988], [1.2866364598878701, 42.456454579040816], [1.2865148940857565, 42.45645276130709], [1.2865173489146893, 42.45636274217217], [1.2863957832977766, 42.45636092431528], [1.286398238289415, 42.45627090518453], [1.286641369186581, 42.456274540758066], [1.2866438238190674, 42.45618452161438]], [[1.2861477413848594, 42.45653732644898], [1.286150196746903, 42.45644730733271], [1.2862717625152724, 42.45644912545303], [1.2862693073271838, 42.456539144575004], [1.2861477413848594, 42.45653732644898]], [[1.2840565382751132, 42.45740658869943], [1.2840589967070084, 42.4573165696954], [1.2841805640235966, 42.457318390063485], [1.2841781057656634, 42.45740840907321], [1.2840565382751132, 42.45740658869943]]]}, "properties": {"area_ha": 7.68, "dnbr_threshold_core": 0.35, "dnbr_threshold_grow": 0.22, "dnbr_mean": 0.5434, "dnbr_max": 0.8397, "severity": "alta", "severity_method": "dnbr_mean", "forest_mask": "esa_worldcover_2021_10_20", "part": 3, "fire_id": "gencat_250899_2026-07-24", "burn_year": 2026, "source": "sentinel", "aoi_source": "gencat", "dnbr_threshold": 0.35, "buffer_m": 800.0, "post_windows": 2, "post_window_dates": [{"start": "2026-07-31", "end": "2026-08-23"}, {"start": "2026-08-23", "end": "2026-09-22"}], "pre_window": {"start": "2026-05-10", "end": "2026-07-17"}, "fire_date": "2026-07-24"}}, {"type": "Feature", "geometry": {"type": "Polygon", "coordinates": [[[1.2816999829467857, 42.45908233583648], [1.2816950590100251, 42.45926237356468], [1.282059771833114, 42.45926784200481], [1.282057310369747, 42.45935786088376], [1.282300452656153, 42.45936150587755], [1.282297991529466, 42.45945152476637], [1.2825411342089343, 42.45945516925608], [1.2825435949876638, 42.459365150355836], [1.2826651661703314, 42.45936697240166], [1.2826676267638084, 42.45927695349417], [1.282546055755118, 42.45927513145405], [1.2825485165112989, 42.459185112550735], [1.282791658191997, 42.45918875649067], [1.2827867373642732, 42.4593687943186], [1.283029879785975, 42.459372437765865], [1.2830274197031621, 42.45946245668894], [1.2827842769335018, 42.45945881323026], [1.2827818164914575, 42.4595488321404], [1.2826602449495572, 42.459547010212034], [1.2826577843222586, 42.45963702911492], [1.2825362126176512, 42.45963520705196], [1.2825337518050977, 42.4597252259476], [1.282290608081746, 42.45972158142363], [1.2822881469099527, 42.459811600306324], [1.2821665748912094, 42.45980977784531], [1.2821690362369844, 42.45971975896833], [1.2820474644035003, 42.45971793638416], [1.282049925911979, 42.459627917511355], [1.281806782626808, 42.45962427196779], [1.2817993970236463, 42.4598943285473], [1.281920969182538, 42.45989615140066], [1.2819135839998106, 42.460166207983484], [1.2820351566919341, 42.460168030725114], [1.282030233528359, 42.46034806845076], [1.281908660488263, 42.460346245697714], [1.2818988133298155, 42.46070632110774], [1.2817772396050446, 42.460704498202965], [1.2817747776132433, 42.46079451704593], [1.2818963515120043, 42.46079633995642], [1.2818938896829142, 42.46088635880355], [1.282015463766947, 42.46088818159086], [1.2819957701201103, 42.46160833235838], [1.2823604966157611, 42.461613800084095], [1.2823703414414518, 42.461253724644074], [1.282248766627611, 42.46125190222056], [1.2822536893207839, 42.46107186450277], [1.2823752637866364, 42.46107368691485], [1.282377724942314, 42.46098366804794], [1.2826208735598614, 42.46098731247402], [1.2826257951414177, 42.460807274712764], [1.2828689431080955, 42.460810918600465], [1.282856640809576, 42.461261013049224], [1.283221365454045, 42.46126647799976], [1.2832189054825083, 42.461356496902035], [1.2833404805605368, 42.46135831830016], [1.283338020751726, 42.4614483372066], [1.2834595960150226, 42.461450158481526], [1.283452217042962, 42.46172021520877], [1.2835737928395239, 42.46172203637195], [1.2835688738164692, 42.461902074193844], [1.2834472976719062, 42.46190025301926], [1.2834448379694734, 42.46199027192221], [1.2832016853661548, 42.46198662917496], [1.283206605455756, 42.46180659139037], [1.2829634535935284, 42.46180294815039], [1.2829511515449643, 42.46225304254328], [1.2828295747607488, 42.462251220701404], [1.282827114143211, 42.46234123956967], [1.283070268070925, 42.462344883135934], [1.2830653474980505, 42.46252492089069], [1.283186924826829, 42.4625267424919], [1.2831820045568783, 42.46270678025194], [1.2833035822449441, 42.46270860173567], [1.2832962022775054, 42.46297865838133], [1.2830530458685885, 42.462975015250734], [1.283035823113869, 42.463605147290345], [1.2840084587647975, 42.4636197170389], [1.2839961634196764, 42.46406981153514], [1.284117743796847, 42.4640716322022], [1.2841128259279704, 42.46425167000137], [1.2842344066644507, 42.46425349055094], [1.2842368654305012, 42.46416347164641], [1.2843584460042252, 42.464165292061374], [1.284360904584988, 42.46407527314962], [1.284482484995956, 42.464077093429985], [1.284487401775646, 42.46389705559044], [1.2843658217127183, 42.46389523532149], [1.2843707387953878, 42.463715197487225], [1.284613898236433, 42.463718837873415], [1.2846163564128363, 42.463628818942574], [1.2841300382718737, 42.463621537677426], [1.2841398736490999, 42.46326146202999], [1.2843830313049294, 42.46326510287472], [1.2843854897730436, 42.46317508394761], [1.2845070684438422, 42.46317690417093], [1.284504610149741, 42.46326692310374], [1.2846261890058164, 42.46326874320386], [1.284621272731852, 42.463448781076295], [1.2848644311738506, 42.46345242091267], [1.2848619733680053, 42.46354243985799], [1.285348291083198, 42.46354971800678], [1.2853458339621595, 42.46363973697336], [1.2854674135931228, 42.46364155619402], [1.2854551286891496, 42.46409165103245], [1.2853335481880892, 42.46408983178329], [1.2853286337996508, 42.464269869696516], [1.2854502146487552, 42.46427168895708], [1.2854428435037288, 42.46454174583253], [1.2855644248861642, 42.46454356498129], [1.285561967989332, 42.464633583942394], [1.2853188048876671, 42.46462994550456], [1.285316347631524, 42.46471996445273], [1.285073184226842, 42.4647163254879], [1.2850707266113848, 42.46480634442313], [1.2851923084821228, 42.46480816397571], [1.2851898510294326, 42.46489818291513], [1.285311433085459, 42.46490000234449], [1.285308975795538, 42.46499002128806], [1.2854305580368528, 42.46499184059424], [1.2854281009097022, 42.465081859541975], [1.2862791781323089, 42.46509459111574], [1.2862742662806697, 42.4652746290864], [1.287125346491117, 42.4652873544236], [1.287135165276519, 42.46492727831664], [1.2870135830516876, 42.46492546082082], [1.287016037893949, 42.464835441795934], [1.2868944558543944, 42.46483362417691], [1.286889545810565, 42.46501366221376], [1.286646381069086, 42.46501002656619], [1.2866488364446844, 42.46492000755995], [1.2865272542648503, 42.46491818954851], [1.2865346208462272, 42.46464813253761], [1.2866562025039774, 42.46464995053196], [1.2866586578345742, 42.46455993151957], [1.2867802393295482, 42.46456174937931], [1.2867826944748695, 42.46447173035967], [1.286904275807067, 42.46447354808481], [1.2869091857159116, 42.46429351002956], [1.2870307667113086, 42.46429532761442], [1.2870381309681447, 42.46402527050296], [1.2871597114527211, 42.464027087941815], [1.2871621660084838, 42.46393706889589], [1.2878916481079687, 42.46394797078802], [1.2878941016083616, 42.4638579517064], [1.288015681823606, 42.463859768231586], [1.288013228497234, 42.46394978731889], [1.288134808897741, 42.46395160372086], [1.288137262050092, 42.463861584627864], [1.288502002796987, 42.46386703304331], [1.2884995501666985, 42.463957052153376], [1.2891074525063755, 42.46396613029624], [1.2891050007349587, 42.46405614943324], [1.2889834200705304, 42.464054334056776], [1.2889785161459488, 42.46423437231477], [1.2892216781821326, 42.464238002961544], [1.2892192265510387, 42.46432802209962], [1.289462388980205, 42.46433165224216], [1.28946484026325, 42.46424163309272], [1.2897080023892944, 42.46424526270828], [1.2897104533130592, 42.46415524354593], [1.289832034218903, 42.464157058154676], [1.2898344849574148, 42.4640670389851], [1.2901992272202474, 42.46407248202088], [1.2901967770038054, 42.464162501207504], [1.2904399389165429, 42.46416612926489], [1.2904350391460773, 42.46434616765629], [1.2905566204673335, 42.46434798150299], [1.2905590701841545, 42.46425796230237], [1.2906806513426101, 42.46425977601449], [1.2906782017998146, 42.4643497952208], [1.2909213644984472, 42.464353422269696], [1.290918915292481, 42.464443441485834], [1.2905541707392891, 42.464438000702074], [1.2905517210000192, 42.46452801989963], [1.2903085576726259, 42.46452439205458], [1.2903061075740763, 42.464614411239225], [1.28945503506368, 42.464601709681304], [1.2894476810460673, 42.46487176710665], [1.2893260987817035, 42.4648699520657], [1.289323647246005, 42.46495997119873], [1.289809977066972, 42.46496723061185], [1.2898124279065493, 42.46487721145607], [1.290177174868098, 42.46488265464535], [1.2901796251743565, 42.464792635470985], [1.291273865098923, 42.46480895802684], [1.2912885573032293, 42.46426884264157], [1.2911669760886626, 42.46426702957395], [1.2911718737483884, 42.46408699111131], [1.2909287120490145, 42.4640833646121], [1.2909311612100929, 42.463993345389824], [1.29008009683398, 42.46398064862203], [1.2900825472019906, 42.46389062943802], [1.2898393864007516, 42.46388700064134], [1.2898418371055758, 42.46379698146717], [1.2899634173265602, 42.46379879592427], [1.2899658678461359, 42.46370877674287], [1.2896011277389305, 42.46370333300193], [1.2896035787693358, 42.463613313836056], [1.2894819989300796, 42.46361149900363], [1.289489352475965, 42.46334144151388], [1.2893677731699926, 42.46333962656962], [1.2893653218252454, 42.463429645728716], [1.2892437423564886, 42.46342783064987], [1.2892412908264916, 42.46351784980175], [1.2887549723677307, 42.46351058817463], [1.288757424593796, 42.46342056904551], [1.288635845181211, 42.46341875332218], [1.2886382975700568, 42.4633287341972], [1.2885167183427244, 42.46332691835067], [1.288519170894349, 42.46323689922986], [1.2886407499476664, 42.46323871507071], [1.288643202314039, 42.46314869594268], [1.2884000445666721, 42.46314506414346], [1.288402497269836, 42.46305504502526], [1.2881593399154492, 42.46305141272184], [1.2881617929554006, 42.46296139361351], [1.28767547907756, 42.46295412748268], [1.2876828402181106, 42.46268407021677], [1.2874396843907099, 42.46268043641215], [1.2874421384297603, 42.462590417331825], [1.2873205607069351, 42.46258860024187], [1.2873230149087502, 42.462498581165704], [1.2872014373711782, 42.46249676395255], [1.287203891735756, 42.46240674488056], [1.287082314383437, 42.462404927544206], [1.2870847689107758, 42.46231490847637], [1.2869631917437103, 42.46231309101681], [1.2869656464338082, 42.46222307195313], [1.2867224924814307, 42.46221943665875], [1.2867249475082925, 42.46212941760493], [1.2864817939489195, 42.46212578180637], [1.2864842493125404, 42.462035762762405], [1.2862410961461765, 42.462032126459675], [1.2862509188801743, 42.46167205031408], [1.286372494761723, 42.461673868507106], [1.2863774057132145, 42.461493830413694], [1.2862558301796647, 42.46149201223207], [1.2862607414341494, 42.46131197414392], [1.2861391662598467, 42.46131015584481], [1.2861416220442092, 42.46122013680413], [1.2860200470551555, 42.461218318381825], [1.2860225030022612, 42.461128299345305], [1.2861440778173188, 42.461130117761925], [1.286148989329783, 42.46095007967291], [1.2862705638081031, 42.460951897949236], [1.2862779304704324, 42.46068184078709], [1.286156356514091, 42.46068002252787], [1.28615881221969, 42.460590003476455], [1.286037238448591, 42.46058818509403], [1.2860519734898348, 42.46004807078753], [1.285930400773917, 42.46004625231041], [1.2859353127122852, 42.45986621420736], [1.285813740355591, 42.45986439561276], [1.2858186525969149, 42.45968435751498], [1.2856970805994405, 42.45968253880291], [1.2856946243104228, 42.459772557846854], [1.2854514800012717, 42.45976892002466], [1.285456393263984, 42.459588881958], [1.2853348214742568, 42.45958706286498], [1.2853372782627104, 42.45949704383506], [1.2849725634830134, 42.45949158579981], [1.2849750207821515, 42.45940156678546], [1.28473187799994, 42.459397927462305], [1.284726962694483, 42.45957796546668], [1.2843622475617384, 42.45957250548114], [1.2843647057420393, 42.45948248649683], [1.2842431342276297, 42.45948066624961], [1.284240675873348, 42.4595706852282], [1.2841191041962214, 42.459568864846396], [1.2841141871059036, 42.45974890278759], [1.283992615092078, 42.45974708226549], [1.2839901563560394, 42.45983710122809], [1.2838685841794961, 42.459835280571404], [1.2838759608757622, 42.45956522369612], [1.283632817600367, 42.45956158203034], [1.2836352768245514, 42.45947156308026], [1.2833921339421872, 42.45946792091038], [1.2833945935030624, 42.459377901970164], [1.2831514510137336, 42.459374259296176], [1.283156370797589, 42.459194221434], [1.283277941688663, 42.45919604282401], [1.2832877804252245, 42.45883596705841], [1.2831662102300536, 42.45883414569123], [1.2831612905363627, 42.45901418356568], [1.2830397200045134, 42.45901236205819], [1.283042180030969, 42.45892234312744], [1.2829206096843655, 42.458920521496786], [1.2829230698735252, 42.458830502570216], [1.2828014997121684, 42.45882868081641], [1.2828088807339335, 42.458558624044585], [1.2826873111057673, 42.45855680217902], [1.282689771597782, 42.45846678325772], [1.2824466327232125, 42.45846313915139], [1.2824441718832562, 42.45855315806127], [1.2822010327058444, 42.458549513428025], [1.282196110296219, 42.45872955122033], [1.2823176802272314, 42.45873137361281], [1.2823152191794764, 42.45882139251239], [1.2819505088983514, 42.45881592493118], [1.2819480473173992, 42.45890594381207], [1.281583336615858, 42.45890047505386], [1.2815857987187314, 42.4588104561901], [1.2810995186371714, 42.45880316273105], [1.2811019814246556, 42.45871314388861], [1.2808588417995204, 42.458709496397276], [1.2808637680365231, 42.45852945873065], [1.2806206291524151, 42.45852581074668], [1.2806181656916147, 42.458615829569325], [1.2807397353019967, 42.45861765363147], [1.2807348086944792, 42.45879769128359], [1.280613238736153, 42.45879586721002], [1.2806083117355433, 42.458975904844564], [1.2804867414405574, 42.45897408063069], [1.2804842777493468, 42.45906409943995], [1.2806058482183074, 42.459065923659544], [1.2806033846897849, 42.459155942472975], [1.2807249553440083, 42.45915776656941], [1.280717565212647, 42.45942782301768], [1.2809607075988174, 42.45943147085821], [1.2809557814840602, 42.459611508505574], [1.280834209937373, 42.459609684638316], [1.2808366731743743, 42.45951966582111], [1.2807151018129537, 42.459517841830696], [1.280712638401973, 42.45960786064218], [1.280469495365033, 42.459604212263265], [1.280467031594805, 42.459694231061775], [1.280223888255058, 42.459690582155915], [1.2802263523732464, 42.45960056336883], [1.2801047808942874, 42.45959873872831], [1.280117102185771, 42.45914864479847], [1.2798739610015037, 42.459144995187955], [1.2798714964178364, 42.459235013965554], [1.2797499256686642, 42.45923318896126], [1.2797474608997277, 42.459323207731615], [1.2795043190873099, 42.45931955732496], [1.2794870629528283, 42.459949688594335], [1.2797302072009646, 42.45995333908105], [1.279725277471107, 42.46013337659565], [1.2802115674947632, 42.460140676068285], [1.2802041749031026, 42.460410732397285], [1.2804473210265914, 42.460414381394635], [1.2804547125743369, 42.460144325031315], [1.280697857699065, 42.460147973478826], [1.2807052481013104, 42.4598779170674], [1.2805836760552531, 42.45987609292525], [1.2805861396740765, 42.45978607412409], [1.2808292834295134, 42.459789722268106], [1.2808317466890866, 42.45969970345398], [1.2809533184097543, 42.45970152732695], [1.2809508553241622, 42.45979154614679], [1.2811939991473147, 42.45979519351753], [1.2811989246112878, 42.459615155853456], [1.2813204961918276, 42.45961697933408], [1.2813229587329098, 42.45952696049401], [1.2814445301507524, 42.45952878384005], [1.2814494548511093, 42.45934874614392], [1.2812063127226216, 42.45934509934583], [1.2812161633797654, 42.45898502398084], [1.2813377337424625, 42.45898684742144], [1.2813352712690764, 42.45907686627072], [1.2815784123762681, 42.459080512776765], [1.2815808745017032, 42.458990493916076], [1.2819455857251685, 42.45899596269143], [1.2819431241216592, 42.45908598156926], [1.2816999829467857, 42.45908233583648]], [[1.2894795477256558, 42.463701518163816], [1.2893579677236118, 42.4636997031968], [1.289360419102055, 42.46360968404231], [1.2894819989300796, 42.46361149900363], [1.2894795477256558, 42.463701518163816]], [[1.288514265779862, 42.463416937469944], [1.2883926863897512, 42.46341512148881], [1.2883951391266295, 42.46332510237523], [1.2885167183427244, 42.46332691835067], [1.288514265779862, 42.463416937469944]], [[1.2830372599667856, 42.45910238098742], [1.282915689272231, 42.45910055934535], [1.2829181494839348, 42.459010540421836], [1.2830397200045134, 42.45901236205819], [1.2830372599667856, 42.45910238098742]], [[1.2812038500301273, 42.459435118183244], [1.28108227880883, 42.45943329458517], [1.2810847416753024, 42.45934327575347], [1.2812063127226216, 42.45934509934583], [1.2812038500301273, 42.459435118183244]], [[1.289353064933029, 42.4638797415012], [1.289350613520889, 42.4639697606511], [1.2894721940449951, 42.46397157563516], [1.2894697427956445, 42.46406159478923], [1.289226581410621, 42.4640579646808], [1.289231484594177, 42.46387792639391], [1.289353064933029, 42.4638797415012]], [[1.2864719723819336, 42.462485857966854], [1.286476883187927, 42.46230581988968], [1.2868416145878914, 42.46231127342838], [1.2868391597125395, 42.46240129248481], [1.2869607370423646, 42.46240311007895], [1.28695091812451, 42.46276318631219], [1.2868293400986506, 42.462761368695254], [1.2868268851670581, 42.46285138774404], [1.286583728801063, 42.46284775211211], [1.2865812735101994, 42.46293777114796], [1.2867028518615835, 42.46293958903407], [1.286695486443531, 42.4632096461495], [1.2865739075701081, 42.46320782824631], [1.2865714522342444, 42.46329784727602], [1.2864498731980571, 42.46329602923823], [1.2864449621445473, 42.46347606728167], [1.2863233827715803, 42.463474249103584], [1.286320927053932, 42.4635642681173], [1.2861993475181996, 42.463562449804634], [1.2861968916152822, 42.463652468811105], [1.2858321525535534, 42.46364701308261], [1.2858346089785235, 42.46355699409321], [1.2857130294878072, 42.46355517526495], [1.285717942652014, 42.46337513729298], [1.2859611009486371, 42.46337877479781], [1.2859660133717625, 42.4631987367969], [1.2862091710173438, 42.463202373763345], [1.2862288174755139, 42.46248222160715], [1.2864719723819336, 42.462485857966854]], [[1.282757211450976, 42.460449021157274], [1.2827547508849226, 42.46053904005052], [1.282876324351928, 42.460540861912804], [1.2828714035339797, 42.46072089970612], [1.2826282559152835, 42.46071725582983], [1.2826356381692334, 42.46044719917182], [1.282757211450976, 42.460449021157274]], [[1.2825165258015192, 42.46035535817412], [1.2825239084421327, 42.460085301514816], [1.2826454810166548, 42.46008712360631], [1.282638098898, 42.46035718028274], [1.2825165258015192, 42.46035535817412]], [[1.2843597893701741, 42.45966252446392], [1.2843573311673477, 42.45975254344516], [1.2844789032149648, 42.45975436358063], [1.2844739871234891, 42.459934401549916], [1.2842308423435844, 42.45993076112729], [1.2842382175078026, 42.45966070420528], [1.2843597893701741, 42.45966252446392]]]}, "properties": {"area_ha": 20.69, "dnbr_threshold_core": 0.35, "dnbr_threshold_grow": 0.22, "dnbr_mean": 0.6815, "dnbr_max": 1.1523, "severity": "alta", "severity_method": "dnbr_mean", "forest_mask": "esa_worldcover_2021_10_20", "part": 9, "fire_id": "gencat_250899_2026-07-24", "burn_year": 2026, "source": "sentinel", "aoi_source": "gencat", "dnbr_threshold": 0.35, "buffer_m": 800.0, "post_windows": 2, "post_window_dates": [{"start": "2026-07-31", "end": "2026-08-23"}, {"start": "2026-08-23", "end": "2026-09-22"}], "pre_window": {"start": "2026-05-10", "end": "2026-07-17"}, "fire_date": "2026-07-24"}}]}
