{"type": "FeatureCollection", "features": [{"type": "Feature", "geometry": {"type": "Polygon", "coordinates": [[[1.985312142758398, 41.29173764509978], [1.9853149340806184, 41.29155751777992], [1.985553760027363, 41.29155962279403], [1.985559341282345, 41.291199368110355], [1.9856787536085119, 41.29120042041838], [1.9856790758692766, 41.29117961668534], [1.9856059934051296, 41.29114932101402], [1.9854732536114739, 41.29110053032761], [1.9851500303593133, 41.290996197618874], [1.985011589627244, 41.29095745438057], [1.9848471279652835, 41.290918237287684], [1.9848470562882679, 41.29092286069313], [1.984608232716045, 41.29092075423932], [1.9846068361174187, 41.29101081789026], [1.9844874241766453, 41.29100976447428], [1.9844846306320196, 41.291189891765136], [1.9843652183692384, 41.29118883821869], [1.984363821423237, 41.291278901858625], [1.9841249965883523, 41.29127679438756], [1.9841263938627052, 41.291186730754255], [1.983648744925776, 41.29118251433927], [1.9836445511135676, 41.29145270519497], [1.9835251384026726, 41.29145165077166], [1.9835223421677752, 41.29163177799488], [1.9834029291348716, 41.291630723441074], [1.9833959376156323, 41.292081041457116], [1.9835153514694392, 41.29208209602752], [1.9835139533107273, 41.29217215962969], [1.983633367335066, 41.29217321407957], [1.9836389592750956, 41.291812959648894], [1.9837583726490544, 41.29181401396164], [1.9837625660448914, 41.29154382311343], [1.983881978932658, 41.29154487729236], [1.983883376554399, 41.291454813670065], [1.9841222020206137, 41.291456921649804], [1.984116612809005, 41.29181717615683], [1.9838777860293584, 41.29181506815056], [1.983874990728763, 41.29199519538208], [1.9841138181651343, 41.291997303401644], [1.984115215490242, 41.29190723977996], [1.9843540426236281, 41.29190934729749], [1.9843568365980875, 41.29172922003652], [1.984476249845934, 41.291730273602894], [1.9844734561998354, 41.29191040087049], [1.9845928697823856, 41.291911454319646], [1.984595663100123, 41.29173132704541], [1.985312142758398, 41.29173764509978]], [[1.9842374233565836, 41.29172816634631], [1.9842388204984789, 41.29163810271695], [1.9843582335758028, 41.29163915640384], [1.9843568365980875, 41.29172922003652], [1.9842374233565836, 41.29172816634631]], [[1.984241614763238, 41.29145797545388], [1.984361027512206, 41.291459029134145], [1.9843596305471758, 41.29154909276971], [1.9842402176340301, 41.29154803908615], [1.984241614763238, 41.29145797545388]], [[1.983886171778845, 41.29127468642111], [1.9840055841804265, 41.29127574046625], [1.9840041867355527, 41.291365804094774], [1.9838847741697951, 41.291364750046306], [1.983886171778845, 41.29127468642111]]]}, "properties": {"area_ha": 1.234, "dnbr_threshold_core": 0.35, "dnbr_threshold_grow": 0.22, "dnbr_mean": 0.3442, "dnbr_max": 0.5925, "severity": "moderada", "severity_method": "dnbr_mean", "forest_mask": "esa_worldcover_2021_10_20", "part": 0, "fire_id": "gencat_080898_2026-07-08", "burn_year": 2026, "source": "sentinel", "aoi_source": "gencat", "dnbr_threshold": 0.35, "buffer_m": 800.0, "post_windows": 2, "post_window_dates": [{"start": "2026-07-15", "end": "2026-08-07"}, {"start": "2026-08-07", "end": "2026-09-06"}], "pre_window": {"start": "2026-04-24", "end": "2026-07-01"}, "fire_date": "2026-07-08"}}, {"type": "Feature", "geometry": {"type": "Polygon", "coordinates": [[[1.986410433089343, 41.31336551357584], [1.9864146187116754, 41.31309532352047], [1.9865340710179398, 41.31309637539475], [1.9865368610724359, 41.31291624867727], [1.9866563130563224, 41.31291730042097], [1.9866577079097127, 41.312827237056744], [1.9865382560901819, 41.31282618531636], [1.9865424411054091, 41.31255599522488], [1.9867813437646817, 41.31255809856187], [1.9867827384283834, 41.312468035188516], [1.987379994365623, 41.31247329134555], [1.9873786005236844, 41.312563354735445], [1.9879758574409276, 41.31256860781064], [1.9879772504611026, 41.3124785444042], [1.9882161529435811, 41.31248064476012], [1.9882189383075466, 41.31230051792966], [1.9880994873918485, 41.31229946782028], [1.9881036658834146, 41.312029277573586], [1.9879842154670906, 41.3120282273502], [1.9879856084493106, 41.31193816393504], [1.988105058701286, 41.311939214155124], [1.9881078443180555, 41.31175908731384], [1.988227294247661, 41.31176013740337], [1.9882286868822128, 41.31167007397724], [1.9883481366537965, 41.31167112393953], [1.9883495291176783, 41.31158106050864], [1.9884689787312397, 41.3115821103437], [1.9884675864317036, 41.31167217377789], [1.9885870362159328, 41.31167322349234], [1.9885856440744205, 41.3117632869284], [1.9887050940293185, 41.3117643365222], [1.988703702045831, 41.311854399960104], [1.9888231521713968, 41.31185544943329], [1.9888189766760527, 41.31212563974818], [1.9889384273009845, 41.31212668910735], [1.9889370356209122, 41.31221675254606], [1.98881758483163, 41.3122157031836], [1.9888161929808874, 41.31230576661753], [1.989055094894473, 41.312307865225144], [1.9890564864165137, 41.3122178017846], [1.9892953880266742, 41.31221989988987], [1.9892939968333345, 41.31230996333702], [1.9896523497890075, 41.31231310957533], [1.9896509590824056, 41.312403173030944], [1.9897704102446134, 41.312404221532475], [1.989775972375727, 41.31204396768809], [1.9900148734042797, 41.31204606429294], [1.990023214439352, 41.31150568344319], [1.9899037649080002, 41.311504635222526], [1.9899107164186716, 41.311054317824286], [1.990030165128309, 41.31105536602844], [1.990031555247162, 41.310965302541135], [1.9902704523566923, 41.310967398571044], [1.9902718421405527, 41.310877335075695], [1.9905107389466474, 41.3108794306033], [1.9905121283955187, 41.31078936709988], [1.990751024898173, 41.310791462125174], [1.9907524140120574, 41.3107013986137], [1.9909913102112669, 41.31070349313668], [1.990992698990167, 41.310613429617185], [1.9911121469348938, 41.31061447668949], [1.991113535543151, 41.310524413165226], [1.9912329833298459, 41.310525460110306], [1.9912343717674612, 41.3104353965813], [1.9911149241451018, 41.310434349639515], [1.9911163127407472, 41.31034428611236], [1.99099686528903, 41.31034323904995], [1.990999642790073, 41.31016311199785], [1.9907607485628964, 41.310161017514446], [1.990762137632625, 41.31007095399282], [1.9902843499113052, 41.310066763552115], [1.9902829601842433, 41.31015682706053], [1.9876551259078281, 41.310133744121444], [1.9876537325591153, 41.31022380755573], [1.987414838357054, 41.310221706125915], [1.9874134446733451, 41.310311769552136], [1.987174550167932, 41.31030966761999], [1.9871731561492252, 41.31039973103814], [1.9870537087416789, 41.31039867988288], [1.9870523145523065, 41.31048874329625], [1.9869328669867559, 41.310487692013744], [1.9869272895086056, 41.31084794563951], [1.9866883930818033, 41.31084584267623], [1.9866869983677582, 41.31093590607241], [1.9864481016376119, 41.31093380260679], [1.9864453115331602, 41.31111392938156], [1.9865647602237466, 41.31111498118295], [1.986560575512581, 41.31138517134415], [1.9864411263289694, 41.311384119532825], [1.9864397312482354, 41.311474182913656], [1.9858424846035019, 41.31146892198149], [1.985841088694712, 41.31155898534431], [1.9854827402909014, 41.3115558272879], [1.9854799474682354, 41.3117359539893], [1.98536049768429, 41.31173490104934], [1.985359101099099, 41.311824964394546], [1.985239651157149, 41.31182391132734], [1.9852382544012694, 41.311913974667775], [1.985357704507566, 41.3119150277383], [1.9853563079096908, 41.3120050910806], [1.9854757581866769, 41.31200614403051], [1.9854715688480458, 41.31227633405865], [1.9852326673143212, 41.312274228015], [1.9852298737327898, 41.312454354679886], [1.9851104226467404, 41.31245330146553], [1.9851090256821078, 41.31254336479247], [1.9852284769325095, 41.312544418010155], [1.9852270801258864, 41.31263448133897], [1.9849881773027207, 41.312632374773045], [1.984981191530907, 41.313082691362176], [1.9851006437610927, 41.31308374472369], [1.9850992467520532, 41.31317380804047], [1.9852186991529404, 41.31317486128136], [1.9852159054445455, 41.313354987917194], [1.9856937164263861, 41.31335919966792], [1.9856909240074976, 41.313539326324474], [1.9858103770975304, 41.31354037895893], [1.9858089810429365, 41.31363044228836], [1.9859284343036707, 41.313631494802195], [1.9859340178265679, 41.31327124146256], [1.986172923052171, 41.31327334609191], [1.9861715275096727, 41.313363409435624], [1.986410433089343, 41.31336551357584]]]}, "properties": {"area_ha": 9.38, "dnbr_threshold_core": 0.35, "dnbr_threshold_grow": 0.22, "dnbr_mean": 0.5382, "dnbr_max": 0.9653, "severity": "alta", "severity_method": "dnbr_mean", "forest_mask": "esa_worldcover_2021_10_20", "part": 3, "fire_id": "gencat_080898_2026-07-08", "burn_year": 2026, "source": "sentinel", "aoi_source": "gencat", "dnbr_threshold": 0.35, "buffer_m": 800.0, "post_windows": 2, "post_window_dates": [{"start": "2026-07-15", "end": "2026-08-07"}, {"start": "2026-08-07", "end": "2026-09-06"}], "pre_window": {"start": "2026-04-24", "end": "2026-07-01"}, "fire_date": "2026-07-08"}}]}
