{"type": "FeatureCollection", "features": [{"type": "Feature", "geometry": {"type": "Polygon", "coordinates": [[[1.3540269252629786, 41.98949326113064], [1.3540246053592266, 41.989583290733755], [1.3539039277184848, 41.98958155993981], [1.3537832500883318, 41.98957982901906], [1.353780929834189, 41.98966985860978], [1.3536602520447238, 41.9896681275568], [1.3535395742658485, 41.98966639637701], [1.3535372536613122, 41.98975642595535], [1.3535349330461846, 41.98984645553217], [1.3535326124204659, 41.989936485107464], [1.3534119341424733, 41.98993475378458], [1.3534096133362594, 41.99002478335291], [1.3535302917841565, 41.99002651468123], [1.3535279711372559, 41.99011654425348], [1.3535256504797635, 41.99020657382421], [1.3535233298116804, 41.99029660339342], [1.3535210091330059, 41.990386632961105], [1.3536416882711189, 41.990388364184355], [1.3536393677517613, 41.99047839375597], [1.353637047221813, 41.99056842332604], [1.3537577267103347, 41.990570154433364], [1.3538784062094456, 41.990571885413885], [1.353999085719146, 41.990573616267596], [1.3541197652394348, 41.99057534699451], [1.3541220850897464, 41.990485317402694], [1.3542427644507131, 41.990487047997384], [1.354245084120529, 41.99039701839861], [1.3543657633221737, 41.99039874886105], [1.3544864425344045, 41.99040047919669], [1.3544887618538175, 41.99031044958554], [1.3544910811626456, 41.99022041997287], [1.3546117600456462, 41.990222150170844], [1.3546140791739831, 41.990132120551216], [1.3547347578976623, 41.99013385061695], [1.354737076845509, 41.99004382099038], [1.354739395782772, 41.98995379136228], [1.3548600741772236, 41.98995552129036], [1.3549807525822575, 41.98995725109164], [1.3549784339848043, 41.99004728073059], [1.3549761153767697, 41.990137310368034], [1.354973796758152, 41.990227340003955], [1.3550944756834857, 41.99022906969472], [1.3550921572241945, 41.99031909933454], [1.3550898387543218, 41.990409128972836], [1.3552105180300522, 41.990410858547655], [1.3552081997195071, 41.990500888189864], [1.3552058813983818, 41.99059091783055], [1.3552035630666759, 41.99068094746973], [1.355324242862716, 41.99068267693403], [1.3554449226693361, 41.99068440627153], [1.355442604666872, 41.99077443592003], [1.3555632846539827, 41.99077616513614], [1.355565602486535, 41.99068613548222], [1.3555679203085098, 41.99059610582677], [1.3556885999663766, 41.99059783490522], [1.3558092796348213, 41.99059956385688], [1.355811597106397, 41.99050953418906], [1.3558139145673964, 41.9904195045197], [1.355934593906598, 41.9904212333337], [1.3559369111871118, 41.990331203657405], [1.3559392284570502, 41.99024117397959], [1.3559415457164128, 41.990151144300235], [1.3560622245564669, 41.99015287297116], [1.3560645416353474, 41.99006284328486], [1.3560668587036526, 41.989972813597056], [1.3561875372144698, 41.98997454213033], [1.3563082157358608, 41.98997627053678], [1.356310532453782, 41.9898862408366], [1.3564312108158418, 41.989887969110825], [1.356551889188474, 41.98988969725826], [1.3566725675716778, 41.98989142527889], [1.356793245965452, 41.98989315317273], [1.3567909299271506, 41.98998318289461], [1.3569116085014006, 41.98998491066706], [1.3570322870862197, 41.989986638312715], [1.3570299713771599, 41.99007666804392], [1.3571506501424542, 41.99007839556819], [1.3572713289183151, 41.99008012296566], [1.3573920077047439, 41.99008185023633], [1.3573896924948363, 41.99017187998228], [1.3573873772743619, 41.99026190972671], [1.3575080564111726, 41.99026363688142], [1.3575057413500404, 41.99035366662976], [1.3576264206673245, 41.99035539366308], [1.3576241057655363, 41.99044542341531], [1.3576217908531827, 41.990535453166025], [1.3576194759302644, 41.99062548291521], [1.35749879610325, 41.99062375586562], [1.357496480999855, 41.99071378560787], [1.3574941658858939, 41.9908038153486], [1.3574918507613665, 41.99089384508781], [1.3574895356262737, 41.99098387482549], [1.3574872204806139, 41.99107390456165], [1.3573665398145993, 41.99107217735815], [1.3572458591591523, 41.991070450027834], [1.3571251785142728, 41.991068722570716], [1.3571228628483007, 41.9911587522891], [1.3571205471717607, 41.99124878200596], [1.3571182314846513, 41.99133881172129], [1.3571159157869732, 41.99142884143511], [1.356995234472997, 41.99142711382949], [1.356992918594832, 41.991517143536356], [1.3569906027060978, 41.991607173241704], [1.3571112843599122, 41.99160890085816], [1.357108968630528, 41.991698930567416], [1.357106652890575, 41.991788960275144], [1.357227334894799, 41.99179068777565], [1.3572250193141986, 41.99188071748727], [1.3571043371400535, 41.99187898998135], [1.3569836549764767, 41.99187726234862], [1.3568629728234696, 41.991875534589084], [1.3568606567225343, 41.99196556428292], [1.356981339045463, 41.99196729204789], [1.3569790231038803, 41.99205732174562], [1.3569767071517271, 41.99214735144185], [1.3569743911890042, 41.992237381136555], [1.3568537083563037, 41.992235653355316], [1.356733025534174, 41.99223392544727], [1.3567307092210308, 41.99232395512959], [1.3567283928973155, 41.992413984810405], [1.3566077097459062, 41.992412256764695], [1.3566053932416928, 41.992502286438565], [1.3564847099309292, 41.99250055826062], [1.3564823932462158, 41.992590587927545], [1.3564800765509288, 41.99268061759294], [1.3563593929108824, 41.99267888927733], [1.3563570760350934, 41.99276891893578], [1.3562363922356921, 41.99276719048794], [1.356234075179399, 41.99285722013944], [1.356231758112531, 41.992947249789424], [1.356352442251792, 41.992948978248116], [1.3564731264016276, 41.99295070658], [1.356470809664047, 41.99304073623933], [1.356591493994387, 41.993042464449815], [1.3567121783353, 41.99304419253348], [1.3567098619270097, 41.99313422220214], [1.3567075455081476, 41.99322425186925], [1.3567052290787134, 41.99331428153484], [1.356825913939998, 41.99331600950798], [1.3568235976699257, 41.99340603917749], [1.3568212813892826, 41.99349606884547], [1.3569419666010076, 41.99349779670265], [1.3569396504797289, 41.993587826374515], [1.3570603358719613, 41.993589554110294], [1.3570580199100488, 41.99367958378608], [1.3570557039375661, 41.993769613460344], [1.357053387954513, 41.99385964313307], [1.3570510719608895, 41.99394967280431], [1.357048755956696, 41.99403970247401], [1.3570464399419322, 41.994129732142184], [1.3570441239165978, 41.99421976180885], [1.3570418078806932, 41.994309791473974], [1.3570394918342177, 41.9943998211376], [1.357037175777172, 41.994489850799695], [1.3570348597095552, 41.99457988046027], [1.3570325436313677, 41.99466991011932], [1.3570302275426105, 41.99475993977685], [1.3570279114432815, 41.99484996943286], [1.3570255953333816, 41.99493999908736], [1.357023279212911, 41.99503002874032], [1.3570209630818697, 41.99512005839177], [1.3571416513737073, 41.99512178609293], [1.3572623396761159, 41.99512351366725], [1.3573830279890944, 41.99512524111475], [1.3575037163126409, 41.99512696843543], [1.3575060317638845, 41.995036938762276], [1.3575083472045597, 41.994946909087616], [1.3576290351987754, 41.994948636270635], [1.3577497232035587, 41.994950363326815], [1.35775203829377, 41.994860333639785], [1.357754353373415, 41.994770303951235], [1.3578750410488687, 41.994772030869754], [1.3579957287348874, 41.994773757661456], [1.358116416431471, 41.99477548432632], [1.3582371041386188, 41.99477721086438], [1.3583577918563288, 41.994778937275605], [1.3584784795846017, 41.99478066356], [1.3584761655246422, 41.994870693281065], [1.358473851454121, 41.99496072300062], [1.3585945395328518, 41.99496244916903], [1.3587152276221428, 41.994964175210626], [1.3588359157219942, 41.99496590112539], [1.3589566038324046, 41.99496762691334], [1.3589589172231313, 41.99487759717212], [1.3589612306032992, 41.994787567429384], [1.3589635439729086, 41.994697537685134], [1.3588428563723418, 41.99469581191344], [1.3588451699013393, 41.99460578217309], [1.3589658573319594, 41.99460750793936], [1.3589681706804526, 41.99451747819205], [1.3589704840183872, 41.99442744844324], [1.3590911711196754, 41.99442917407186], [1.3592118582315211, 41.99443089957365], [1.359214171219009, 41.99434086981248], [1.3592164841959404, 41.994250840049794], [1.359337170978455, 41.99425256541393], [1.3594578577715246, 41.994254290651256], [1.3594601703980143, 41.99416426087621], [1.3594624830139488, 41.994074231099646], [1.3594647956193284, 41.99398420132156], [1.3593441093360843, 41.99398247610049], [1.35934642210085, 41.993892446326285], [1.3592257359981024, 41.9938907209838], [1.359223423063396, 41.99398075075259], [1.3591027368012638, 41.99397902527787], [1.3589820505496881, 41.99397729967635], [1.3589797372645445, 41.99406732943275], [1.358859050853586, 41.994065603698985], [1.358861364308671, 41.99397557394799], [1.3587406780782134, 41.993973848092814], [1.3586199918583142, 41.99397212211082], [1.3586223056427214, 41.99388209236912], [1.3585016196033226, 41.99388036626573], [1.3583809335744848, 41.993878640035504], [1.35838324768821, 41.993788610303135], [1.3583855617913732, 41.993698580569244], [1.3583878758839754, 41.99360855083382], [1.358508561402998, 41.99361027704778], [1.3586292469325811, 41.99361200313492], [1.3586315606747474, 41.993521973387146], [1.3585108753151012, 41.99352024730543], [1.358513189216644, 41.993430217561546], [1.358392504037495, 41.99342849135843], [1.3583948180984122, 41.99333846161844], [1.358397132148768, 41.99324843187695], [1.3585178169880479, 41.99325015806923], [1.3585201308579085, 41.99316012832079], [1.358399446188563, 41.99315840213393], [1.3582787615297787, 41.99315667582024], [1.3582810757289452, 41.993066646081125], [1.3582833899175497, 41.99297661634047], [1.358285704095592, 41.99288658659832], [1.3582880182630732, 41.99279655685462], [1.3582903324199913, 41.99270652710941], [1.3582926465663487, 41.9926164973627], [1.3584133302055468, 41.99261822364386], [1.3584156441714135, 41.99252819389019], [1.3585363276512445, 41.992529920039125], [1.3585386414366236, 41.99243989027851], [1.358540955211442, 41.992349860516384], [1.358661638361978, 41.992351586527676], [1.35866395195631, 41.992261556758606], [1.3587846349474795, 41.99226328263767], [1.358786948361327, 41.992173252861654], [1.3587892617646173, 41.992083223084116], [1.3587915751573485, 41.991993193305085], [1.3587938885395217, 41.991903163524505], [1.3587962019111364, 41.99181313374242], [1.358916884063244, 41.99181485946759], [1.3589191972543793, 41.99172482967856], [1.3590398792471234, 41.991726555271484], [1.3590421922577804, 41.99163652547552], [1.3590445052578812, 41.99154649567804], [1.3589238236049783, 41.99154477009594], [1.3588031419626325, 41.99154304438702], [1.3586824603308445, 41.99154131855131], [1.3585617787096151, 41.991539592588786], [1.3584410970989458, 41.99153786649945], [1.3583204154988366, 41.99153614028331], [1.358199733909288, 41.99153441394036], [1.3580790523303015, 41.99153268747059], [1.3580813666791984, 41.991442657714934], [1.3580836810175332, 41.991352627957745], [1.3579629997889462, 41.991350901372016], [1.357965314286635, 41.991260871618735], [1.3579676287737616, 41.991170841863934], [1.357969943250325, 41.9910808121076], [1.3579722577163242, 41.99099078234976], [1.357974572171761, 41.99090075259039], [1.35809525255077, 41.99090247914902], [1.3580929382652474, 41.9909925089138], [1.358213618824732, 41.99099423535104], [1.3582159329403405, 41.99090420558085], [1.3582182470453874, 41.99081417580911], [1.3582205611398728, 41.990724146035866], [1.3582228752237973, 41.9906341162611], [1.3583435551141911, 41.99063584254986], [1.3584642350151448, 41.99063756871182], [1.3584665487486856, 41.99054753892469], [1.358587228490288, 41.99054926495441], [1.3587079082424494, 41.99055099085736], [1.358710221625609, 41.99046096105786], [1.3587125349982105, 41.99037093125686], [1.3585918555858696, 41.99036920536477], [1.3585941691178225, 41.99027917556766], [1.3584734898859498, 41.990277449554185], [1.3584758035772522, 41.99018741976096], [1.3583551245258472, 41.990185693626096], [1.3583574383764974, 41.99009566383678], [1.3582367595055593, 41.99009393758053], [1.3582390735155558, 41.99000390779511], [1.358118394825086, 41.99000218141749], [1.3581207089944276, 41.98991215163596], [1.3581230231532075, 41.989822121852924], [1.3581253373014264, 41.98973209206836], [1.3580046591312316, 41.98973036558019], [1.3580069734387925, 41.98964033579953], [1.3578862954490643, 41.98963860918997], [1.3578886099159653, 41.98954857941321], [1.3577679321067022, 41.989546852682274], [1.3576472543080034, 41.989545125824534], [1.3576495691041444, 41.9894550960571], [1.357651883889721, 41.98936506628813], [1.357531206441389, 41.98936333931444], [1.3575335213863016, 41.98927330954937], [1.357535836320649, 41.989183279782786], [1.3576565134291818, 41.989185006745636], [1.357658828183066, 41.98909497697211], [1.3576611429263858, 41.98900494719706], [1.357663457659141, 41.988914917420495], [1.3577841342685455, 41.98891664424029], [1.3577864488208409, 41.98882661445678], [1.357788763362573, 41.988736584671734], [1.357909439642748, 41.9887383113539], [1.3579117540040226, 41.98864828156192], [1.3580324301248654, 41.98865000811186], [1.3580347443056833, 41.988559978312956], [1.35803705847594, 41.98846994851252], [1.358157734267557, 41.98847167492482], [1.35816004825736, 41.98838164511744], [1.3581623622366015, 41.98829161530855], [1.3580416867847684, 41.98828988890709], [1.3580440009233405, 41.98819985910209], [1.3579233256519596, 41.98819813257925], [1.3579256399498607, 41.98810810277815], [1.3578049648589319, 41.988106376133935], [1.3578072793161606, 41.988016346336735], [1.3578095937628265, 41.98792631653801], [1.357688919022238, 41.98792458977785], [1.3576912336282287, 41.98783455998302], [1.3576935482236558, 41.98774453018669], [1.3575728738334059, 41.98774280331057], [1.3574521994537196, 41.987741076307664], [1.3574545143783556, 41.98765104652064], [1.3573338401791206, 41.98764931939636], [1.3572131659904512, 41.987647592145294], [1.3572108507260432, 41.98773762192147], [1.3572085354510688, 41.98782765169612], [1.357206220165528, 41.98791768146926], [1.3572039048694204, 41.98800771124088], [1.3572015895627463, 41.98809774101097], [1.3571992742455061, 41.98818777077954], [1.357196958917698, 41.988277800546605], [1.3571946435793243, 41.988367830312114], [1.357192328230383, 41.988457860076124], [1.3573130039480539, 41.98845958737599], [1.357310688758439, 41.98854961714391], [1.3573083735582576, 41.9886396469103], [1.3574290496262813, 41.98864137409422], [1.3574313646565688, 41.9885513443224], [1.3574336796762905, 41.98846131454908], [1.3574359946854475, 41.98837128477422], [1.3575566702543578, 41.98837301181507], [1.3575543554150935, 41.98846304159535], [1.3576750311644596, 41.98846476851483], [1.3576727164845241, 41.98855479829901], [1.3576704017940244, 41.98864482808166], [1.357668087092961, 41.98873485786279], [1.3576657723813328, 41.98882488764241], [1.3575450959523894, 41.98882316070124], [1.3574244195340102, 41.98882143363327], [1.3574221044720258, 41.98891146340052], [1.3574197893994764, 41.98900149316625], [1.35729911265187, 41.98899976596065], [1.357178435914831, 41.988998038628246], [1.3571807513271734, 41.988908008873366], [1.3570600747705979, 41.988906281419574], [1.35706239034227, 41.9888162516686], [1.3571830667289497, 41.98881797911695], [1.3571853821201587, 41.98872794935903], [1.3570647059033738, 41.98872622191611], [1.3570670214539098, 41.98863619216208], [1.3569463454175874, 41.98863446459778], [1.3569486611274497, 41.988544434847654], [1.3568279852715888, 41.98854270716198], [1.3567073094262974, 41.98854097934951], [1.3567096254653763, 41.988450949608705], [1.3567119414938855, 41.988360919866395], [1.3567142575118243, 41.988270890122564], [1.356716573519194, 41.98818086037719], [1.3567188895159934, 41.98809083063031], [1.3565982145307274, 41.98808910271817], [1.3566005306868454, 41.98799907297521], [1.3567212055022229, 41.98800080088191], [1.3567235214778826, 41.987910771132], [1.3567258374429734, 41.98782074138055], [1.3566051629673712, 41.98781901348468], [1.3566074790917781, 41.987728983737135], [1.3567281533974935, 41.987730711627584], [1.356848827713778, 41.987732439391245], [1.3569695020406325, 41.987734167028115], [1.3569718176448125, 41.98764413726278], [1.3569741332384238, 41.98755410749594], [1.357094807236075, 41.987555834995156], [1.3572154812442923, 41.9875575623676], [1.3572177964875676, 41.98746753258838], [1.357220111720277, 41.98737750280763], [1.3573407853992934, 41.987379230042436], [1.3574614590888752, 41.987380957150435], [1.3574637739712523, 41.98729092735734], [1.3574660888430645, 41.98720089756272], [1.3574684037043123, 41.98711086776658], [1.3574707185549957, 41.98702083796891], [1.3573500455449412, 41.98701911088258], [1.3572293725454512, 41.98701738366947], [1.3572270573550067, 41.987107413456286], [1.3572247421539965, 41.9871974432416], [1.3571040688253109, 41.98719571589085], [1.3569833955071924, 41.98719398841331], [1.3569810799558524, 41.987284018186244], [1.3568604064784195, 41.98728229057649], [1.3568580907466286, 41.98737232034247], [1.3567374171098818, 41.987370592600506], [1.3566167434837044, 41.987368864731756], [1.3566190595552599, 41.98727883497662], [1.356498386109535, 41.98727710698649], [1.3563777126743806, 41.98727537886958], [1.3563753962630598, 41.98736540861388], [1.3563730798411668, 41.98745543835666], [1.3562524060768189, 41.98745371010212], [1.3562500894744705, 41.98754373983793], [1.356129415550811, 41.987542011451175], [1.3561270987680059, 41.987632041180056], [1.356006424685035, 41.987630312661075], [1.355885750612638, 41.987628584015305], [1.3558834334794885, 41.987718613731815], [1.3558811163357642, 41.9878086434468], [1.3558787991814645, 41.98789867316026], [1.3558764820165898, 41.987988702872215], [1.3558741648411405, 41.98807873258263], [1.3558718476551157, 41.98816876229154], [1.355992522746836, 41.988170490969864], [1.3559902057201256, 41.988260520682665], [1.35611088099231, 41.98826224923964], [1.3561085641249162, 41.98835227895635], [1.3561062472469485, 41.98844230867154], [1.3562269228694894, 41.988444037112565], [1.3562246061508405, 41.98853406683167], [1.3561039303584068, 41.98853233838522], [1.3559832545765476, 41.98853060981198], [1.3559809375075391, 41.98862063951869], [1.3558602615663615, 41.98861891081323], [1.3558579443168843, 41.98870894051301], [1.3557372682163882, 41.988707211675305], [1.3557349507864407, 41.98879724136814], [1.3556142745266262, 41.98879551239824], [1.3554935982773892, 41.98879378330153], [1.35537292203873, 41.98879205407803], [1.3553706040885203, 41.988882083753055], [1.355249927690545, 41.988880354397324], [1.3552476095598616, 41.98897038406539], [1.3551269330025695, 41.98896865457744], [1.355124614691409, 41.98905868423856], [1.3551222963696685, 41.98914871389817], [1.3550016194831631, 41.989146984272544], [1.3549993009809442, 41.9892370139252], [1.3548786239351225, 41.98923528416737], [1.3547579468998825, 41.98923355428273], [1.354637269875225, 41.9892318242713], [1.3546349508527282, 41.989321853906134], [1.3546326318196475, 41.98941188353946], [1.3545119544657762, 41.98941015339037], [1.3545142736687565, 41.989320123762475], [1.3543935964953688, 41.98931839349202], [1.3542729193325664, 41.98931666309476], [1.3541522421803502, 41.9893149325707], [1.3540315650387207, 41.98931320191984], [1.3540292451561435, 41.98940323152601], [1.3540269252629786, 41.98949326113064]], [[1.3557303158948169, 41.988977300749234], [1.3558509925049993, 41.9889790296032], [1.355971669125757, 41.98898075833038], [1.35609234575709, 41.98898248693075], [1.356213022398997, 41.98898421540432], [1.356210705616908, 41.989074245114296], [1.3562083888242458, 41.98916427482274], [1.3560877118425438, 41.989162546338314], [1.3559670348714163, 41.98916081772708], [1.3558463579108637, 41.98915908898906], [1.355725680960887, 41.98915736012424], [1.3557279984331403, 41.98906733043751], [1.3557303158948169, 41.988977300749234]], [[1.3557233634780572, 41.989247389809464], [1.3556026863687585, 41.98924566081241], [1.355605004021487, 41.98915563113262], [1.355725680960887, 41.98915736012424], [1.3557233634780572, 41.989247389809464]], [[1.3537762892941347, 41.98984991778667], [1.3537739690082233, 41.98993994737284], [1.3537716487117224, 41.990029976957466], [1.3536509702426442, 41.990028245882755], [1.353653290709049, 41.98993821630355], [1.3536556111648643, 41.98984818672282], [1.3537762892941347, 41.98984991778667]], [[1.356094662698501, 41.988892457224686], [1.3559739862370646, 41.98889072862974], [1.3559763033377978, 41.98880069892758], [1.3560969796293387, 41.9888024275171], [1.3562176559314536, 41.98880415597983], [1.3562153391705116, 41.988894185692835], [1.356094662698501, 41.988892457224686]], [[1.3582602475562089, 41.99387691367848], [1.3582579332619817, 41.99396694340392], [1.358137247084328, 41.993965216914646], [1.3581395615484952, 41.99387518719462], [1.3581418760020982, 41.993785157473084], [1.3582625618398727, 41.993786883951515], [1.3582602475562089, 41.99387691367848]], [[1.3578446332385288, 41.991259144911616], [1.3578423185709225, 41.991349174659476], [1.3577216373634626, 41.99134744782014], [1.3577239522009863, 41.991257418077694], [1.3576032711740085, 41.99125569111697], [1.3576055861708842, 41.991165661378425], [1.3577262670279455, 41.99116738833373], [1.3577285818443403, 41.991077358588235], [1.3578492625420504, 41.99107908541132], [1.3578469478955715, 41.99116911516225], [1.3578446332385288, 41.991259144911616]]]}, "properties": {"area_ha": 13.43, "dnbr_threshold_core": 0.35, "dnbr_threshold_grow": 0.22, "forest_mask": "esa_worldcover_2021_10_20", "part": 68, "fire_id": "273703", "burn_year": 2025, "source": "sentinel", "aoi_source": "effis", "dnbr_threshold": 0.35, "buffer_m": 1200.0, "post_windows": 2, "post_window_dates": [{"start": "2025-07-14", "end": "2025-08-06"}, {"start": "2025-08-06", "end": "2025-09-05"}], "pre_window": {"start": "2025-04-23", "end": "2025-06-30"}, "fire_date": "2025-07-07", "severity": "moderada", "severity_method": "threshold_proxy"}}, {"type": "Feature", "geometry": {"type": "Polygon", "coordinates": [[[1.3552102413593872, 41.98104430930427], [1.3553309029582357, 41.98104603844128], [1.3553285855779345, 41.98113606823629], [1.3553262681870588, 41.98122609802975], [1.355323950785607, 41.9813161278217], [1.3553216333735794, 41.981406157612135], [1.3552009710954134, 41.9814044284534], [1.355198653502979, 41.98149445823689], [1.3551963358999677, 41.98158448801884], [1.355075673292714, 41.98158275872249], [1.3550733555092935, 41.981672788497505], [1.3550710377152955, 41.98176281827099], [1.3549503747789526, 41.98176108883701], [1.3549480568045424, 41.98185111860355], [1.3550687199107196, 41.98185284804296], [1.3551893830274744, 41.981854577355605], [1.3553100461548067, 41.981856306541474], [1.3553077286793245, 41.98194633632278], [1.355305411193266, 41.982036366102555], [1.3554260746708457, 41.98203809517253], [1.3554237573440484, 41.98212812495621], [1.35554442100204, 41.98212985390483], [1.355665084670606, 41.982131582726694], [1.3557857483497462, 41.98213331142178], [1.3557880651670318, 41.98204328162181], [1.3557903819737447, 41.98195325182032], [1.355911045323785, 41.9819549803778], [1.3559087286869078, 41.98204501018472], [1.3559064120394593, 41.98213503999011], [1.3560270757397448, 41.98213676843167], [1.3561477394506014, 41.982138496746465], [1.3561500557583754, 41.98204846693022], [1.3562707193099657, 41.98205019511281], [1.3563913828721255, 41.982051923168655], [1.3563890669040262, 41.982141952995754], [1.3565097306465927, 41.982143680930236], [1.3565074148377623, 41.982233710761236], [1.3566280787607357, 41.98223543857438], [1.3566257631111758, 41.982325468409286], [1.356746427214556, 41.982327196101096], [1.356867091328503, 41.98232892366613], [1.3568694066383844, 41.98223889382038], [1.3568717219377, 41.9821488639731], [1.3568740372264492, 41.98205883412432], [1.3568763525046328, 41.981968804274004], [1.3567556890700379, 41.98196707673066], [1.3567580045074912, 41.98187704688425], [1.3566373412532986, 41.98187531921956], [1.356639656850021, 41.98178528937705], [1.3565189937762316, 41.98178356159102], [1.35639833071301, 41.981781833678234], [1.3564006466388336, 41.981691803845045], [1.3562799837560158, 41.98169007581091], [1.3561593208837674, 41.981688347650014], [1.356161637138689, 41.98159831782616], [1.3560409744468447, 41.98159658954392], [1.356043290861028, 41.981506559723975], [1.3561639533830403, 41.98150828800078], [1.3561662696168213, 41.98141825817389], [1.3560456072646414, 41.98141652990251], [1.3560479236576832, 41.981326500079504], [1.3560502400401542, 41.981236470255], [1.3559295780382064, 41.98123474186769], [1.3559318945799355, 41.98114471204708], [1.3560525564120534, 41.981146440428965], [1.356054872773383, 41.98105641060141], [1.356057189124141, 41.98096638077233], [1.3559365276316795, 41.98096465240131], [1.3559388441416944, 41.98087462257614], [1.3559411606411378, 41.980784592749444], [1.3558204994989012, 41.98078286426251], [1.355699838367237, 41.98078113564881], [1.3555791772461456, 41.980779406908354], [1.355458516135628, 41.980777678041136], [1.3554608333038023, 41.980687648234635], [1.3554631504614012, 41.98059761842661], [1.355342489701108, 41.980595889443485], [1.35522182895139, 41.9805941603336], [1.3552195114541417, 41.98068419013077], [1.3552171939463171, 41.98077421992644], [1.355214876427917, 41.980864249720554], [1.3550942151792993, 41.98086252046764], [1.3549735539412582, 41.98086079108795], [1.354971236072628, 41.98095082086971], [1.3550918974804957, 41.98095255025481], [1.3552125588989399, 41.98095427951317], [1.3552102413593872, 41.98104430930427]]]}, "properties": {"area_ha": 1.35, "dnbr_threshold_core": 0.35, "dnbr_threshold_grow": 0.22, "forest_mask": "esa_worldcover_2021_10_20", "part": 74, "fire_id": "273703", "burn_year": 2025, "source": "sentinel", "aoi_source": "effis", "dnbr_threshold": 0.35, "buffer_m": 1200.0, "post_windows": 2, "post_window_dates": [{"start": "2025-07-14", "end": "2025-08-06"}, {"start": "2025-08-06", "end": "2025-09-05"}], "pre_window": {"start": "2025-04-23", "end": "2025-06-30"}, "fire_date": "2025-07-07", "severity": "moderada", "severity_method": "threshold_proxy"}}, {"type": "Feature", "geometry": {"type": "Polygon", "coordinates": [[[1.354978317281267, 41.98536400796311], [1.3549759990535475, 41.98545403767423], [1.355096668964319, 41.98545576720402], [1.355098987022173, 41.98536573748748], [1.355101305069448, 41.98527570776942], [1.3551036231061442, 41.98518567804984], [1.3552242925178999, 41.98518740743656], [1.3553449619402342, 41.98518913669651], [1.355347279626625, 41.98509910696455], [1.3553495973024392, 41.98500907723105], [1.3554702663956244, 41.98501080635336], [1.3554679488896728, 41.98510083609228], [1.3554656313731452, 41.98519086582968], [1.3554633138460415, 41.985280895565545], [1.3554609963083608, 41.9853709252999], [1.355458678760104, 41.98546095503273], [1.355579348713186, 41.9854626840554], [1.355577031324219, 41.98555271379213], [1.3555747139246754, 41.98564274352735], [1.3554540436318594, 41.98564101449382], [1.35533337334962, 41.98563928533352], [1.3552127030779577, 41.98563755604642], [1.3552150209871026, 41.98554752632749], [1.3550943508958861, 41.98554579691905], [1.355092032816874, 41.985635826632546], [1.355089714727283, 41.985725856344544], [1.3549690443069102, 41.98572412679846], [1.3548483738971175, 41.98572239712559], [1.3548460554572108, 41.985812426825184], [1.3548437370067228, 41.98590245652326], [1.3548414185456537, 41.98599248621983], [1.3548391000740034, 41.98608251591487], [1.3547184289953125, 41.9860807860935], [1.3547161103432106, 41.98617081578159], [1.3547137916805267, 41.98626084546814], [1.3547114730072605, 41.986350875153185], [1.3548321445955684, 41.98635260499084], [1.3549528161944573, 41.98635433470172], [1.3549504978503577, 41.98644436439611], [1.3550711696297006, 41.98644609398562], [1.355191841419623, 41.98644782344835], [1.3551895234046922, 41.98653785315208], [1.3553101953750686, 41.986539582493464], [1.3553125132201245, 41.9864495527843], [1.3554331850312038, 41.98645128199346], [1.3555538568528605, 41.98645301107583], [1.3555515393475546, 41.986543040795844], [1.3555492218316725, 41.98663307051432], [1.3556698940036567, 41.986634799480775], [1.3556675766470743, 41.98672482920316], [1.3557882489995117, 41.98672655804824], [1.3559089213625233, 41.98672828676655], [1.3559112383793521, 41.9866382570333], [1.3557905661862169, 41.98663652832043], [1.3557928833623474, 41.986546498591096], [1.3557952005279026, 41.98645646886024], [1.3557975176828834, 41.98636643912785], [1.3557998348272888, 41.98627640939395], [1.3556791633242278, 41.986274680576], [1.3556814806279311, 41.98618465084601], [1.3556837979210592, 41.986094621114496], [1.3558044690843754, 41.986096349921596], [1.3558067861970566, 41.98600632018312], [1.3556861152036117, 41.98600459138146], [1.355688432475589, 41.9859145616469], [1.3556907497369906, 41.98582453191082], [1.3558114203906952, 41.98582626070163], [1.3558137374716528, 41.98573623095861], [1.3558160545420357, 41.98564620121406], [1.3558183716018444, 41.98555617146798], [1.355939041756519, 41.985557900115744], [1.3559413586358864, 41.985467870362726], [1.3559436755046805, 41.98537784060818], [1.3560643453301957, 41.985379569118294], [1.3560666620185506, 41.98528953935681], [1.3560689786963334, 41.98519950959381], [1.3560712953635432, 41.98510947982928], [1.3559506260476213, 41.98510775133545], [1.3559529428741213, 41.98501772157481], [1.3560736120201806, 41.98501945006323], [1.3560759286662454, 41.98492942029565], [1.3560782453017377, 41.98483939052657], [1.3560805619266578, 41.984749360755956], [1.3559598932901826, 41.98474763228381], [1.3559622100743898, 41.98465760251712], [1.3559645268480243, 41.98456757274888], [1.3559668436110859, 41.98447754297913], [1.3558461754947602, 41.98447581439649], [1.3558438585618404, 41.98456584416081], [1.3557231902862301, 41.98456411544598], [1.3556025220211951, 41.98456238660435], [1.3556002047379838, 41.984652416356305], [1.3555978874441978, 41.984742446106736], [1.355595570139836, 41.98483247585565], [1.3555932528248984, 41.98492250560303], [1.3554725838909987, 41.984920776612924], [1.3554749013757972, 41.98483074687096], [1.3553542326223347, 41.984829017759516], [1.355233563879449, 41.98482728852128], [1.355231246054929, 41.98491731825238], [1.3552289282198309, 41.98500734798195], [1.3551082591478003, 41.98500561860608], [1.3549875900863488, 41.98500388910343], [1.3549852719009479, 41.985093918820645], [1.354982953704967, 41.985183948536324], [1.354980635498407, 41.98527397825048], [1.354978317281267, 41.98536400796311]]]}, "properties": {"area_ha": 1.37, "dnbr_threshold_core": 0.35, "dnbr_threshold_grow": 0.22, "forest_mask": "esa_worldcover_2021_10_20", "part": 75, "fire_id": "273703", "burn_year": 2025, "source": "sentinel", "aoi_source": "effis", "dnbr_threshold": 0.35, "buffer_m": 1200.0, "post_windows": 2, "post_window_dates": [{"start": "2025-07-14", "end": "2025-08-06"}, {"start": "2025-08-06", "end": "2025-09-05"}], "pre_window": {"start": "2025-04-23", "end": "2025-06-30"}, "fire_date": "2025-07-07", "severity": "moderada", "severity_method": "threshold_proxy"}}, {"type": "Feature", "geometry": {"type": "Polygon", "coordinates": [[[1.3578046363827094, 41.9834230981736], [1.3578023222942597, 41.983513128042944], [1.3578000081952484, 41.98360315791078], [1.3579206747821, 41.98360488441077], [1.3579183608423802, 41.983694914282495], [1.3580390276096428, 41.98369664066114], [1.3580367138292146, 41.983786670536766], [1.3580344000382267, 41.983876700410875], [1.3580320862366801, 41.98396673028346], [1.358029772424574, 41.98405676015452], [1.358027458601908, 41.984146790024056], [1.3580251447686824, 41.984236819892075], [1.3581458125656296, 41.98423854617647], [1.3581434988917014, 41.98432857604839], [1.3582641668690643, 41.98433030221141], [1.3582618533544348, 41.984420332087225], [1.3583825215122136, 41.98442205812889], [1.3583802081568845, 41.98451208800861], [1.3583778947909984, 41.9846021178868], [1.3583755814145542, 41.98469214776347], [1.3584962500924684, 41.984693873694624], [1.3584985632990525, 41.98460384381253], [1.3585008764950794, 41.98451381392891], [1.35850318968055, 41.984423784043784], [1.3585055028554638, 41.98433375415714], [1.3586261708644987, 41.98433547993983], [1.3587468388840895, 41.98433720559575], [1.3587491517087327, 41.984247175696744], [1.3587514645228207, 41.98415714579622], [1.358753777326354, 41.98406711589417], [1.3587560901193327, 41.98397708599059], [1.3587584029017563, 41.98388705608551], [1.3587607156736252, 41.98379702617889], [1.3587630284349395, 41.983706996270755], [1.358883695276101, 41.983708721761985], [1.358886007857009, 41.983618691846914], [1.358765341185699, 41.9836169663611], [1.358767653925904, 41.983526936449934], [1.3587699666555546, 41.98343690653724], [1.3587722793746506, 41.98334687662302], [1.3587745920831924, 41.983256846707285], [1.3586539261018358, 41.98325512111637], [1.3585332601310347, 41.98325339539868], [1.3585355731687174, 41.98316336549226], [1.3586562389696712, 41.983165091204526], [1.358658551826951, 41.98307506129117], [1.358537886195845, 41.98307333558431], [1.3585401992124158, 41.98298330567484], [1.3585425122184314, 41.982893275763864], [1.3585448252138916, 41.98280324585136], [1.3585471381987955, 41.98271321593732], [1.3585494511731444, 41.982623186021776], [1.3584287864018165, 41.98262146021525], [1.3583081216410453, 41.98261973428194], [1.3583104349445232, 41.98252970437569], [1.3581897703641508, 41.982527978321045], [1.3580691057943368, 41.98252625213962], [1.35807141942694, 41.982436222242704], [1.3580737330489854, 41.98234619234427], [1.3579530688294115, 41.982344466046904], [1.3578324046203967, 41.98234273962278], [1.357711740421942, 41.98234101307188], [1.3577094262903753, 41.98243104295407], [1.357707112148248, 41.98252107283472], [1.35770479799556, 41.98261110271387], [1.3575841332981424, 41.982609376019944], [1.3575818189650508, 41.982699405892134], [1.3575795046213974, 41.98278943576281], [1.3575771902671816, 41.982879465631974], [1.3576978554741297, 41.982881192342155], [1.3576955412791978, 41.98297122221521], [1.3575748759024047, 41.9829694954996], [1.3575725615270655, 41.98305952536571], [1.3574518959909891, 41.98305779851792], [1.3574495814352414, 41.98314782837709], [1.3575702471411646, 41.983149555230305], [1.3575679327447014, 41.98323958509337], [1.3576885986310343, 41.98324131182523], [1.3576862843938575, 41.983331341692214], [1.3578069504605994, 41.98333306830273], [1.3578046363827094, 41.9834230981736]]]}, "properties": {"area_ha": 1.55, "dnbr_threshold_core": 0.35, "dnbr_threshold_grow": 0.22, "forest_mask": "esa_worldcover_2021_10_20", "part": 88, "fire_id": "273703", "burn_year": 2025, "source": "sentinel", "aoi_source": "effis", "dnbr_threshold": 0.35, "buffer_m": 1200.0, "post_windows": 2, "post_window_dates": [{"start": "2025-07-14", "end": "2025-08-06"}, {"start": "2025-08-06", "end": "2025-09-05"}], "pre_window": {"start": "2025-04-23", "end": "2025-06-30"}, "fire_date": "2025-07-07", "severity": "moderada", "severity_method": "threshold_proxy"}}, {"type": "Feature", "geometry": {"type": "Polygon", "coordinates": [[[1.3601809910026652, 41.984898083330116], [1.3603016601785738, 41.984899807370404], [1.3604223293650284, 41.98490153128391], [1.360420018844581, 41.98499156124807], [1.3604177083135882, 41.98508159121071], [1.3604153977720508, 41.98517162117183], [1.3604130872199691, 41.98526165113144], [1.3602924173540567, 41.98525992719627], [1.36017174749869, 41.985258203134336], [1.36005107765387, 41.98525647894563], [1.3600487665816443, 41.98534650888747], [1.3599280965775047, 41.98534478456656], [1.3598074265839133, 41.985343060118865], [1.3598051151614066, 41.98543309004836], [1.3598028037283512, 41.985523119976335], [1.3598004922847466, 41.98561314990278], [1.3599211627879415, 41.98561487436672], [1.3599188515036575, 41.985704904297066], [1.3597981808305932, 41.98570317982772], [1.3597958693658911, 41.98579320975114], [1.359675198533506, 41.98579148514958], [1.3595545277116705, 41.98578976042127], [1.359552215896678, 41.985879790332326], [1.3595499040711354, 41.98596982024187], [1.3595475922350417, 41.98605985014989], [1.3595452803883972, 41.986149880056395], [1.3595429685312024, 41.98623990996138], [1.3595406566634562, 41.986329939864845], [1.3596613285045278, 41.98633166462566], [1.3597820003561496, 41.98633338925968], [1.359779688817604, 41.986423419172446], [1.3597773772685087, 41.98651344908369], [1.359775065708864, 41.986603478993416], [1.3597727541386704, 41.98669350890162], [1.3598934266803477, 41.98669523343052], [1.359891115269483, 41.986785263342604], [1.3598888038480692, 41.98687529325319], [1.3600094767400535, 41.98687701766612], [1.3601301496425855, 41.98687874195226], [1.3601324607242402, 41.98678871203086], [1.360134771795348, 41.986698682107935], [1.3602554443686694, 41.98670040625646], [1.3603761169525377, 41.9867021302782], [1.3603784276733417, 41.98661210034293], [1.3604991000978768, 41.98661382423248], [1.3606197725329567, 41.986615547995235], [1.360617462151909, 41.98670557794132], [1.360738134767411, 41.986707301582705], [1.3607358245456982, 41.98679733153268], [1.3606151517603167, 41.986795607885895], [1.36061284135818, 41.98688563782895], [1.3607335143134411, 41.98688736148115], [1.3607312040706414, 41.986977391428084], [1.3608518772063263, 41.98697911495889], [1.3608495671228642, 41.98706914490974], [1.3609702404389734, 41.98707086831918], [1.3610909137656246, 41.98707259160183], [1.3612115871028168, 41.98707431475769], [1.3612092775184588, 41.987164344723226], [1.3612069679235606, 41.98725437468725], [1.3612046583181212, 41.98734440464974], [1.3610839844712794, 41.98734268147765], [1.3610816746854155, 41.987432711433215], [1.3612023487021419, 41.98743443461071], [1.3613230227294082, 41.98743615766143], [1.3614436967672154, 41.98743788058533], [1.3614460060434252, 41.98734785061356], [1.3614483153090966, 41.98725782064024], [1.361450624564229, 41.98716779066541], [1.3615712981029227, 41.987169513446304], [1.3615736071776336, 41.98707948346454], [1.3615759162418066, 41.98698945348125], [1.361578225295441, 41.98689942349645], [1.3615805343385379, 41.98680939351013], [1.3614598614793691, 41.986807670750856], [1.361462170681807, 41.986717640768425], [1.3613414980030567, 41.98671591788777], [1.3613438073648345, 41.98662588790922], [1.361223134866502, 41.9866241649072], [1.3611024623787091, 41.98662244177838], [1.3609817899014582, 41.98662071852277], [1.3609840997623295, 41.98653068855892], [1.3611047720697038, 41.986532411809115], [1.3612254443876184, 41.98653413493252], [1.361227753898195, 41.98644410495635], [1.3611070817501565, 41.98644238183835], [1.361109391420069, 41.98635235186606], [1.3612300633982306, 41.98635407497864], [1.3612323728877274, 41.98626404499942], [1.361234682366683, 41.98617401501868], [1.3612369918350997, 41.986083985036416], [1.3612393012929764, 41.98599395505263], [1.361118629994311, 41.98599223196167], [1.36112093961152, 41.98590220198179], [1.3611232492181886, 41.985812172000365], [1.3611255588143167, 41.98572214201744], [1.3611278683999046, 41.98563211203297], [1.3610071977912643, 41.98563038883686], [1.3608865271931647, 41.985628665513985], [1.3608888371079506, 41.985538635538816], [1.3608911470121943, 41.98544860556214], [1.3608934569058964, 41.985358575583945], [1.3607727868279431, 41.9853568521505], [1.3607750968809702, 41.98526682217621], [1.3606544269834264, 41.98526509862139], [1.3606567371957765, 41.985175068650975], [1.3605360674786415, 41.9851733449748], [1.3605383778503146, 41.985083315008254], [1.3605406882114426, 41.984993285040204], [1.360542998562027, 41.98490325507064], [1.3605453089020683, 41.98481322509954], [1.3604246398749322, 41.98481150131822], [1.3604269503742912, 41.98472147135103], [1.3603062815275608, 41.98471974744835], [1.3603085921862363, 41.984629717485035], [1.360187923519913, 41.984627993460975], [1.3601856126913763, 41.98471802341889], [1.3601833018522935, 41.98480805337526], [1.3601809910026652, 41.984898083330116]]]}, "properties": {"area_ha": 2.32, "dnbr_threshold_core": 0.35, "dnbr_threshold_grow": 0.22, "forest_mask": "esa_worldcover_2021_10_20", "part": 96, "fire_id": "273703", "burn_year": 2025, "source": "sentinel", "aoi_source": "effis", "dnbr_threshold": 0.35, "buffer_m": 1200.0, "post_windows": 2, "post_window_dates": [{"start": "2025-07-14", "end": "2025-08-06"}, {"start": "2025-08-06", "end": "2025-09-05"}], "pre_window": {"start": "2025-04-23", "end": "2025-06-30"}, "fire_date": "2025-07-07", "severity": "moderada", "severity_method": "threshold_proxy"}}, {"type": "Feature", "geometry": {"type": "Polygon", "coordinates": [[[1.3629831634589191, 41.99331393803151], [1.3631038486989546, 41.99331565940475], [1.3631015412760887, 41.993405689357274], [1.3632222266965923, 41.993407410609095], [1.3632199194331323, 41.99349744056551], [1.3632176121591422, 41.99358747052041], [1.3630969263987625, 41.99358574925778], [1.362976240648915, 41.99358402786833], [1.3629739330245163, 41.99367405781089], [1.362971625389585, 41.99376408775195], [1.3629693177441222, 41.99385411769147], [1.3629670100881268, 41.99394414762947], [1.3630876965177354, 41.99394586904054], [1.3630900040037894, 41.99385583909714], [1.363092311479312, 41.99376580915221], [1.36321299757957, 41.99376753042564], [1.3633336836903591, 41.99376925157225], [1.3633359908154705, 41.993679221615], [1.363456676766849, 41.993680942629396], [1.3635773627287575, 41.99368266351696], [1.3636980487011932, 41.993684384277714], [1.363818734684157, 41.99368610491165], [1.3639394206776472, 41.99368782541876], [1.363941726942532, 41.99359779543299], [1.3640624127766086, 41.99359951580788], [1.364183098621211, 41.99360123605595], [1.3643037844763364, 41.99360295617722], [1.3644244703419863, 41.99360467617164], [1.3645451562181583, 41.99360639603927], [1.3645428508029713, 41.99369642605205], [1.364540545377262, 41.993786456063305], [1.3645382399410306, 41.99387648607304], [1.3646589263375468, 41.99387820583004], [1.3646566210607356, 41.99396823584366], [1.3645359344942776, 41.993966516081265], [1.364533629037002, 41.99405654608797], [1.3645313235692043, 41.99414657609315], [1.3644106366733821, 41.99414485619314], [1.3644083310251176, 41.99423488619139], [1.3644060253663297, 41.99432491618815], [1.3645267126020417, 41.99432663609895], [1.3645290180908842, 41.9942366060968], [1.3646497051671729, 41.99423832587539], [1.3646520104755488, 41.99414829586633], [1.3647726973924148, 41.99415001551271], [1.3647750025203254, 41.99405998549674], [1.3647773076377152, 41.99396995547922], [1.3647796127445841, 41.99387992546021], [1.364781917840933, 41.99378989543968], [1.3647842229267608, 41.993699865417625], [1.3646635368596056, 41.99369814579824], [1.364665842104853, 41.99360811578006], [1.364668147339579, 41.993518085760364], [1.3645474616228235, 41.99351636602497], [1.3645497670169668, 41.993426336009136], [1.364552072400588, 41.993336305991804], [1.3644313870342302, 41.993334586140385], [1.3644336925772662, 41.99324455612692], [1.3645543777736875, 41.99324627597294], [1.3645566831362654, 41.99315624595257], [1.3645589884883211, 41.99306621593066], [1.3645612938298557, 41.99297618590724], [1.364681978526994, 41.992977905610246], [1.3648026632346524, 41.99297962518644], [1.364804968225798, 41.9928895951507], [1.364807273206424, 41.99279956511344], [1.3649279575847355, 41.99280128455203], [1.364925652774043, 41.99289131459469], [1.3650463373328072, 41.99289303391184], [1.3650486419735672, 41.992803003863784], [1.3651693263729165, 41.99280472304875], [1.3651716308332256, 41.99271469299378], [1.3652923150731608, 41.99271641204652], [1.3652946193530209, 41.992626381984635], [1.3652969236223644, 41.99253635192123], [1.365299227881191, 41.992446321856306], [1.3653015321295014, 41.99235629178986], [1.3651808485692878, 41.9923545727587], [1.3651831529770098, 41.99226454269613], [1.3651854573742146, 41.99217451263204], [1.365187761760902, 41.992084482566426], [1.3650670787209889, 41.99208276342465], [1.3650693832670853, 41.991992733362906], [1.3651900661370728, 41.99199445249929], [1.3651923705027258, 41.99190442243066], [1.3650716878026636, 41.991902703299665], [1.3650739923277242, 41.99181267323489], [1.3649533098081046, 41.99181095398249], [1.3649510051131195, 41.99190098404187], [1.364948700407616, 41.99199101409972], [1.3649463956915935, 41.99208104415606], [1.3649440909650523, 41.99217107421087], [1.3649417862279922, 41.99226110426417], [1.3649394814804137, 41.992351134315946], [1.3648187979517545, 41.99234941490435], [1.3646981144336148, 41.992347695365936], [1.36470041952105, 41.99225766532496], [1.3645797361833585, 41.992255945665136], [1.3644590528561886, 41.99225422587849], [1.3644567474288973, 41.992344255908684], [1.3643360639423217, 41.992342535989835], [1.3642153804662684, 41.99234081594416], [1.364217686233416, 41.992250785924774], [1.364097002937814, 41.9922490657577], [1.3639763196527364, 41.9922473454638], [1.3639740135457332, 41.9923373754724], [1.3639717074282052, 41.992427405479454], [1.3638510238137964, 41.992425685047955], [1.3638487175158138, 41.9925157150481], [1.3637280337420012, 41.99251399448437], [1.363730340209913, 41.99242396448963], [1.3636096566165568, 41.9924222438045], [1.3636119632438706, 41.99233221381363], [1.3636142698606568, 41.99224218382125], [1.363616576466916, 41.99215215382734], [1.363618883062648, 41.992062123831914], [1.3634982001595273, 41.992060403041584], [1.3633775172669353, 41.99205868212443], [1.363375210331352, 41.99214871210904], [1.363372903385239, 41.99223874209215], [1.3633705964285974, 41.992328772073726], [1.3633682894614272, 41.992418802053784], [1.3632476058996557, 41.99241708098821], [1.3632452987520272, 41.99250711096135], [1.3632429915938689, 41.992597140932965], [1.3632406844251803, 41.99268717090306], [1.3631200003641497, 41.99268544969447], [1.3631176930149997, 41.99277547965763], [1.36311538565532, 41.992865509619286], [1.3631130782851086, 41.99295553957943], [1.3631107709043666, 41.993045569538026], [1.3629900861741366, 41.99304384818101], [1.362987778612929, 41.9931338781327], [1.363108463513094, 41.99313559949513], [1.36310615611129, 41.993225629450706], [1.36298547104119, 41.99322390808287], [1.3629831634589191, 41.99331393803151]], [[1.364452136542749, 41.99252431596449], [1.3645728203797054, 41.99252603576731], [1.3645705150907783, 41.992616065798344], [1.3646911991081865, 41.99261778547976], [1.3646935042271833, 41.99252775544334], [1.3648141880851814, 41.99252947499254], [1.3648118831361153, 41.99261950503437], [1.3648095781765297, 41.99270953507467], [1.3646888939786694, 41.99270781551466], [1.3645682097913294, 41.99270609582784], [1.3644475256145119, 41.992704376014224], [1.3643268414482161, 41.99270265607376], [1.364329147087527, 41.992612626055056], [1.364331452716315, 41.99252259603483], [1.364452136542749, 41.99252431596449]]]}, "properties": {"area_ha": 2.32, "dnbr_threshold_core": 0.35, "dnbr_threshold_grow": 0.22, "forest_mask": "esa_worldcover_2021_10_20", "part": 130, "fire_id": "273703", "burn_year": 2025, "source": "sentinel", "aoi_source": "effis", "dnbr_threshold": 0.35, "buffer_m": 1200.0, "post_windows": 2, "post_window_dates": [{"start": "2025-07-14", "end": "2025-08-06"}, {"start": "2025-08-06", "end": "2025-09-05"}], "pre_window": {"start": "2025-04-23", "end": "2025-06-30"}, "fire_date": "2025-07-07", "severity": "moderada", "severity_method": "threshold_proxy"}}, {"type": "Feature", "geometry": {"type": "Polygon", "coordinates": [[[1.3659648347637656, 41.99002410208095], [1.3660855139691712, 41.990025820211], [1.3662061931850877, 41.990027538214235], [1.3663268724115132, 41.990029256090665], [1.3663291750166278, 41.98993922594003], [1.3663314776112339, 41.98984919578787], [1.3664521565083518, 41.989850913526716], [1.366572835415978, 41.989852631138746], [1.3665705331611882, 41.989942661301704], [1.3666912122492294, 41.98994437879234], [1.3666889101538413, 41.99003440895915], [1.366809589422298, 41.99003612632836], [1.3669302687012606, 41.990037843570775], [1.3670509479907282, 41.990039560686384], [1.3671716272907002, 41.99004127767518], [1.3672923066011755, 41.99004299453719], [1.3674129859221535, 41.99004471127238], [1.367533665253634, 41.99004642788078], [1.3675313643371079, 41.99013645808381], [1.3675290634100814, 41.9902264882853], [1.3675267624725527, 41.99031651848528], [1.367524461524523, 41.990406548683765], [1.3676451415461495, 41.99040826518689], [1.3677658215782758, 41.99040998156324], [1.3678142733729024, 41.99041067061975], [1.36781906200165, 41.99037006143883], [1.3678177908135367, 41.990122756407345], [1.3678118857910506, 41.99003405650309], [1.367771366290272, 41.98975851102717], [1.3677850445803141, 41.989717112506405], [1.3678338532021412, 41.989481715888836], [1.367854676903676, 41.98924402674992], [1.3678569723245644, 41.9891631265974], [1.3678441421671577, 41.98887169276101], [1.3678097533572826, 41.988690718271585], [1.367809531338758, 41.988699407327786], [1.3676888545348358, 41.988697691053815], [1.3676865539457201, 41.98878772128503], [1.3678072309195406, 41.988789437564385], [1.3678049304898248, 41.98887946779945], [1.3678026300496093, 41.988969498033015], [1.3676819527359898, 41.988967781742886], [1.3675612754328688, 41.98896606532596], [1.3675589746423533, 41.98905609554722], [1.3674382971798322, 41.9890543789981], [1.367317619727813, 41.98905266232217], [1.367315318586994, 41.98914269253114], [1.367194640975575, 41.98914097572304], [1.3671923396543515, 41.989231005925085], [1.3671900383226254, 41.98932103612562], [1.367069360381905, 41.989319319179934], [1.3669486824516877, 41.98931760210744], [1.3668280045319752, 41.989315884908166], [1.3668257026800352, 41.98940591509099], [1.3667050246009247, 41.989404197759505], [1.3665843465323204, 41.98940248030123], [1.366463668474223, 41.98940076271615], [1.3664613661020646, 41.98949079288131], [1.3664590637193978, 41.98958082304494], [1.3663383853319993, 41.98957910532228], [1.366217706955109, 41.989577387472806], [1.3660970285887288, 41.98957566949653], [1.3659763502328581, 41.98957395139346], [1.3658556718874988, 41.989572233163585], [1.3657349935526513, 41.9895705148069], [1.3656143152283153, 41.98956879632343], [1.365612011645803, 41.98965882644779], [1.3656097080527774, 41.98974885657062], [1.365730386716924, 41.98975057506488], [1.3657280832832916, 41.9898406051916], [1.3657257798391464, 41.9899306353168], [1.3657234763844885, 41.99002066544047], [1.3658441555688714, 41.99002238382412], [1.3658464588536208, 41.98993235369505], [1.3659671378786062, 41.9899340719465], [1.3659648347637656, 41.99002410208095]], [[1.3665774398940362, 41.98967257080831], [1.3665797421173045, 41.98958254064081], [1.3667004205257183, 41.989584258109865], [1.3667027225685744, 41.98949422793545], [1.3668234008175892, 41.98949594527233], [1.3668210989446379, 41.98958597545213], [1.3668187970611814, 41.98967600563041], [1.366698118472356, 41.98967428828276], [1.3666958164084866, 41.98976431845413], [1.3665751376602604, 41.98976260097429], [1.3665774398940362, 41.98967257080831]]]}, "properties": {"area_ha": 1.376, "dnbr_threshold_core": 0.35, "dnbr_threshold_grow": 0.22, "forest_mask": "esa_worldcover_2021_10_20", "part": 142, "fire_id": "273703", "burn_year": 2025, "source": "sentinel", "aoi_source": "effis", "dnbr_threshold": 0.35, "buffer_m": 1200.0, "post_windows": 2, "post_window_dates": [{"start": "2025-07-14", "end": "2025-08-06"}, {"start": "2025-08-06", "end": "2025-09-05"}], "pre_window": {"start": "2025-04-23", "end": "2025-06-30"}, "fire_date": "2025-07-07", "severity": "moderada", "severity_method": "threshold_proxy"}}]}
