{"type": "FeatureCollection", "features": [{"type": "Feature", "geometry": {"type": "Polygon", "coordinates": [[[1.099589536197173, 42.04482225952373], [1.0995841689968362, 42.04500229218428], [1.0993426373665098, 42.044998291312865], [1.099337269436022, 42.045178323942096], [1.0990957371735648, 42.045174322537605], [1.0990930528493665, 42.04526433883732], [1.098730754036732, 42.04525833575929], [1.0987280691894161, 42.04534835203862], [1.0986073027727634, 42.045346350752354], [1.0986046177429014, 42.04543636702385], [1.0987253843298428, 42.045438368316404], [1.0987065899696227, 42.04606848221723], [1.0985858221906408, 42.046066480880704], [1.0985697112391941, 42.0466065784116], [1.0986904800399557, 42.046608579785776], [1.0986877950087743, 42.04669859604176], [1.0988085639920941, 42.04670059729524], [1.0988058791189554, 42.04679061355594], [1.0991681866533547, 42.04679661657319], [1.0991708710155927, 42.04670660029366], [1.0994124090925352, 42.04671060165763], [1.0994150931019189, 42.046620585363975], [1.099656630887276, 42.04662458620739], [1.099659314543808, 42.04653456989962], [1.0997800832845652, 42.04653657012456], [1.0997827667585474, 42.04644655380896], [1.0999035353412574, 42.04644855390062], [1.099906218632691, 42.0463585375772], [1.1000269870573536, 42.046360537535584], [1.1000323532628766, 42.04618050487151], [1.1001531213591955, 42.04618250469034], [1.100161170064727, 42.04591245566373], [1.1002819376624102, 42.04591445533674], [1.1002873030642708, 42.04573442263201], [1.100408070333616, 42.04573642216548], [1.1004161178336793, 42.04546637307787], [1.1005368846043981, 42.045468372465535], [1.1005583427034364, 42.04474824144657], [1.100679108124106, 42.044750240657045], [1.1006898361986133, 42.04439017508512], [1.1005690714590708, 42.04438817589973], [1.1005717536173678, 42.04429815950914], [1.1006925181866292, 42.044300158688245], [1.1007059279430513, 42.043850076680556], [1.1008266916731675, 42.04385207570131], [1.1008320551494801, 42.043672042874775], [1.1007112917599147, 42.04367004386656], [1.1007139736499802, 42.04358002745725], [1.1005932104429321, 42.04357802832833], [1.1005985745268798, 42.04339799551755], [1.1003570488306074, 42.043393996903845], [1.1003597311947577, 42.04330398050869], [1.1001182058880117, 42.04329998139959], [1.100120888580458, 42.04320996501541], [1.1000001261157255, 42.04320796527666], [1.1000162230348223, 42.04266786697656], [1.1001369844779478, 42.042669866677656], [1.1001503973890712, 42.042219784686736], [1.100029636797263, 42.04221778501702], [1.10003231951301, 42.04212776862044], [1.1001530799345565, 42.04212976828388], [1.100174539857576, 42.041409637005025], [1.100416058013282, 42.0414136358506], [1.1004214221905615, 42.04123360299023], [1.100904457286866, 42.04124159910749], [1.1009151827704677, 42.0408815332677], [1.1011566990300532, 42.0408855305143], [1.1011647419927302, 42.0406154810805], [1.1012854996301336, 42.040617479494536], [1.1012881804229675, 42.040527463007216], [1.1016504528978612, 42.04053345746866], [1.1016531331677144, 42.04044344096098], [1.1015323758340938, 42.04044144294039], [1.1015350562619577, 42.040351426437425], [1.1016558134253325, 42.04035342445173], [1.1016718947140915, 42.03981332536359], [1.1015511385721792, 42.039811327386914], [1.1015538189143896, 42.03972131087304], [1.1014330629549547, 42.03971931277565], [1.1014411044188877, 42.03944926324353], [1.101199593558165, 42.03944526670548], [1.1012022743621448, 42.039355250204196], [1.1009607638908507, 42.03935125317082], [1.100963445023066, 42.03926123668053], [1.1004804249083058, 42.03925324111528], [1.1004857884979022, 42.039073208180206], [1.0992782424727998, 42.039053210505024], [1.0992701919629784, 42.03932325971704], [1.099149436917127, 42.03932125923238], [1.0991413857863381, 42.03959130841156], [1.0990206302420262, 42.0395893077811], [1.0990340495832667, 42.03913922583941], [1.0989132949023885, 42.039137225113386], [1.098924030835778, 42.038777159557135], [1.0990447848357234, 42.03877916025806], [1.0990850402866068, 42.037428914106165], [1.0995680461953488, 42.03743691526356], [1.0995787777932204, 42.03707684946349], [1.0988542730888482, 42.03706484711629], [1.098856956978996, 42.03697483070005], [1.098615455849312, 42.03697082891457], [1.0986074031208104, 42.037240878120976], [1.098848905271796, 42.037244879944126], [1.0988462213448922, 42.0373348963557], [1.0987254700930549, 42.037332895501315], [1.0987201018620503, 42.037512928307244], [1.0984785987142562, 42.037508926192494], [1.0984732297533548, 42.03768895896709], [1.0982317259736956, 42.03768495631938], [1.098229041134418, 42.037774972691786], [1.09810828909275, 42.037772971171236], [1.0981056040709938, 42.03786298753578], [1.0982263562828847, 42.03786498906263], [1.0982236714190947, 42.03795500543192], [1.0979821666671234, 42.0379510022387], [1.0979767962218752, 42.03813103494746], [1.0977352908380371, 42.03812703122129], [1.097703063051317, 42.03920722719241], [1.0978238177798663, 42.03920922919437], [1.0978211322215166, 42.03929924552146], [1.0979418871325612, 42.03930124740273], [1.0979392017321867, 42.039391263734544], [1.097697691581885, 42.039387259832466], [1.097689634285783, 42.039657308780896], [1.0978103898655163, 42.03965931081426], [1.0978077042458658, 42.03974932713357], [1.097566192758183, 42.03974532292731], [1.0975473906939563, 42.04037543703091], [1.097305876871934, 42.0403714322288], [1.0972763258115679, 42.041361611242124], [1.0978801198222818, 42.041371622640675], [1.097885491150201, 42.04119159004399], [1.0981270081593049, 42.041195593689466], [1.0981431198058196, 42.04065549578663], [1.0983846348209625, 42.04065949884884], [1.0983926894572522, 42.04038944983872], [1.0986342034999446, 42.04039345235537], [1.098636888013705, 42.04030343600299], [1.098757644883189, 42.04030543706458], [1.0987549605396743, 42.04039545342324], [1.0989964746558953, 42.04039945517806], [1.099001842649693, 42.04021942243408], [1.0991225993856935, 42.04022142310847], [1.0991279669899932, 42.04004139034571], [1.0996109926945616, 42.040049391723414], [1.0996056264522085, 42.04022942453639], [1.099726383249461, 42.04023142457594], [1.0997237002801556, 42.04032144098638], [1.0994821863574091, 42.04031744076776], [1.0994795030353652, 42.04040745716407], [1.0993587459221215, 42.04040545685802], [1.0993560624175809, 42.040495473246516], [1.0992353051463415, 42.04049347280722], [1.099227254048475, 42.040763521944534], [1.098985738521266, 42.04075952064736], [1.0989830544569759, 42.04084953701079], [1.0988622965415014, 42.040847536165465], [1.0988596122947083, 42.040937552521065], [1.0987388542212388, 42.04093555154249], [1.0987361697919416, 42.04102556789026], [1.098494653341266, 42.041021565539644], [1.0984892837649007, 42.04120159820538], [1.098368525217445, 42.04119959682704], [1.0983658402406247, 42.04128961315129], [1.0982450815351734, 42.0412876116397], [1.0982423963758432, 42.04137762795612], [1.0981216375123966, 42.04137562631128], [1.098118952170554, 42.04146564261986], [1.0979981931491127, 42.04146364084177], [1.0979955076247565, 42.0415536571425], [1.0978747484453208, 42.04155165523115], [1.0978774341399316, 42.0414616389367], [1.0976359161583509, 42.041457634745626], [1.0976278580162038, 42.04172768358664], [1.0978693770193166, 42.041731687815385], [1.0978640055442688, 42.041911720393415], [1.0979847654047308, 42.0419137223299], [1.0979686517068867, 42.04245382006429], [1.0977271299550988, 42.04244981598896], [1.097708327699374, 42.04307992985363], [1.0978290897609961, 42.043081931998756], [1.0978210319782706, 42.04335198079341], [1.0977002694058415, 42.04334997862942], [1.0976975832834714, 42.043439994884906], [1.0975768205530338, 42.04343799258766], [1.0975741342481296, 42.04352800883531], [1.0973326084835038, 42.043524003847295], [1.0973191750722888, 42.043974084999334], [1.0974399387998381, 42.04397608758825], [1.0974372522510754, 42.04406610382026], [1.0975580161611658, 42.044068106288485], [1.0975553297704141, 42.04415812252523], [1.0976760938630459, 42.04416012487274], [1.0976734076303083, 42.044250141114226], [1.0977941719054811, 42.044252143341026], [1.0977887997437739, 42.04443217583187], [1.0980303290120224, 42.04443617992966], [1.098027643253335, 42.04452619618531], [1.0982691729111902, 42.04453019978771], [1.0982718583293163, 42.04444018351948], [1.0985133876956488, 42.04444418660136], [1.0985080175282596, 42.04462421916136], [1.0986287825703753, 42.04462622052438], [1.0986314674899171, 42.04453620423888], [1.098752232374009, 42.04453820546864], [1.098754917111013, 42.04444818917529], [1.099358740863901, 42.04445819338783], [1.0993614247372478, 42.04436817706155], [1.0994821893543067, 42.04437017751682], [1.0994848730451217, 42.04428016118269], [1.099847166458965, 42.04428616176772], [1.0998444832789893, 42.04437617812068], [1.099602953983617, 42.0443721778451], [1.099597586905793, 42.04455221052121], [1.0997183518879161, 42.04455421073504], [1.0997103016901437, 42.0448242597564], [1.099589536197173, 42.04482225952373]], [[1.0990152624197642, 42.039769340546876], [1.098894506547226, 42.039767339776894], [1.0988998747099663, 42.03958730702368], [1.0990206302420262, 42.0395893077811], [1.0990152624197642, 42.039769340546876]], [[1.0989669726089821, 42.03733689708312], [1.0989642888400455, 42.03742691349942], [1.098843537405736, 42.03742491276572], [1.0988462213448922, 42.0373348963557], [1.0989669726089821, 42.03733689708312]], [[1.0998525327821695, 42.044106129057155], [1.1000940611048662, 42.044110128787146], [1.1000886954627767, 42.04429016152282], [1.099847166458965, 42.04428616176772], [1.0998525327821695, 42.044106129057155]], [[1.1000994266979645, 42.043930096045244], [1.1002201905371303, 42.043932095707206], [1.1002148252845863, 42.044112128461656], [1.1000940611048662, 42.044110128787146], [1.1000994266979645, 42.043930096045244]], [[1.1004696975822001, 42.03961330696676], [1.100472379432091, 42.03952329050621], [1.100593134953131, 42.03952528960681], [1.1005904532734796, 42.03961530607361], [1.1007112089770004, 42.0396173050535], [1.1007058459214514, 42.03979733799498], [1.1004643338456903, 42.03979333988315], [1.100453606225752, 42.040153405697275], [1.100332849525267, 42.040151406425814], [1.10033553161886, 42.040061389980885], [1.100214775100862, 42.04005939058874], [1.1002120928370263, 42.04014940702738], [1.10009133616103, 42.040147407501976], [1.1000940185951096, 42.04005739106961], [1.0999732621016018, 42.040055391423515], [1.0999813098410924, 42.03978534213588], [1.1002228218189023, 42.03978934126344], [1.1002281862363725, 42.03960930837215], [1.1004696975822001, 42.03961330696676]]]}, "properties": {"area_ha": 18.77, "dnbr_threshold_core": 0.35, "dnbr_threshold_grow": 0.22, "dnbr_mean": 0.7189, "dnbr_max": 1.1094, "severity": "alta", "severity_method": "dnbr_mean", "forest_mask": "esa_worldcover_2021_10_20", "part": 2, "fire_id": "557386", "burn_year": 2026, "source": "sentinel", "aoi_source": "effis", "dnbr_threshold": 0.35, "buffer_m": 1200.0, "post_windows": 2, "post_window_dates": [{"start": "2026-07-13", "end": "2026-08-05"}, {"start": "2026-08-05", "end": "2026-09-04"}], "pre_window": {"start": "2026-04-22", "end": "2026-06-29"}, "fire_date": "2026-07-06"}}, {"type": "Feature", "geometry": {"type": "Polygon", "coordinates": [[[1.1001397066050056, 42.046632586370244], [1.09989816872164, 42.04662858654282], [1.099895485393456, 42.04671860286158], [1.0997747162998484, 42.04671660275109], [1.0997773997983324, 42.0466265864386], [1.099656630887276, 42.04662458620739], [1.0996539472184919, 42.046714602513596], [1.0994124090925352, 42.04671060165763], [1.0994097250708976, 42.04680061794973], [1.0992889558559993, 42.04679861732495], [1.0992809032066597, 42.04706866617307], [1.0991601334931096, 42.04706666540248], [1.0991547646583362, 42.04724669794756], [1.0990339946164327, 42.04724469703741], [1.0990313100103588, 42.047334713301325], [1.0992728504470293, 42.047338715007186], [1.09927016616931, 42.04742873128211], [1.0995117069956124, 42.04743273249252], [1.0995143909327196, 42.047342716205044], [1.0998767017531523, 42.0473487170493], [1.0998820685687778, 42.04716868443203], [1.1000028385261478, 42.047170684446904], [1.099994788795249, 42.04744073338932], [1.1001155592757852, 42.04744273329602], [1.1001128761779588, 42.04753274961333], [1.100233646841052, 42.047534749399304], [1.1002443784776366, 42.047174684095644], [1.1003651484717543, 42.04717668372951], [1.1003705138759485, 42.04699665105579], [1.100491283541706, 42.04699865055011], [1.100496648556306, 42.04681861785763], [1.1006174178937054, 42.04682061721239], [1.1006201002123346, 42.04673060085754], [1.1007408693916783, 42.04673260007905], [1.1007435515277615, 42.04664258371636], [1.1009850895825821, 42.046646581765835], [1.100995816642076, 42.046286516249346], [1.101116585006658, 42.046288515058485], [1.1011219481223529, 42.04610848227838], [1.1010011800983635, 42.04610648348178], [1.101009225190973, 42.04583643431873], [1.1008884576901106, 42.04583443541396], [1.1008911395334542, 42.04574441902945], [1.1007703722151276, 42.04574242000395], [1.100775736205668, 42.04556238724279], [1.1005342022869142, 42.04555838883589], [1.1005234728945188, 42.0459184543018], [1.100644240528942, 42.04592045359384], [1.1006415583205231, 42.04601046996269], [1.1005207905158052, 42.04600847066439], [1.100512743306189, 42.0462785197428], [1.1002712067117184, 42.04627452072756], [1.100268523943426, 42.04636453707136], [1.1003892924048353, 42.04636653664876], [1.1003839271721034, 42.04654656934427], [1.1001423895803408, 42.046542570037374], [1.1001397066050056, 42.046632586370244]], [[1.099643212420835, 42.04707466772286], [1.0995224426705237, 42.04707266733326], [1.0995251265586186, 42.04698265103956], [1.0996458961386275, 42.046984651422875], [1.099643212420835, 42.04707466772286]]]}, "properties": {"area_ha": 1.29, "dnbr_threshold_core": 0.35, "dnbr_threshold_grow": 0.22, "dnbr_mean": 0.4888, "dnbr_max": 0.8323, "severity": "alta", "severity_method": "dnbr_mean", "forest_mask": "esa_worldcover_2021_10_20", "part": 14, "fire_id": "557386", "burn_year": 2026, "source": "sentinel", "aoi_source": "effis", "dnbr_threshold": 0.35, "buffer_m": 1200.0, "post_windows": 2, "post_window_dates": [{"start": "2026-07-13", "end": "2026-08-05"}, {"start": "2026-08-05", "end": "2026-09-04"}], "pre_window": {"start": "2026-04-22", "end": "2026-06-29"}, "fire_date": "2026-07-06"}}]}
