{"type": "FeatureCollection", "features": [{"type": "Feature", "geometry": {"type": "Polygon", "coordinates": [[[1.3444772606998554, 41.85939388622957], [1.344356828719443, 41.859392149759245], [1.344363797393479, 41.85912205611779], [1.344243365929995, 41.859120319537595], [1.3442456889689385, 41.859030288326196], [1.3441252576848237, 41.85902855162523], [1.3441275808819535, 41.858938520417766], [1.3442480119972908, 41.85894025711327], [1.3442503350150523, 41.85885022589882], [1.3443707659722042, 41.85885196246265], [1.3443730888105996, 41.85876193124122], [1.344734381239263, 41.85876714015902], [1.3447320589071954, 41.858857171396814], [1.3448524899067025, 41.85885890745576], [1.3448478455483586, 41.859038969937664], [1.3449682768960065, 41.85904070588129], [1.3449659548697326, 41.85913073712542], [1.345086386396745, 41.859132472948275], [1.3450840645286641, 41.85922250419634], [1.3452044962350418, 41.859224239898424], [1.3452021745251554, 41.85931427115042], [1.3453226064108974, 41.85931600673173], [1.345320284859207, 41.85940603798764], [1.3454407169243139, 41.85940777344818], [1.3454383955308207, 41.85949780470803], [1.3459201245722017, 41.859504745309785], [1.3459178038432558, 41.85959477658991], [1.3460382362988363, 41.85959651143023], [1.3460451979475874, 41.859326417568965], [1.3465269258503132, 41.859333355602665], [1.3465362052000664, 41.85897323034585], [1.3468974992128107, 41.858978432480434], [1.346902137811566, 41.85879836981022], [1.3470225688327413, 41.85880010359174], [1.3470295261452458, 41.85853000955868], [1.3471499566706673, 41.85853174319765], [1.3471522755849161, 41.858441711844804], [1.3472727059521352, 41.85844344535212], [1.3472773434113707, 41.85826338263098], [1.3473977734516156, 41.85826511600117], [1.3474047290548727, 41.857995021891746], [1.347284299520941, 41.85799328853787], [1.3472935741857093, 41.8576331630591], [1.3470527164997053, 41.857629696016254], [1.3470550354770028, 41.85753966465365], [1.346452892290851, 41.85753099486502], [1.3464598516907809, 41.85726090084977], [1.3465802798005684, 41.857262635043575], [1.3465849190101171, 41.85708257234823], [1.3467053467929548, 41.85708430640494], [1.3467076662131052, 41.85699427504954], [1.346828093837756, 41.85699600897458], [1.3468350515284824, 41.85672591488294], [1.3469554786574263, 41.856727648665434], [1.3469577976977636, 41.85663761729305], [1.3471986516498504, 41.85664108446853], [1.3471940142336398, 41.85682114723353], [1.347314441563058, 41.856822880642845], [1.3473167601076892, 41.85673284925566], [1.347437187278918, 41.85673458253332], [1.347434868903046, 41.856824613925944], [1.3476757236147305, 41.85682808011351], [1.34767340556581, 41.8569181115155], [1.3477938331062644, 41.8569198444254], [1.3477961509864245, 41.85682981301797], [1.3481574331649073, 41.85683501097408], [1.348159750528221, 41.856744979548786], [1.3482801777734192, 41.85674671194297], [1.3482871292936982, 41.856476617641654], [1.3481667025547743, 41.8564748852638], [1.34816901987583, 41.85638485383243], [1.3482894464459962, 41.85638658620484], [1.3482917635877305, 41.85629655476651], [1.3480509107954748, 41.856293089906366], [1.3480532282641562, 41.856203058477405], [1.3482940807189014, 41.856206523326655], [1.3483033491379495, 41.855846397552035], [1.348182923580308, 41.85584466521227], [1.3481875580639533, 41.85566460232672], [1.3480671328543778, 41.85566286987163], [1.3480694502491046, 41.85557283843201], [1.347467325203463, 41.85556417429067], [1.3474626887159449, 41.85574423711396], [1.347221838096664, 41.8557407705522], [1.3472264752591816, 41.8555607077507], [1.3471060503028953, 41.85555897429139], [1.3471106877606291, 41.85537891149468], [1.3472311123794185, 41.85538064494309], [1.347235749457375, 41.855200582129406], [1.3471153251760788, 41.85519884869187], [1.3471176438679477, 41.8551088172882], [1.3469972197659683, 41.85510708372991], [1.346994900905354, 41.855197115128156], [1.3468744766451999, 41.855195381438214], [1.3468698385547633, 41.85537544421924], [1.346749413967689, 41.85537371039221], [1.3467470947378644, 41.85546374177499], [1.3466266699926153, 41.855462007816314], [1.3466197117334553, 41.855732101939196], [1.3464992864925325, 41.85573036783797], [1.346496966882914, 41.85582039920377], [1.3466173922925868, 41.85582213331045], [1.346610433906537, 41.85609222741507], [1.3463695820852526, 41.85608875904285], [1.3463579828761292, 41.856538915799], [1.346117129409597, 41.856535446867454], [1.3461310504538742, 41.85599525882088], [1.3462514761693238, 41.855996993317056], [1.3462537961375969, 41.8559069619652], [1.3461333705908993, 41.85590522747446], [1.346140330938511, 41.85563513342606], [1.3454177809179833, 41.855624723929346], [1.3454201020251921, 41.855534692609524], [1.3452996772275512, 41.85553295725714], [1.3453112834486016, 41.855082800662494], [1.3455521313670022, 41.85508627118658], [1.3455544522419776, 41.85499623985219], [1.3459157236927, 41.85500144467543], [1.3459180440508647, 41.85491141332317], [1.346038467720186, 41.8549131480064], [1.34604078789903, 41.854823116647175], [1.345920364398451, 41.854821381969394], [1.3459226847354588, 41.854731350614095], [1.3456818381035205, 41.85472788089083], [1.3456841587674326, 41.85463784954489], [1.3454433125152947, 41.85463437932772], [1.345445633506108, 41.85454434799117], [1.3452047876337736, 41.854540877280094], [1.3452024663054811, 41.85463090860574], [1.344961620137998, 41.854627437378944], [1.3449592984616405, 41.85471746869217], [1.345079721708831, 41.85471920437412], [1.3450774001906307, 41.85480923569128], [1.3447161299745891, 41.85480402825046], [1.344718451999013, 41.85471399694967], [1.344477605578729, 41.85471052470236], [1.3444752832168223, 41.85480055599224], [1.3443548598538189, 41.85479881967384], [1.3443502147607584, 41.85497888223815], [1.3442297910708594, 41.85497714578263], [1.3442274683397035, 41.855067177057045], [1.3441070444916499, 41.85506544046986], [1.3441047215811603, 41.85515547173731], [1.3439842975749527, 41.85515373501847], [1.3439889437228294, 41.85497367249297], [1.3438685200646996, 41.85497193565884], [1.343861550320767, 41.85524202942845], [1.343500277891234, 41.85523681811972], [1.3435049254102465, 41.855056755640895], [1.343384501625744, 41.855055018296504], [1.3433937972116123, 41.85469489334245], [1.3432733741126717, 41.854693155893656], [1.3432756981513931, 41.8546031246568], [1.3425531607927095, 41.854592697346625], [1.3425508357415492, 41.85468272855075], [1.342309989702631, 41.85467925176017], [1.3423030134731078, 41.85494934533062], [1.341821319497601, 41.85494239016949], [1.3418166672749696, 41.8551224524985], [1.3415758196758691, 41.855118974138875], [1.3415711667358432, 41.855299036439945], [1.3413303185041907, 41.85529555755365], [1.3413256648467577, 41.85547561982677], [1.3410848159825544, 41.85547214041381], [1.341080161607702, 41.85565220265899], [1.3408393121109488, 41.85564872271935], [1.3408346570186649, 41.855828784936584], [1.3405938068893615, 41.85582530447025], [1.340589151079634, 41.856005366659545], [1.3404687256934014, 41.85600362622614], [1.3404663976038673, 41.85609365731303], [1.3403459720594977, 41.85609191674796], [1.3403483003177827, 41.85600188566652], [1.3386623461739708, 41.855977504580224], [1.3386670073836777, 41.855797442565944], [1.338546582504852, 41.855795700124176], [1.3385419209576475, 41.8559757621275], [1.3380602201986196, 41.855968791054565], [1.3380345735040684, 41.85695913172319], [1.3381550005341742, 41.856960874740956], [1.338148006264175, 41.85723096763502], [1.338268433811186, 41.857232710542995], [1.3382661025353568, 41.8573227415101], [1.3385069579987852, 41.857326226958364], [1.3385046270498497, 41.857416257934915], [1.3386250549662655, 41.8574180004752], [1.3386203933740395, 41.85759806243466], [1.33910210649606, 41.85760503137742], [1.3390997763590637, 41.857695062376756], [1.3392202048348925, 41.85769680430238], [1.3392178748560382, 41.85778683530566], [1.339579160853549, 41.857792060341666], [1.33957683137037, 41.85788209135985], [1.3396972602262143, 41.85788383279156], [1.3396995895406276, 41.857793801767905], [1.3399404469466412, 41.85779728424174], [1.3399381179697596, 41.857887315276336], [1.3401789757557763, 41.85789079725623], [1.3401766471058116, 41.85798082830023], [1.340537934370757, 41.857986050339875], [1.3405239652858756, 41.85852623667031], [1.3407648255408158, 41.85852971746457], [1.3407624976603978, 41.85861974852526], [1.3411237886287197, 41.85862496878643], [1.3411261160028203, 41.85853493770935], [1.3416078367673698, 41.85854189626866], [1.3416101634557707, 41.85845186516823], [1.3417305935046562, 41.858453604487046], [1.3417282669850272, 41.858543635592945], [1.341848697213292, 41.858545374791014], [1.3418463708518287, 41.85863540590086], [1.341966801259472, 41.85863714497817], [1.3419644750561774, 41.85872717609196], [1.3424461974678907, 41.858734131160844], [1.3424438719290899, 41.85882416229496], [1.3426847335361132, 41.858827639082996], [1.3426731073708464, 41.859277794785335], [1.3429139707080464, 41.85928127112309], [1.3429093208428537, 41.859461333415204], [1.3431501848975715, 41.8594648092699], [1.343145535665108, 41.85964487157776], [1.3432659680459276, 41.85964660932669], [1.3432636435825813, 41.859736640483796], [1.343384076142782, 41.85973837811196], [1.3433817518376223, 41.85982840927302], [1.343983915641477, 41.859837095547746], [1.3439862391027166, 41.859747064359425], [1.3441066717264858, 41.85974880123023], [1.3441089950083493, 41.859658770034926], [1.3442294274739264, 41.85966050677406], [1.3442340736683127, 41.85948044436801], [1.344474937956111, 41.8594839174458], [1.3444772606998554, 41.85939388622957]], [[1.3442875018589442, 41.857409726260705], [1.344289824696672, 41.857319695020394], [1.3444102527847401, 41.857321431491506], [1.344419543354708, 41.85696130649321], [1.3451421080551746, 41.856971722538546], [1.3451397864411294, 41.85706175382312], [1.3452602140970176, 41.85706348939438], [1.3452578926411498, 41.85715352068288], [1.3453783204763823, 41.857155256133375], [1.3453759991786933, 41.85724528742582], [1.345616855218431, 41.85724875795908], [1.3456052502588924, 41.857698914452875], [1.3457256791384575, 41.85770064955745], [1.345721037418107, 41.85788071215522], [1.3454801789944881, 41.857877241798086], [1.3454778577809043, 41.8579672730838], [1.3453574284161995, 41.857965537710456], [1.3453551070232639, 41.85805556898919], [1.3451142479880651, 41.85805209785296], [1.3451096044953628, 41.858232160384055], [1.3448687448274228, 41.85822868872114], [1.344875711063219, 41.85795859495493], [1.3447552817514379, 41.8579568589505], [1.3447576039776323, 41.85786682769751], [1.3446371748452064, 41.857865091572314], [1.3446441419665685, 41.857594997820556], [1.3445237133510302, 41.857593261585514], [1.344528358383196, 41.85741319908762], [1.3442875018589442, 41.857409726260705]], [[1.3417724690443078, 41.85683304432042], [1.3417701427155893, 41.85692307545372], [1.3418905699060697, 41.856924814553466], [1.341876612723602, 41.857465001354115], [1.3417561845205541, 41.85746326222159], [1.341758510912908, 41.85737323109741], [1.3416380828892296, 41.85737149184414], [1.3416427359796428, 41.85719142960216], [1.3415223083040946, 41.857189690233604], [1.3415269616896022, 41.857009627996455], [1.3416473890276301, 41.8570113673541], [1.3416520420331912, 41.85683130509992], [1.3417724690443078, 41.85683304432042]], [[1.3435695802303882, 41.857219242334125], [1.3435719040595075, 41.8571292111235], [1.3436923317465013, 41.85713094834097], [1.3436900080861438, 41.85722097955707], [1.3435695802303882, 41.857219242334125]], [[1.3441000757284114, 41.85533553426764], [1.3440977527861524, 41.8554255655305], [1.3442181773091872, 41.85542730213951], [1.344194948991635, 41.85632761473918], [1.3440745227810935, 41.85632587807563], [1.3440652304825345, 41.85668600305109], [1.3438243767431768, 41.85668252930173], [1.3438220533045442, 41.856772560530885], [1.3434607722686787, 41.85676734894391], [1.343470067984734, 41.85640722408366], [1.3438313469955199, 41.85641243560516], [1.343833670391783, 41.856322404369934], [1.343713244213016, 41.85632066732776], [1.3437248618792128, 41.85587051115604], [1.3439657125598143, 41.85587398505962], [1.3439796513847135, 41.85533379753789], [1.3441000757284114, 41.85533553426764]], [[1.3444567039404154, 41.855520806256614], [1.3444636712484752, 41.8552507124189], [1.3445840954657828, 41.85525244863837], [1.3445817732090968, 41.85534247992458], [1.3449430464307766, 41.855347687842134], [1.3449407246697433, 41.85543771914318], [1.3448203000831844, 41.85543598329142], [1.3448179781428191, 41.8555260145855], [1.3444567039404154, 41.855520806256614]]]}, "properties": {"area_ha": 27.06, "dnbr_threshold_core": 0.35, "dnbr_threshold_grow": 0.22, "dnbr_mean": 0.6726, "dnbr_max": 1.0504, "severity": "alta", "severity_method": "dnbr_mean", "forest_mask": "esa_worldcover_2021_10_20", "part": 13, "fire_id": "511314", "burn_year": 2026, "source": "sentinel", "aoi_source": "effis", "dnbr_threshold": 0.35, "buffer_m": 1200.0, "post_windows": 2, "post_window_dates": [{"start": "2026-06-20", "end": "2026-07-13"}, {"start": "2026-07-13", "end": "2026-08-12"}], "pre_window": {"start": "2026-03-30", "end": "2026-06-06"}, "fire_date": "2026-06-13"}}]}
