{"type": "FeatureCollection", "features": [{"type": "Feature", "geometry": {"type": "Polygon", "coordinates": [[[1.427372301836944, 41.25078841558448], [1.427491614246292, 41.25079004553211], [1.427489454579208, 41.25088008999143], [1.4274872949023234, 41.25097013444926], [1.4274851352156377, 41.25106017890559], [1.4276044481258825, 41.251061808745035], [1.4276022885930961, 41.25115185320499], [1.4276001290505098, 41.25124189766342], [1.4277194422979553, 41.25124352738956], [1.4277172829092701, 41.251333571851625], [1.4277151235107854, 41.25142361631219], [1.4277129641025017, 41.25151366077123], [1.4277108046844178, 41.25160370522879], [1.4277086452565344, 41.251693749684826], [1.4275893311905732, 41.25169211993303], [1.4275871715891846, 41.25178216438243], [1.4274678573693178, 41.25178053450192], [1.4274656975944227, 41.25187057894469], [1.4274635378097267, 41.25196062338594], [1.4273442232722486, 41.251958993371574], [1.4273420633140435, 41.25204903780619], [1.427339903346036, 41.25213908223931], [1.4273377433682268, 41.25222912667092], [1.4272184283494265, 41.252227496517555], [1.4272162681981053, 41.252317540942514], [1.427214108036981, 41.25240758536598], [1.427211947866053, 41.25249762978794], [1.427331263375985, 41.2524992599567], [1.427329103358966, 41.25258930438229], [1.4273269433321447, 41.25267934880636], [1.4273247832955207, 41.25276939322893], [1.427444099306393, 41.252771023289505], [1.4274419394236806, 41.2528610677157], [1.4273226232490948, 41.25285943764999], [1.4273204631928662, 41.25294948206956], [1.4273183031268342, 41.25303952648761], [1.4271989866346206, 41.25303789628805], [1.4271968263950698, 41.253127940699464], [1.4271946661457162, 41.253217985109366], [1.4271925058865584, 41.253308029517775], [1.4271903456175972, 41.25339807392467], [1.4273096627646809, 41.25339970414477], [1.4273075026496351, 41.253489748555296], [1.4273053425247868, 41.25357979296432], [1.4274246600091127, 41.2535814230711], [1.4275439775032415, 41.253583053054264], [1.4275418176960317, 41.25367309747205], [1.4276611353636823, 41.253674727336765], [1.427780453041134, 41.253676357077886], [1.4277782935515662, 41.25376640150443], [1.4278976114025401, 41.25376803112708], [1.4278954520668945, 41.253858075557254], [1.4280147700913899, 41.25385970506145], [1.428012610909668, 41.25394974949524], [1.4280104517181476, 41.254039793927525], [1.4280082925168287, 41.2541298383583], [1.4281276110422956, 41.25413146775429], [1.428125451994903, 41.25422151218871], [1.428244770693893, 41.254223141466234], [1.4282426118004288, 41.25431318590426], [1.4282404528971675, 41.254403230340785], [1.4282382939841078, 41.25449327477581], [1.428357613184077, 41.25449490394514], [1.428355454424949, 41.254584948383766], [1.4284747737984438, 41.25458657743463], [1.428594093181735, 41.25458820636189], [1.4285919347402691, 41.25467825080928], [1.428472615193248, 41.2546766218769], [1.428353295656024, 41.2546749928209], [1.428233976128597, 41.254673363641324], [1.4282318171861446, 41.254763408071824], [1.428351136877302, 41.25476503725654], [1.4283489780887832, 41.254855081690664], [1.4284682979534684, 41.254856710756904], [1.428466139318884, 41.25494675519466], [1.428346819290467, 41.25494512612329], [1.4283446604823535, 41.2550351705544], [1.428342501664444, 41.255125214984005], [1.4283403428367363, 41.255215259412104], [1.4284596633563533, 41.25521688849888], [1.428457504682583, 41.2553069329306], [1.4285768253757312, 41.25530856189889], [1.4285789838857668, 41.25521851746203], [1.428698304424976, 41.255220146301596], [1.428696146078675, 41.25531019074359], [1.4288154667914137, 41.25531181946469], [1.4288133085990538, 41.25540186391029], [1.4289326294853222, 41.25540349251292], [1.4289304714469047, 41.255493536962135], [1.4289283133986923, 41.255583581409866], [1.4289261553406871, 41.25567362585609], [1.4290454767279606, 41.255675254350486], [1.4290433188239005, 41.25576529880033], [1.4290411609100464, 41.255855343248676], [1.4291604826345914, 41.255856971629726], [1.4291583248746849, 41.255947016081684], [1.4290390029863993, 41.255945387695505], [1.4290368450529596, 41.256035432140834], [1.4290346871097261, 41.25612547658465], [1.4291540093254942, 41.256127104981076], [1.4291518515362098, 41.25621714942853], [1.4292711739255122, 41.25621877770649], [1.4292733315510542, 41.25612873325391], [1.4293926537864061, 41.25613036140314], [1.429390496324607, 41.25622040586084], [1.4295098187334925, 41.256222033891575], [1.4296291411521684, 41.25622366179872], [1.4296269840080644, 41.25631370626518], [1.4296248268541711, 41.256403750730115], [1.4296226696904881, 41.25649379519355], [1.4296205125170152, 41.25658383965547], [1.4296183553337525, 41.2566738841159], [1.4297376785809424, 41.25667551192507], [1.4298570018379217, 41.256677139610616], [1.429976325104689, 41.256678767172566], [1.430095648381244, 41.25668039461091], [1.4302149716675863, 41.256682021925634], [1.4303342949637143, 41.25668364911676], [1.4304536182696284, 41.25668527618427], [1.4304557743066655, 41.256595231687974], [1.430457930333918, 41.25650518719017], [1.430460086351386, 41.25641514269086], [1.4304622423590692, 41.25632509819005], [1.4304643983569687, 41.25623505368772], [1.4304665543450832, 41.25614500918389], [1.4305858766783126, 41.25614663609706], [1.4307051990213255, 41.25614826288661], [1.4307030433606966, 41.25623830740069], [1.4308223658772357, 41.25623993407176], [1.4309416884035568, 41.25624156061922], [1.4309438437366993, 41.2561515160949], [1.4310631661090585, 41.25615314251364], [1.4311824884911983, 41.25615476880878], [1.431184643487074, 41.256064724272704], [1.4313039657152515, 41.2560663504391], [1.4314232879532085, 41.25606797648191], [1.431421133284818, 41.256158021028206], [1.4315404556962954, 41.256159646952526], [1.4316597781175504, 41.25616127275323], [1.431779100548583, 41.25616289843033], [1.4317812547257451, 41.256072853868666], [1.4317834088931316, 41.2559828093055], [1.431664086789584, 41.25598118363864], [1.4316662411109355, 41.255891139079075], [1.4315469191809063, 41.25588951329373], [1.4315490736562217, 41.25579946873776], [1.4314297518997103, 41.255797842833935], [1.4313104301529769, 41.25579621680651], [1.4313082753501805, 41.25588626135222], [1.4313061205376056, 41.25597630589642], [1.4311867984731699, 41.25597467973514], [1.431188953449486, 41.25588463519606], [1.4310696315585711, 41.25588300891629], [1.4310717866888483, 41.25579296438082], [1.4309524649714542, 41.255791337982565], [1.4308331432638413, 41.25578971146072], [1.4308352987118167, 41.25569966693399], [1.4308374541500097, 41.25560962240577], [1.430956775530144, 41.255611248917376], [1.43107609692006, 41.25561287530538], [1.4311954183197557, 41.25561450156979], [1.4313147397292316, 41.25561612771058], [1.4313168945026908, 41.255526083160355], [1.4313190492663712, 41.25543603860863], [1.4314383703581508, 41.25543766461558], [1.4314405249483162, 41.255347620057215], [1.4314426795287027, 41.25525757549735], [1.4315620003027871, 41.25525920137048], [1.431564154709661, 41.25516915680398], [1.4315663091067574, 41.25507911223599], [1.4315684634940766, 41.25498906766649], [1.4314491432111962, 41.254987441808744], [1.4313298229380929, 41.25498581582739], [1.4313276682233056, 41.255075860386654], [1.4312083477962474, 41.255074234276584], [1.4312061929079476, 41.255164278829206], [1.4310868723269343, 41.25516265259042], [1.43108471726512, 41.255252697136406], [1.4310825621935255, 41.25534274168092], [1.4310804071121506, 41.25543278622392], [1.43096108604971, 41.25543115984615], [1.4309632412948217, 41.255341115308276], [1.430965396530152, 41.2552510707689], [1.4309675517557012, 41.25516102622802], [1.4308482311942488, 41.25515939974203], [1.4308460758049646, 41.25524944427779], [1.4308439204058983, 41.25533948881204], [1.4307245995267572, 41.255337862192185], [1.4307224439541728, 41.25542790671982], [1.4306031229210778, 41.25542627997124], [1.4306052786573986, 41.25533623544874], [1.430607434383936, 41.25524619092472], [1.43060959010069, 41.255156146399216], [1.4306117458076608, 41.25506610187221], [1.430731066185815, 41.25506772860028], [1.43073322171927, 41.25497768406664], [1.4308525419434732, 41.25497931066599], [1.4308546973034129, 41.25488926612571], [1.4309740173736647, 41.254890892596336], [1.4310933374536972, 41.25489251894338], [1.4310954924763912, 41.25480247439135], [1.4310976474893056, 41.25471242983782], [1.4310998024924404, 41.25462238528279], [1.431101957485795, 41.254532340726236], [1.4309826380606863, 41.2545307143997], [1.430980482903602, 41.25462075895112], [1.4309783277367365, 41.254710803501034], [1.430859007993948, 41.254709177040645], [1.4308568526535712, 41.25479922158393], [1.430737532756833, 41.25479759499482], [1.4307396882609413, 41.25470755045665], [1.4307418437552666, 41.25461750591699], [1.4308611633245438, 41.254619132495854], [1.4308633186453579, 41.25452908794956], [1.4308654739563909, 41.25443904340175], [1.430867629257643, 41.254348998852436], [1.4307483101795533, 41.25434737228893], [1.4306289911112455, 41.254345745601846], [1.430631146730171, 41.254255701061275], [1.4306333023393145, 41.2541656565192], [1.4305139836082432, 41.25416402971875], [1.43051613937133, 41.25407398518029], [1.4305182951246331, 41.25398394064033], [1.430520450868153, 41.25389389609887], [1.4304011326380408, 41.25389226919018], [1.4304032885355011, 41.25380222465234], [1.430405444423178, 41.25371218011298], [1.4302861265302957, 41.25371055309096], [1.430288282571911, 41.25362050855523], [1.430407600301071, 41.25362213557212], [1.4304097561691806, 41.25353209102977], [1.4304119120275065, 41.25344204648588], [1.4304140678760486, 41.2533520019405], [1.4302947506380503, 41.253350374938975], [1.4302969066405282, 41.25326033039721], [1.4301775895760331, 41.25325870327721], [1.430179745732445, 41.25316865873907], [1.430299062633222, 41.25317028585395], [1.4303012186161308, 41.25308024130918], [1.4301819018790722, 41.25307861419943], [1.4301840580159142, 41.252988569658264], [1.430186214142971, 41.25289852511561], [1.4301883702602436, 41.25280848057146], [1.4301905263677313, 41.25271843602579], [1.43007121029532, 41.252716808812934], [1.4300733665567371, 41.25262676427089], [1.4299540506578248, 41.25262513693958], [1.4299562070731697, 41.25253509240115], [1.429958363478728, 41.252445047861215], [1.4299605198745007, 41.25235500331977], [1.4298412044765116, 41.25235337588025], [1.4298433610262087, 41.25226333134241], [1.429724045801717, 41.252261703784434], [1.4297262025053377, 41.25217165925023], [1.429606887454343, 41.25217003157378], [1.4296090443118858, 41.25207998704318], [1.4294897294343887, 41.25207835924827], [1.4294918864458515, 41.251988314721316], [1.4294940434475254, 41.25189827019285], [1.429374728907233, 41.2518966422846], [1.4293768860628253, 41.251806597759746], [1.4293790432086282, 41.2517165532334], [1.4293812003446418, 41.25162650870554], [1.429500514393816, 41.251628136598406], [1.4295026713563355, 41.25153809206391], [1.4295048283090663, 41.25144804752792], [1.4293855145873011, 41.251446419645305], [1.4293876716939469, 41.25135637511293], [1.429506985252009, 41.25135800299043], [1.4295091421851631, 41.25126795845142], [1.4293898287908036, 41.25126633057905], [1.4292705154062333, 41.2512647025831], [1.4292683581456738, 41.251354747111854], [1.42914904460719, 41.251353118987204], [1.4291468871731385, 41.251443163509315], [1.429027573480743, 41.25144153525594], [1.4290297310784974, 41.251351490738955], [1.4289104175595968, 41.25134986236712], [1.4287911040504875, 41.2513482338717], [1.4287889461253263, 41.25143827837844], [1.4286696324623072, 41.251436649754304], [1.4285503188090813, 41.25143502100659], [1.4284310051656501, 41.25143339213529], [1.428428846739586, 41.25152343662513], [1.4283095329422464, 41.25152180762511], [1.4283116915320142, 41.2514317631404], [1.428313850111986, 41.25134171865419], [1.4284331635819192, 41.251343347643946], [1.4285524770616478, 41.25134497651011], [1.4285546353044203, 41.25125493201213], [1.4284353219883934, 41.251253303151096], [1.4283160086821622, 41.25125167416647], [1.4283181672425425, 41.25116162967724], [1.4283203257931274, 41.2510715851865], [1.4283224843339162, 41.250981540694255], [1.4282031715285814, 41.25097991160143], [1.428205330223274, 41.25088986711283], [1.4282074889081697, 41.2507998226227], [1.4282096475832702, 41.250709778131075], [1.428090335278826, 41.250708148930066], [1.4280924941078263, 41.250618104442054], [1.4280946529270298, 41.25052805995255], [1.4279753409597757, 41.25052643063822], [1.4278560290023181, 41.250524801200314], [1.4278581881391152, 41.250434756719564], [1.4277388763551515, 41.2504331271632], [1.4277367170546598, 41.25052317163882], [1.4277345577443694, 41.250613216112924], [1.4276152456428135, 41.25061158642272], [1.4276174051168005, 41.25052154195374], [1.4274980931887404, 41.25051991214509], [1.4273787812704817, 41.250518282212845], [1.4273766214691035, 41.25060832667156], [1.4273744616579243, 41.25069837112877], [1.427372301836944, 41.25078841558448]], [[1.4311997281843711, 41.25543441247807], [1.431197573256953, 41.25552445702468], [1.4310782520209955, 41.25552283076539], [1.4310804071121506, 41.25543278622392], [1.4311997281843711, 41.25543441247807]]]}, "properties": {"area_ha": 12.1, "dnbr_threshold_core": 0.35, "dnbr_threshold_grow": 0.22, "forest_mask": "esa_worldcover_2021_10_20", "part": 0, "fire_id": "583386_0", "burn_year": 2026, "source": "sentinel", "aoi_source": "effis", "dnbr_threshold": 0.35, "buffer_m": 1200.0, "post_windows": 2, "post_window_dates": [{"start": "2026-08-05", "end": "2026-08-28"}, {"start": "2026-08-28", "end": "2026-09-22"}], "pre_window": {"start": "2026-05-15", "end": "2026-07-22"}, "fire_date": "2026-07-29", "severity": "moderada", "severity_method": "threshold_proxy", "aoi_id": "583386", "seed_id": "583386"}}]}
