{"type": "FeatureCollection", "features": [{"type": "Feature", "geometry": {"type": "Polygon", "coordinates": [[[1.900633164731298, 41.46237153759321], [1.900628601045924, 41.462641713140975], [1.9013469392902453, 41.46264857677159], [1.9013499797670812, 41.462468459698], [1.9014697025008283, 41.46246960319323], [1.9014727426188573, 41.46228948610661], [1.9012332978205992, 41.462287199005985], [1.9012363385733073, 41.46210708192791], [1.900877172421241, 41.46210365036426], [1.900878693283964, 41.46201359183384], [1.900758971412681, 41.46201244773374], [1.9007604924340675, 41.461922389205455], [1.9005210490434028, 41.46192010063874], [1.9005225703890294, 41.46183004211618], [1.9002831273571827, 41.46182775305838], [1.9002846490270462, 41.46173769454158], [1.8996860423963828, 41.461731969735055], [1.8996845198986378, 41.46182202823385], [1.8995647984276898, 41.46182088289522], [1.8995571850072526, 41.46227117534924], [1.8994374627153348, 41.46227002986801], [1.899431371192056, 41.462630263790516], [1.8995510941463012, 41.462631409286146], [1.8995450031745906, 41.46299164319971], [1.899664726798097, 41.462992788585176], [1.8996616816018808, 41.463172905540404], [1.8995419576472001, 41.463171760147716], [1.899537389304194, 41.46344193555877], [1.8997768382140114, 41.463444226241194], [1.8997737932797567, 41.46362434318901], [1.9000132428796224, 41.463626633387534], [1.9000117207332974, 41.46371669186646], [1.9001314457092024, 41.46371783678245], [1.9001299237215505, 41.463807895263514], [1.9003693740253031, 41.46381018472896], [1.9003739389739491, 41.463540009259766], [1.9002542143153904, 41.46353886460013], [1.9002679102780735, 41.46272833814608], [1.9003876334463439, 41.462729482773284], [1.9003891550198009, 41.462639424267486], [1.9005088780294044, 41.46264056876652], [1.900511920824402, 41.46246045174333], [1.9000330301521564, 41.46245587302858], [1.9000299860324972, 41.46263599002295], [1.8999102630505669, 41.46263484502562], [1.8999193963200003, 41.4620944940466], [1.9005180063314004, 41.46210021767945], [1.9005149635917336, 41.462280334714315], [1.9006346859459249, 41.462281479074356], [1.900636207153636, 41.46219142055407], [1.9007559293491627, 41.46219256478594], [1.9007544083070316, 41.46228262330983], [1.9008741306750534, 41.46228376742073], [1.9008726097915887, 41.46237382594678], [1.900633164731298, 41.46237153759321]], [[1.8997996743384773, 41.46209334894631], [1.8998027190374178, 41.461913231948834], [1.8999224406877846, 41.461914377041914], [1.8999193963200003, 41.4620944940466], [1.8997996743384773, 41.46209334894631]]]}, "properties": {"area_ha": 1.64, "dnbr_threshold_core": 0.35, "dnbr_threshold_grow": 0.22, "dnbr_mean": 0.3292, "dnbr_max": 0.5155, "severity": "moderada", "severity_method": "dnbr_mean", "forest_mask": "esa_worldcover_2021_10_20", "part": 3, "fire_id": "272117_3", "burn_year": 2025, "source": "sentinel", "aoi_source": "effis", "dnbr_threshold": 0.35, "buffer_m": 1200.0, "post_windows": 2, "post_window_dates": [{"start": "2025-06-28", "end": "2025-07-21"}, {"start": "2025-07-21", "end": "2025-08-20"}], "pre_window": {"start": "2025-04-07", "end": "2025-06-14"}, "fire_date": "2025-06-21", "aoi_id": "272117", "seed_id": "272117"}}, {"type": "Feature", "geometry": {"type": "Polygon", "coordinates": [[[1.8988053283960216, 41.46424558648119], [1.8988022806876206, 41.46442570334502], [1.8994009119140505, 41.46443143305245], [1.8994024349437257, 41.46434137460323], [1.8996418871515743, 41.4643436656069], [1.8996403644530955, 41.46443372406333], [1.8999995433135783, 41.46443715964527], [1.9000056320787981, 41.46407692576755], [1.8995267295948812, 41.46407234480012], [1.899523683901342, 41.46425246171307], [1.899164506117518, 41.464249024657754], [1.8991660294645378, 41.46415896621283], [1.8990463037160425, 41.46415782028215], [1.8990478272217328, 41.464067761839374], [1.8989281016457593, 41.46406661578772], [1.8989296253101182, 41.46397655734709], [1.8990493507204973, 41.46397770339512], [1.8990508742123362, 41.46388764494941], [1.8988114237296927, 41.463885352735964], [1.8988129475457918, 41.46379529429601], [1.8985734974220445, 41.46379300159146], [1.8985750215624009, 41.463702943157266], [1.8983355717975545, 41.463700649961595], [1.8983386207198456, 41.46352053310325], [1.8982188961789994, 41.463519386325764], [1.8982204207953397, 41.463429327898005], [1.8981006964270153, 41.46342818099955], [1.8981022212020138, 41.46333812257394], [1.896665531310083, 41.46332435011861], [1.8966670580652092, 41.463234291734885], [1.8965473341182335, 41.46323314322412], [1.896548861032006, 41.46314308484256], [1.8963094134900542, 41.463140787454535], [1.8963109407280585, 41.46305072907872], [1.896071493545052, 41.46304843119961], [1.8960730211072847, 41.46295837282957], [1.8957138508816163, 41.462954925087445], [1.895712322822627, 41.46304498344663], [1.8953531521627225, 41.46304153457245], [1.8953546807184687, 41.46295147622411], [1.8946363405798134, 41.46294457513388], [1.8946348110305558, 41.4630346334605], [1.8945150875328607, 41.46303348283915], [1.894513557811064, 41.46312354116069], [1.8939149395989887, 41.463117786167196], [1.8939164701487146, 41.46302772786377], [1.893796746692756, 41.46302657649497], [1.8937921545259448, 41.463296751390004], [1.8935527066413869, 41.4632944482569], [1.8935435201327966, 41.46383479796405], [1.8940224199039046, 41.46383940381887], [1.8940193590034327, 41.464019520405216], [1.8947377108559225, 41.46402642549349], [1.8947392403160765, 41.46393636717933], [1.8941406145829125, 41.46393061326865], [1.894143675138285, 41.463750496672134], [1.8937845007754153, 41.463747042852496], [1.8937906237897566, 41.46338680968542], [1.8939103479080626, 41.46338796106872], [1.8939118784786624, 41.46329790276967], [1.8940316024383381, 41.463299054024766], [1.8940300720333267, 41.46338911232744], [1.8941497961655474, 41.46339026346158], [1.8941513264049716, 41.46330020515529], [1.8946302223410625, 41.463304808431594], [1.8946286927639908, 41.463394866752374], [1.8948681411049377, 41.46339716765029], [1.8948650825922912, 41.46357728430195], [1.8951045316234039, 41.46357958471603], [1.8951030026878335, 41.46366964304689], [1.8952227273794073, 41.46367079307069], [1.8952211986024772, 41.46376085140373], [1.8954606483376562, 41.4637631510848], [1.8954591198849606, 41.46385320942361], [1.895698569979118, 41.463855508613605], [1.8956970418506602, 41.46394556695819], [1.895816767073753, 41.463946716369925], [1.8958137111271842, 41.46412683306194], [1.895693985572903, 41.46412568364297], [1.8956955137152554, 41.46403562530131], [1.8954560629587243, 41.46403332609684], [1.8954545344851832, 41.46412338443126], [1.8955742600255694, 41.46412453409941], [1.8955696750600421, 41.464394709104766], [1.8956894011041643, 41.464395858659174], [1.8956863447569352, 41.46457597532934], [1.8955666183816176, 41.4645748257677], [1.8955650900319831, 41.46466488409697], [1.8956848165728999, 41.46466603366223], [1.8956832883819168, 41.46475609199367], [1.8955635616754003, 41.46475494242479], [1.8955605049413908, 41.46493505907603], [1.8956802319791095, 41.46493620865215], [1.8956787037672838, 41.4650262669792], [1.8955589765639635, 41.46502511739946], [1.8955574481795885, 41.46511517572144], [1.8956771755485118, 41.46511632530479], [1.895675647322791, 41.46520638362891], [1.895316464740056, 41.46520293449425], [1.8953149360105757, 41.46529299280607], [1.8951952083312917, 41.46529184284173], [1.8951936794292565, 41.46538190114845], [1.8957923187231924, 41.4653876497424], [1.8957938467972022, 41.46529759141758], [1.895913574511228, 41.46529874075899], [1.895912046602823, 41.46538879908743], [1.8962712302833895, 41.465392246374975], [1.896272757694979, 41.46530218803569], [1.896631940941225, 41.46530563419112], [1.896628887104736, 41.465485750889904], [1.8968683432993656, 41.465488047718374], [1.8968668167019223, 41.46557810607281], [1.8967470884355306, 41.46557695771725], [1.8967455616655398, 41.465667016066625], [1.8966258332404808, 41.465665867582864], [1.8966243062979407, 41.46575592592715], [1.8963848491374324, 41.465753628578646], [1.8963833218567319, 41.465843686914255], [1.8962635931212832, 41.4658425380495], [1.8962605382078328, 41.46602265470908], [1.8961408091481078, 41.466021505712504], [1.896134698575427, 41.46638173899967], [1.89637415802672, 41.466384036897146], [1.8963756853490805, 41.46629397857033], [1.8966151444969213, 41.46629627596219], [1.8966136175057877, 41.46638633429626], [1.8968530770126228, 41.466388631197], [1.8968515503457763, 41.466478689536835], [1.8966120905077122, 41.46647639262886], [1.896609036490735, 41.46665650928968], [1.896369576017977, 41.46665421186888], [1.8963680486678414, 41.46674427018987], [1.8962483182762613, 41.46674312128897], [1.8962467907535652, 41.46683317960488], [1.896007329660004, 41.46683088142206], [1.8960088575139342, 41.46674082311338], [1.895889127143189, 41.466739673838696], [1.895886071097147, 41.46691979044736], [1.8960058017991275, 41.46692093972928], [1.896002746056536, 41.46710105633933], [1.8961224770967007, 41.467102205503885], [1.8961209493806064, 41.46719226381033], [1.8962406805933358, 41.467193412853916], [1.8962422081438102, 41.467103354543845], [1.8963619391978646, 41.467104503459204], [1.8963665213107632, 41.4668343285094], [1.8964862518749048, 41.46683547728932], [1.8964847246765009, 41.466925535611], [1.8968439169074345, 41.46692898121406], [1.896846970303593, 41.46674886454755], [1.8970864311631161, 41.46675116097883], [1.897087957519551, 41.46666110263615], [1.8972076877941042, 41.46666225066128], [1.8972031092008355, 41.46693242569575], [1.8973228399791802, 41.466933573607136], [1.8973167357534968, 41.46729380698043], [1.8975561986559613, 41.4672961024583], [1.8975577243915458, 41.46720604410994], [1.8977971869905128, 41.467208339082205], [1.897800237778392, 41.46702822236667], [1.8976805068066813, 41.46702707495006], [1.897682032355838, 41.466937016593704], [1.8975623015566825, 41.46693586905611], [1.8975668786593929, 41.46666569398913], [1.8976866089616953, 41.46666684151589], [1.8976835578980593, 41.4668469582359], [1.898042749840281, 41.46685040009029], [1.898044274878713, 41.46676034172019], [1.8981640053743696, 41.46676148875219], [1.8981670550992016, 41.46658137200038], [1.8982867852705574, 41.466582518900566], [1.8982791617345744, 41.46703281078717], [1.898638354774497, 41.46703625079428], [1.8986398789986987, 41.466946192409054], [1.8987596098602466, 41.4669473388253], [1.8987580858016648, 41.467037397214135], [1.8988778168357607, 41.46703854350939], [1.8988717211946313, 41.46739877706452], [1.8989914528981415, 41.46739992324961], [1.8989884053672554, 41.46758004002563], [1.898868673332498, 41.46757889383333], [1.8988656254426517, 41.46775901059629], [1.8989853578086602, 41.467760156795805], [1.8989868815914215, 41.46767009841145], [1.8992263460129688, 41.46767239042947], [1.8992278694575526, 41.467582332036436], [1.8993476015130908, 41.467583477854944], [1.8993491247851246, 41.46749341945685], [1.8999477843385553, 41.46749914666239], [1.8999493067755462, 41.46740908824482], [1.9000690385413752, 41.46741023330853], [1.9000705608058222, 41.46732017488589], [1.9006692189106484, 41.467325898317505], [1.9006676974743169, 41.46741595675816], [1.9007874292816591, 41.46741710107429], [1.900790471816159, 41.46723698418432], [1.9006707403400624, 41.46723583987538], [1.9006722617625598, 41.46714578143182], [1.9005525304590023, 41.46714463700188], [1.9005555736144881, 41.46696452011756], [1.9001963807390452, 41.46696108610181], [1.9001979028032698, 41.46687102766826], [1.9003176335892127, 41.46687217246118], [1.9003206773656676, 41.46669205558248], [1.900440407827293, 41.46669320024359], [1.900441929539525, 41.46660314179846], [1.900681390152295, 41.46660543073968], [1.9006798687712974, 41.46669548919203], [1.9009193297429683, 41.46669777764208], [1.9009223718355799, 41.46651766072155], [1.9008026416775203, 41.46651651656602], [1.9008041628790697, 41.46642645810715], [1.9006844328935413, 41.466425313830634], [1.900685954253789, 41.46633525537391], [1.9005662244407924, 41.4663341109764], [1.9005677459597383, 41.46624405252182], [1.9003282866857245, 41.46624176336022], [1.90032980852898, 41.466151704911375], [1.9002100790679641, 41.46615056014728], [1.9002116010699135, 41.46606050170059], [1.8999721424998652, 41.466058211805844], [1.8999751871454515, 41.4658780949225], [1.8998554582020304, 41.465876949795444], [1.8998569806800523, 41.46578689135518], [1.8996175231451964, 41.4657846007345], [1.8996205687429124, 41.465604483864], [1.8992613834862053, 41.465601047020215], [1.8992629067715021, 41.465510988593586], [1.898903722073944, 41.4655075506393], [1.8989052458491364, 41.46541749222204], [1.8987855177960777, 41.46541634599171], [1.8987870417299484, 41.465326287576595], [1.8986673138494237, 41.465325141225286], [1.8986688379419716, 41.465235082812306], [1.8981899271515894, 41.465230496175614], [1.8981914518996266, 41.46514043777562], [1.8979519968772314, 41.46513814371697], [1.8979535219495436, 41.46504808532273], [1.8981929766407315, 41.465050379374155], [1.898197550822457, 41.46478020416099], [1.8983172776816433, 41.464781350989], [1.898320326770268, 41.464601234165706], [1.898440053305184, 41.464602380861905], [1.8984431020348889, 41.464422264025565], [1.898562828245537, 41.464423410589966], [1.8985658766163276, 41.46424329374055], [1.8988053283960216, 41.46424558648119]], [[1.897833794614349, 41.465046938110135], [1.8978353198453313, 41.46495687971804], [1.897955047014923, 41.464958026927015], [1.8979535219495436, 41.46504808532273], [1.897833794614349, 41.465046938110135]], [[1.8970925365472204, 41.46639092759937], [1.8972122663249282, 41.46639207561367], [1.8972092139779841, 41.46657219231355], [1.8970894838690466, 41.46657104429202], [1.8970925365472204, 41.46639092759937]], [[1.8993689266913905, 41.46632266014868], [1.8992491969545238, 41.46632151438064], [1.8992476736068993, 41.466411572794115], [1.8991279437113433, 41.46641042689789], [1.8991309907308944, 41.46623031007668], [1.8993704498664759, 41.46623260173012], [1.8993689266913905, 41.46632266014868]], [[1.8972137924879928, 41.46630201726154], [1.897094062875899, 41.46630086925086], [1.8970955891976384, 41.46621081090089], [1.8969758597580968, 41.46620966276922], [1.8969773862385095, 41.466119604421394], [1.8968576569715199, 41.46611845616875], [1.8968591836106041, 41.466028397823074], [1.8969789127119825, 41.466029546072114], [1.896980439178516, 41.465939487721364], [1.8972198970708696, 41.465941783838424], [1.8972137924879928, 41.46630201726154]], [[1.8980579999126168, 41.465949816323544], [1.8982974579298089, 41.46595211019798], [1.8982913593089679, 41.46631234375108], [1.8980518999668783, 41.46631004984777], [1.8980579999126168, 41.465949816323544]], [[1.8965183214376258, 41.464944252196545], [1.8966380485309031, 41.46494540077597], [1.8966349947499468, 41.46512551748646], [1.8965152673254646, 41.4651243688998], [1.8965183214376258, 41.464944252196545]], [[1.8977155926826732, 41.46495573238445], [1.8977140672860884, 41.465045790772955], [1.897354885342918, 41.4650423480139], [1.8973564112363106, 41.464952289636244], [1.8977155926826732, 41.46495573238445]], [[1.8968775027382812, 41.46494769756107], [1.8968790292871438, 41.46485763919641], [1.896639575410969, 41.46485534241854], [1.8966411022840932, 41.464765284059645], [1.8962819220186966, 41.464761837969284], [1.8962849767377195, 41.4645817212688], [1.89604552392457, 41.46457942326676], [1.8960470516048629, 41.46448936492156], [1.8962865040868153, 41.464491662916366], [1.896288031428968, 41.464401604562475], [1.8961683053501175, 41.46440045563097], [1.8961713603447854, 41.46422033892603], [1.896051634604072, 41.464219189877184], [1.8960562175407767, 41.46394901481967], [1.8962956680355794, 41.46395131277107], [1.8962971953360712, 41.463861254408414], [1.8965366455274608, 41.46386355185427], [1.8965396994452473, 41.4636834351101], [1.8971383233892658, 41.463689176508446], [1.8971367972618032, 41.46377923489932], [1.8972565222370157, 41.463780382808864], [1.8972549962682077, 41.4638704412019], [1.8973747214159502, 41.46387158899047], [1.8973731956057986, 41.46396164738566], [1.8976126462532794, 41.46396394259627], [1.8976141717322443, 41.46387388419386], [1.8979733472586953, 41.4638773260646], [1.8979748722339462, 41.4637872676499], [1.898214322288393, 41.463789561600265], [1.8982127976443277, 41.46387962002219], [1.8984522480576853, 41.463881913481444], [1.8984476750774715, 41.46415208876008], [1.8983279493705434, 41.46415094208192], [1.8983218513041846, 41.46451117575187], [1.8982021249417982, 41.4645100289347], [1.8982006002422829, 41.46460008734491], [1.8980808737212294, 41.46459894039954], [1.8980778239702032, 41.464779057208396], [1.897359463002285, 41.46477217287656], [1.897362514740512, 41.46459205611102], [1.897242788268, 41.46459090829355], [1.8972443142923066, 41.46450084991222], [1.897124587992331, 41.46449970197377], [1.8971261141752989, 41.464409643594585], [1.896886661927359, 41.46440734735118], [1.8968851354131953, 41.46449740572316], [1.8966456828618188, 41.464495108974184], [1.8966441560095184, 41.46458516733747], [1.8965244295786428, 41.46458401877249], [1.896522902553802, 41.464674077130695], [1.8967623557536928, 41.46467637414329], [1.8967608290531095, 41.464766432507254], [1.897120009401799, 41.4647698771026], [1.8971184831910781, 41.46485993547595], [1.8973579371227665, 41.46486223125713], [1.8973564112363106, 41.464952289636244], [1.8968775027382812, 41.46494769756107]], [[1.8958075991506902, 41.46448706642843], [1.8958091271552335, 41.464397008088994], [1.8960485792782107, 41.4643993065749], [1.8960470516048629, 41.46448936492156], [1.8958075991506902, 41.46448706642843]]]}, "properties": {"area_ha": 11.15, "dnbr_threshold_core": 0.35, "dnbr_threshold_grow": 0.22, "dnbr_mean": 0.4622, "dnbr_max": 0.8655, "severity": "alta", "severity_method": "dnbr_mean", "forest_mask": "esa_worldcover_2021_10_20", "part": 9, "fire_id": "272117_9", "burn_year": 2025, "source": "sentinel", "aoi_source": "effis", "dnbr_threshold": 0.35, "buffer_m": 1200.0, "post_windows": 2, "post_window_dates": [{"start": "2025-06-28", "end": "2025-07-21"}, {"start": "2025-07-21", "end": "2025-08-20"}], "pre_window": {"start": "2025-04-07", "end": "2025-06-14"}, "fire_date": "2025-06-21", "aoi_id": "272117", "seed_id": "272117"}}, {"type": "Feature", "geometry": {"type": "Polygon", "coordinates": [[[1.903779209573963, 41.46753572701616], [1.9037807267109768, 41.467445668483485], [1.9036609947309584, 41.46744452728229], [1.9036685811406824, 41.466994234614894], [1.9037883122925878, 41.466995375798135], [1.9037913464769525, 41.46681525871379], [1.9035518848425192, 41.46681297623707], [1.9035534022555938, 41.46672291769987], [1.9031942103525408, 41.466719493061106], [1.903195728255571, 41.46662943453323], [1.9028365369114786, 41.46662600878391], [1.9028380553044588, 41.46653595026535], [1.9025985947741446, 41.46653366581669], [1.9026001134914547, 41.46644360730385], [1.9023606533199906, 41.466441322364005], [1.9023621723616266, 41.46635126385692], [1.9021227125490172, 41.466348978425884], [1.902124231914977, 41.46625891992453], [1.9017650427447135, 41.466255490854316], [1.9017665626006068, 41.466165432362274], [1.9015271035195382, 41.46616314569971], [1.9015286236997486, 41.466073087213424], [1.900810247616109, 41.46606622425711], [1.9008117687830797, 41.46597616579095], [1.9006920396256188, 41.46597502153242], [1.9006889969535368, 41.46615513845609], [1.9008087264422227, 41.46615628272181], [1.9008072052614202, 41.46624634118506], [1.9014058536366356, 41.4662520606628], [1.9014028129104308, 41.46643217762088], [1.9016422729713645, 41.466434464554226], [1.9016407529291257, 41.46652452303828], [1.9017604831355746, 41.46652566632165], [1.901758963252042, 41.46661572480785], [1.9022378848093933, 41.466620296709806], [1.902236365581422, 41.46671035520893], [1.9023560961536459, 41.46671149787652], [1.902351538925147, 41.466981673375905], [1.9022318078560658, 41.46698053069751], [1.9022302886004665, 41.467070589190804], [1.9021105573726715, 41.46706944638421], [1.902109037944544, 41.46715950487243], [1.901989306558035, 41.46715836193766], [1.9019847477353382, 41.467428537382766], [1.9018650158588695, 41.4674273943126], [1.9018619762779463, 41.46760751126151], [1.9019817084856645, 41.46760865433886], [1.9019801888504646, 41.46769871281472], [1.9024591184129194, 41.46770328389255], [1.9024575994333175, 41.467793342381334], [1.9025773320068238, 41.46779448484289], [1.9025758131859436, 41.4678845433338], [1.902695545931983, 41.46788568567434], [1.9026970645872352, 41.46779562717984], [1.902816797174551, 41.4677967693922], [1.9028183156572727, 41.46770671089263], [1.9030577805213598, 41.46770899493635], [1.903059298665926, 41.46761893642814], [1.9035382278144122, 41.46762350300604], [1.9035397452895744, 41.467533444481994], [1.903779209573963, 41.46753572701616]], [[1.90318358483811, 41.46734990271533], [1.903063853058213, 41.46734876089473], [1.903065371175172, 41.46725870238068], [1.9034245660386946, 41.467262127457886], [1.9034230484186052, 41.46735218598272], [1.9035427802192026, 41.46735332742952], [1.9035412627578379, 41.46744338595649], [1.903182066879873, 41.46743996123152], [1.90318358483811, 41.46734990271533]], [[1.9033093877263565, 41.46699081031759], [1.9030699254846388, 41.466988526829745], [1.9030684073883848, 41.467078585348176], [1.9028289448430316, 41.46707630135477], [1.9028304632705273, 41.46698624284351], [1.902591001084028, 41.4669839583589], [1.902594038580788, 41.466803841346405], [1.9027137693393466, 41.46680498364382], [1.9027122507600378, 41.46689504215439], [1.9028319816911197, 41.4668961843308], [1.9028335001048085, 41.46680612581664], [1.9033124232356804, 41.46681069326197], [1.9033093877263565, 41.46699081031759]]]}, "properties": {"area_ha": 1.8, "dnbr_threshold_core": 0.35, "dnbr_threshold_grow": 0.22, "dnbr_mean": 0.4126, "dnbr_max": 0.6944, "severity": "moderada", "severity_method": "dnbr_mean", "forest_mask": "esa_worldcover_2021_10_20", "part": 11, "fire_id": "272117_11", "burn_year": 2025, "source": "sentinel", "aoi_source": "effis", "dnbr_threshold": 0.35, "buffer_m": 1200.0, "post_windows": 2, "post_window_dates": [{"start": "2025-06-28", "end": "2025-07-21"}, {"start": "2025-07-21", "end": "2025-08-20"}], "pre_window": {"start": "2025-04-07", "end": "2025-06-14"}, "fire_date": "2025-06-21", "aoi_id": "272117", "seed_id": "272117"}}]}
