{"type": "FeatureCollection", "features": [{"type": "Feature", "geometry": {"type": "Polygon", "coordinates": [[[2.100834045116548, 41.39358264266475], [2.1008315626683536, 41.39376277286008], [2.101070770392423, 41.393764641973874], [2.1010769748201366, 41.39331431644528], [2.1011965778653923, 41.393315250801024], [2.101197818568974, 41.393225185688024], [2.1019154359686056, 41.39323078919456], [2.101920394765512, 41.39287052865757], [2.1020399970249968, 41.39287146212854], [2.1020424760595686, 41.392691331845484], [2.1021620779946035, 41.39269226518626], [2.1021633173384005, 41.39260220003964], [2.102282919114026, 41.392603133253196], [2.1022841582871528, 41.392513068102176], [2.102642963152693, 41.392515866988255], [2.1026442018250724, 41.392425801826995], [2.102763803293138, 41.39242673453748], [2.1027650417948505, 41.392336669371836], [2.102884643103507, 41.3923376019551], [2.102888358079767, 41.39206740644069], [2.102768757266221, 41.39206647386624], [2.102769995745423, 41.39197640869481], [2.1025307944652853, 41.39197454317888], [2.1025320332689286, 41.39188447801188], [2.1024124328023372, 41.39188354507041], [2.1024136717653845, 41.39179347990491], [2.1018156703420576, 41.391788813347894], [2.101814430553843, 41.39187887849871], [2.101336028856447, 41.39187514300408], [2.1013372693047945, 41.39178507786502], [2.1012176690595683, 41.39178414368358], [2.1012151878271688, 41.391964273954365], [2.101095587257512, 41.39196333964275], [2.101094346467821, 41.39205340477303], [2.1009747457387684, 41.39205247033418], [2.100968540880557, 41.39250279594921], [2.100729337789, 41.3925009266692], [2.100726855146085, 41.39268105689333], [2.100487651416931, 41.39267918710437], [2.100493859632299, 41.392228861562636], [2.1003742586013767, 41.39222792649643], [2.100375500392561, 41.392137861386686], [2.1002558995323164, 41.39213692619913], [2.100259625367116, 41.39186673087007], [2.100140025007619, 41.391865795567064], [2.1001412671062987, 41.391775730457425], [2.100021666917479, 41.39177479503307], [2.100020424653766, 41.39186486013975], [2.099781223962996, 41.39186298891226], [2.099779981363571, 41.39195305401162], [2.099660380861621, 41.39195211820849], [2.099659138091516, 41.392042183303445], [2.0995395374301786, 41.39204124737307], [2.0995370515429554, 41.39222137755276], [2.0991782486026214, 41.392218568998224], [2.099175761702585, 41.39239869915445], [2.0990561604036997, 41.39239776271512], [2.0990549167801675, 41.392487827788116], [2.0991745182440917, 41.39248876423039], [2.0991720313101543, 41.39266889437794], [2.098932827727801, 41.39266702135731], [2.0989290962942717, 41.39293721655011], [2.0988094940164492, 41.3929362798445], [2.098808250028927, 41.39302634490292], [2.098688647591715, 41.393025408070066], [2.0986874034334964, 41.393115473124105], [2.098567800836895, 41.393114536164], [2.098566556507979, 41.39320460121363], [2.098327351001652, 41.39320272691463], [2.098323616990707, 41.39347292203719], [2.098204013750891, 41.3934719846924], [2.0982027689042178, 41.39356204972739], [2.0978439587235713, 41.39355923693835], [2.097842713376099, 41.39364930196306], [2.0977231098288196, 41.39364836411516], [2.0977218643106403, 41.39373842913547], [2.097602260603972, 41.393737491160316], [2.0975997692205355, 41.39391762119071], [2.0977193732573025, 41.39391855917176], [2.0977206187868007, 41.393828494154334], [2.0978402226641775, 41.39382943200814], [2.0978364865538532, 41.39409962706492], [2.0979560909320405, 41.39410056480328], [2.097951110032594, 41.394460824870556], [2.098070715076651, 41.39446176249642], [2.0980669798378204, 41.39473195754056], [2.0981865853827024, 41.39473289505097], [2.0981878303029142, 41.39464283003476], [2.098427041079536, 41.394644704676764], [2.0984257964894373, 41.39473476969889], [2.098306190933242, 41.3947338324371], [2.0983037014059636, 41.3949139624711], [2.0984233072922747, 41.394914899738794], [2.0984220626852093, 41.39500496475658], [2.098541668742235, 41.395005901902934], [2.0985404242945735, 41.39509596692223], [2.0984208180724893, 41.395095029772925], [2.098418328830081, 41.39527515980127], [2.0985379353822875, 41.395276096956465], [2.098536690917662, 41.39536616197143], [2.098417084200394, 41.395365224813276], [2.0984145949240522, 41.39554535483294], [2.0982949878823143, 41.39554441754458], [2.098291253430189, 41.395814612554396], [2.0981716458989124, 41.39581367513288], [2.0981691559057465, 41.395993805126295], [2.098288763767156, 41.39599474255372], [2.0982875189271546, 41.39608480755121], [2.0985267349970784, 41.396086682039034], [2.098527979506944, 41.395996617035635], [2.0987671952693527, 41.395998491020315], [2.098768439443429, 41.39590842600957], [2.0990076548983176, 41.39591029949111], [2.0990151178432765, 41.395369909360966], [2.099493544859322, 41.39537365476159], [2.099494788003452, 41.39528358972305], [2.0996143946065255, 41.39528452575949], [2.099615637579945, 41.39519446071655], [2.0997352440236052, 41.395195396625745], [2.0997364868263158, 41.395105331578414], [2.0999756994004564, 41.395107203017986], [2.0999769418674004, 41.39501713796333], [2.1000965479978793, 41.3950180734937], [2.1000977902941176, 41.394928008434654], [2.0999781843286978, 41.394927072907215], [2.0999794267843495, 41.394837007849674], [2.100099032584711, 41.394837943374164], [2.1001002748696593, 41.39474787831222], [2.099980669234356, 41.39474694279067], [2.099981911678716, 41.39465687773022], [2.1001015171489628, 41.394657813248834], [2.1001040016906347, 41.39447768311772], [2.0999843965505, 41.39447674760502], [2.099986881399701, 41.39429661747402], [2.0998672765953197, 41.394295681842905], [2.0998685191765056, 41.394205616778166], [2.099629309914789, 41.39420374514891], [2.0996305528204333, 41.39411368008863], [2.0998697617520445, 41.394115551712], [2.0998710043219373, 41.39402548664439], [2.1002298172665443, 41.39402829313835], [2.100231059335638, 41.393938228060456], [2.1001114551801745, 41.39393729268972], [2.1001151818487407, 41.39366709745621], [2.100234785509055, 41.39366803281811], [2.1002372695964473, 41.39348790264932], [2.10035687293231, 41.39348883788104], [2.100358114802494, 41.393398772791535], [2.1004777179789533, 41.39339970789601], [2.100476476273816, 41.39348977298845], [2.100596079620965, 41.39349070797157], [2.1005998042243124, 41.39322051268105], [2.1007194070819644, 41.39322144753105], [2.10071444159307, 41.39358170792728], [2.100834045116548, 41.39358264266475]], [[2.100721889792567, 41.39304131732425], [2.1008414923257726, 41.39304225204407], [2.100840251138335, 41.39313231715112], [2.1009598538422236, 41.393133251749575], [2.100958612814191, 41.393223316858126], [2.1007194070819644, 41.39322144753105], [2.100721889792567, 41.39304131732425]]]}, "properties": {"area_ha": 8.13, "dnbr_threshold_core": 0.35, "dnbr_threshold_grow": 0.22, "dnbr_mean": 0.5142, "dnbr_max": 0.9022, "severity": "alta", "severity_method": "dnbr_mean", "forest_mask": "esa_worldcover_2021_10_20", "part": 1, "fire_id": "636793", "burn_year": 2026, "source": "sentinel", "aoi_source": "effis", "dnbr_threshold": 0.35, "buffer_m": 1200.0, "post_windows": 2, "post_window_dates": [{"start": "2026-08-21", "end": "2026-09-13"}, {"start": "2026-09-13", "end": "2026-09-23"}], "pre_window": {"start": "2026-05-31", "end": "2026-08-07"}, "fire_date": "2026-08-14"}}]}
