{"type": "FeatureCollection", "features": [{"type": "Feature", "geometry": {"type": "Polygon", "coordinates": [[[1.3950241642578762, 41.542624495269195], [1.3949043188508161, 41.54262282212275], [1.3949020917263921, 41.54271286057764], [1.394782246163345, 41.5427111873011], [1.3947800188626758, 41.54280122574921], [1.3946601731436423, 41.542799552342565], [1.394657945666727, 41.5428895907839], [1.3945380997917067, 41.54288791724714], [1.3945358721385432, 41.54297795568169], [1.3941763340759208, 41.54297293430657], [1.394178562227437, 41.542882895887814], [1.393699178950281, 41.54287619899421], [1.3936924924719145, 41.54314631418277], [1.3935726461796112, 41.543144639631464], [1.3935704171670964, 41.54323467801935], [1.3934505707188107, 41.543233003337924], [1.3934483415300383, 41.543323041719056], [1.3932086483316413, 41.543319691971135], [1.3932064188004893, 41.543409730340194], [1.3927270318608955, 41.54340302932511], [1.392724801655118, 41.54349306767159], [1.3924851079139318, 41.54348971640443], [1.3924784162390045, 41.543759831403186], [1.3923585688852602, 41.54375815556652], [1.3923563381405375, 41.543848193891144], [1.392236490630814, 41.54384651792436], [1.3922320287786836, 41.5440265945585], [1.3921121809468548, 41.54402491845633], [1.3921099498394436, 41.54411495676588], [1.391990101851636, 41.54411328053358], [1.3919878705679511, 41.54420331883634], [1.3918680224241642, 41.54420164247393], [1.3918635594940945, 41.54438171906435], [1.3917437110282, 41.54438004256654], [1.3917414793818126, 41.54447008085421], [1.391621630759938, 41.544468404226265], [1.391619398937272, 41.54455844250716], [1.3914995501594174, 41.54455676574909], [1.3914950861513713, 41.544736842295784], [1.3913752370514065, 41.54473516540232], [1.391373004866025, 41.54482520366812], [1.3911333063642868, 41.544821849496095], [1.3911266087504295, 41.54509196425276], [1.3909791370430042, 41.54508990031905], [1.3909402084298441, 41.54518021829991], [1.3909082387971592, 41.545269047043654], [1.3911221436237569, 41.54527204074966], [1.3911243761921699, 41.54518200250197], [1.3912442261024984, 41.5451836796715], [1.3912397612877907, 41.54536375617592], [1.3911199110451897, 41.54536207899582], [1.3911176784564696, 41.54545211724049], [1.3909978280578852, 41.54545043993026], [1.390993362517706, 41.5456305164045], [1.3912330639895816, 41.545633870921186], [1.3912352964324708, 41.54554383267428], [1.3914749976126808, 41.545547186680984], [1.3914772297131415, 41.54545714842201], [1.391716930601682, 41.54546050191875], [1.391725857572917, 41.54510034882555], [1.3918457073678667, 41.545102025365544], [1.3918479389191662, 41.5450119870832], [1.3919677885581305, 41.54501366349306], [1.3919700199331477, 41.54492362520391], [1.3922097189092524, 41.544926977638546], [1.3921941013969263, 41.54555724570456], [1.3920742507408466, 41.54555556951277], [1.3920764820106153, 41.545465531227435], [1.391956631530822, 41.54546385491606], [1.3919588629565804, 41.54537381663449], [1.391839012653073, 41.54537214020353], [1.3918323178469372, 41.5456422550279], [1.3917124670551642, 41.54564057845627], [1.3916990761720072, 41.54618080803254], [1.3918189279606301, 41.5461824846358], [1.3918144645839974, 41.54636256115966], [1.3919343167150597, 41.5463642376486], [1.3919320851776646, 41.54645427591355], [1.3920519374850222, 41.546455952282905], [1.3920407804765504, 41.54690614361124], [1.3924003399517342, 41.54691117204925], [1.3924025708752759, 41.54682113377079], [1.3925224238878144, 41.546822809661805], [1.3925291160991171, 41.54655269480155], [1.3926489686233556, 41.546554370551895], [1.3926601212752256, 41.54610417906153], [1.3925402695817148, 41.54610250333754], [1.3925558840312589, 41.545472235224366], [1.3924360335108787, 41.545470559412415], [1.392438264272086, 41.54538052110976], [1.3923184139279896, 41.545378845178234], [1.3923295684125252, 41.544928653668585], [1.392449417925944, 41.544930329573766], [1.3924538793164698, 41.54475025294879], [1.392334030135317, 41.544748577054136], [1.3923362609814949, 41.54465853874465], [1.3924561099965158, 41.54466021463401], [1.3924583406664166, 41.544570176317734], [1.3922186429787817, 41.544566824424685], [1.3922141809643103, 41.54474690103465], [1.3919744826527365, 41.544743548621106], [1.3919811766560095, 41.54447343373553], [1.39210102530833, 41.544475109988916], [1.3921032564563292, 41.544385071685426], [1.3922231049526679, 41.54438674780868], [1.3922253359243906, 41.54429670949841], [1.3923451842647467, 41.544298385491544], [1.392347415060196, 41.54420834717449], [1.3924672632445694, 41.54421002303752], [1.3924650326152486, 41.544300061359834], [1.3925848809758952, 41.544301737103275], [1.3925871114390884, 41.544211698775676], [1.3927069596437505, 41.544213374388995], [1.392711420207451, 41.54403329771871], [1.3928312680900026, 41.544034973196645], [1.392833498190512, 41.54394493485396], [1.3929533459170798, 41.54394661020178], [1.392955575841322, 41.54385657185233], [1.393195270992631, 41.54385992216286], [1.3931975005744823, 41.543769883801346], [1.3933173479992231, 41.54377155876407], [1.393319577404811, 41.54368152039578], [1.3934394246735666, 41.54368319522839], [1.3934416539028922, 41.54359315685333], [1.3938011952716165, 41.543598180586265], [1.3938034239924364, 41.54350814219388], [1.3940431179566894, 41.5435114907144], [1.3940498030616058, 41.54324137549658], [1.394289496069669, 41.54324472348613], [1.3942828119614805, 41.543514838735526], [1.3946423530446628, 41.54351985983085], [1.394644580592492, 41.543429821400125], [1.3948842743663576, 41.543433168162245], [1.3948865015718133, 41.54334312971947], [1.3947666548459374, 41.5433414564061], [1.394768882207385, 41.54325141796704], [1.3948887287671403, 41.543253091275155], [1.3948909559523377, 41.54316305282936], [1.394651263175197, 41.54315970609881], [1.3946534906825039, 41.543069667662024], [1.39477333689989, 41.54307134108445], [1.3947755642309487, 41.542981302640875], [1.394895410292346, 41.54298297593321], [1.3948998645918385, 41.542802899031], [1.39513955608055, 41.54280624522007], [1.395141782882871, 41.542716206756175], [1.3950219372995671, 41.54271453372933], [1.3950241642578762, 41.542624495269195]], [[1.3946490356577592, 41.543249744534094], [1.394409342588901, 41.543246397293636], [1.3944115704385784, 41.54315635886888], [1.394651263175197, 41.54315970609881], [1.3946490356577592, 41.543249744534094]], [[1.3925982636028946, 41.543761507115], [1.3927181109769282, 41.543763182701966], [1.3927158807305784, 41.543853221042404], [1.3925960331904208, 41.54385154545016], [1.3925982636028946, 41.543761507115]]]}, "properties": {"area_ha": 3.15, "dnbr_threshold_core": 0.35, "dnbr_threshold_grow": 0.22, "dnbr_mean": 0.3033, "dnbr_max": 0.4996, "severity": "moderada", "severity_method": "dnbr_mean", "forest_mask": "esa_worldcover_2021_10_20", "part": 4, "fire_id": "gencat_431397_2026-07-27", "burn_year": 2026, "source": "sentinel", "aoi_source": "gencat", "dnbr_threshold": 0.35, "buffer_m": 800.0, "post_windows": 2, "post_window_dates": [{"start": "2026-08-03", "end": "2026-08-26"}, {"start": "2026-08-26", "end": "2026-09-23"}], "pre_window": {"start": "2026-05-13", "end": "2026-07-20"}, "fire_date": "2026-07-27"}}, {"type": "Feature", "geometry": {"type": "Polygon", "coordinates": [[[1.3994250489626077, 41.54890064630386], [1.3995174535153152, 41.5489019327498], [1.399545467542363, 41.54887956105776], [1.3995515696974294, 41.54863219925214], [1.3990721426905672, 41.54862552400768], [1.3990743644915116, 41.54853548546189], [1.399314077642403, 41.54853882332337], [1.3993162991009114, 41.54844878476556], [1.3991964426865795, 41.54844711590251], [1.3991986643011491, 41.548357077348456], [1.3989589518351284, 41.548353739258225], [1.3989567298882288, 41.548443777801786], [1.3988368735042118, 41.548442108564124], [1.3988390956172765, 41.54835207002581], [1.3982398146796253, 41.54834372199068], [1.3982375917357373, 41.54843376050273], [1.3981177354123702, 41.548432090515846], [1.3981221816223643, 41.54825201350073], [1.3980023256414362, 41.54825034339948], [1.3980045488974306, 41.54816030489489], [1.397884693092777, 41.54815863467403], [1.397878022795969, 41.54842875016747], [1.397638310220018, 41.548425409319606], [1.3976360864351929, 41.5485154478039], [1.397516229996223, 41.54851377718741], [1.3975184539472127, 41.54842373870837], [1.3973985976845227, 41.54842206797225], [1.397400821791561, 41.548332029496976], [1.3971611096288568, 41.54832868766066], [1.397154436280403, 41.54859880305047], [1.3972742928551924, 41.54860047404682], [1.3972720685516404, 41.548690512512316], [1.397152211810685, 41.5486888415107], [1.3971499873308488, 41.54877887996943], [1.3970301304338435, 41.54877720883769], [1.397027905777723, 41.54886724728965], [1.3967881916817309, 41.548863904641046], [1.3967859666831548, 41.54895394308099], [1.3966661094841695, 41.548952271564126], [1.3966638843093047, 41.54904230999729], [1.3969035990497338, 41.54904565291666], [1.3969013741970888, 41.54913569135883], [1.397141089310334, 41.549139033789224], [1.3971433138306386, 41.54904899533655], [1.3973830286520126, 41.54905233725693], [1.397385252829861, 41.54896229879223], [1.397864681929315, 41.54896898111353], [1.397862458416145, 41.54905901959925], [1.3981021733588908, 41.54906236002117], [1.3981043965397213, 41.54897232152494], [1.3985838258818635, 41.54897900084931], [1.3985860483879062, 41.54888896233056], [1.3991853344621668, 41.54889730865014], [1.399187556127258, 41.548807270103644], [1.399427270295361, 41.54881060774687], [1.3994250489626077, 41.54890064630386]]]}, "properties": {"area_ha": 1.3, "dnbr_threshold_core": 0.35, "dnbr_threshold_grow": 0.22, "dnbr_mean": 0.2851, "dnbr_max": 0.4048, "severity": "moderada", "severity_method": "dnbr_mean", "forest_mask": "esa_worldcover_2021_10_20", "part": 10, "fire_id": "gencat_431397_2026-07-27", "burn_year": 2026, "source": "sentinel", "aoi_source": "gencat", "dnbr_threshold": 0.35, "buffer_m": 800.0, "post_windows": 2, "post_window_dates": [{"start": "2026-08-03", "end": "2026-08-26"}, {"start": "2026-08-26", "end": "2026-09-23"}], "pre_window": {"start": "2026-05-13", "end": "2026-07-20"}, "fire_date": "2026-07-27"}}]}
