{"type": "FeatureCollection", "features": [{"type": "Feature", "geometry": {"type": "Polygon", "coordinates": [[[2.8365619677771514, 42.12042555093013], [2.8364409926565717, 42.120425378557556], [2.836439834555185, 42.120875700605296], [2.8365608105323354, 42.120875872980555], [2.8365605790801984, 42.12096593738638], [2.8366815552297235, 42.12096610963466], [2.836680630095872, 42.12132636724593], [2.836559653261072, 42.12132619499552], [2.8365594218036456, 42.12141625939424], [2.836438444798584, 42.12141608701572], [2.8364386764273304, 42.12132602261754], [2.8361967227630243, 42.12132567747895], [2.8361971867026194, 42.12114554868049], [2.836076210214695, 42.12114537592097], [2.8360759780741085, 42.12123544032037], [2.8359550014159263, 42.12123526743276], [2.8359545367889307, 42.121415396226226], [2.8358335597891697, 42.121415223209986], [2.835833327302758, 42.121505287604045], [2.835712350132739, 42.12150511445972], [2.835711419491172, 42.12186537201956], [2.8354694637837388, 42.121865025343936], [2.8354689977712724, 42.12204515411318], [2.835227041382797, 42.12204480692518], [2.835226574680762, 42.12222493568655], [2.83571048883259, 42.122225629556716], [2.8357100234969184, 42.12240575831677], [2.835831002380193, 42.12240593146653], [2.8358305373829285, 42.122586060222], [2.8361934750671076, 42.122586578909235], [2.836193939036391, 42.12240645015052], [2.8364358968124925, 42.1224067953021], [2.8364368233677117, 42.122046537763296], [2.8366787797774244, 42.12204688240035], [2.8366792423633793, 42.12186675362026], [2.8370421759579223, 42.121867269616], [2.8370426375117033, 42.12168714082701], [2.836921659988448, 42.12168696895705], [2.8369223528251766, 42.12141677576451], [2.837043329834465, 42.121416947632845], [2.8370435606066096, 42.12132688323195], [2.83728551428571, 42.12132722658491], [2.837285975141557, 42.12114709777672], [2.8374069516400486, 42.12114726926081], [2.837407872653836, 42.12078701162523], [2.837528848468112, 42.12078718297962], [2.8375286183875597, 42.120877247391185], [2.837649594374203, 42.12087741861857], [2.83765028409876, 42.120607225378016], [2.8378922350473084, 42.12060756744693], [2.8378926941731732, 42.12042743861065], [2.838134644440666, 42.12042778016726], [2.838134415220884, 42.12051784458719], [2.8383763658351926, 42.12051818563472], [2.8383768235884603, 42.120338056791304], [2.838255848623407, 42.12033788633239], [2.8382560776697825, 42.12024782190908], [2.8377721785052907, 42.120247138800146], [2.837772637965382, 42.120067009953566], [2.8376516635195017, 42.120066838858556], [2.8376521233180094, 42.11988671000738], [2.8378940715255854, 42.11988705206772], [2.8378945306346623, 42.119706923208724], [2.837652583112314, 42.11970658115053], [2.83765281300789, 42.119616516719965], [2.8377737865972334, 42.11961668781229], [2.837774016320454, 42.119526623379784], [2.8380159631596804, 42.119526965180754], [2.83801573377907, 42.11961702961434], [2.8382576809651, 42.11961737090623], [2.838257451926052, 42.11970743533948], [2.838620373226864, 42.1197079463224], [2.8386210587991214, 42.11943775301362], [2.8387420320542343, 42.11943792308458], [2.838742488754577, 42.1192577942039], [2.838863461668127, 42.11925796414625], [2.8388639180216937, 42.11907783525881], [2.8392268357407895, 42.11907834431749], [2.839226380415032, 42.11925847320812], [2.8393473533327493, 42.11925864264035], [2.8393471258396126, 42.119348707084065], [2.839468098929672, 42.119348876389274], [2.8394678716067987, 42.119438940832104], [2.8395888448692004, 42.119439110010326], [2.8395886177165925, 42.11952917445226], [2.839709591151337, 42.11952934350347], [2.839709137185617, 42.11970947238416], [2.839467189631945, 42.11970913415209], [2.839466962304916, 42.11979919858923], [2.8393459883583314, 42.11979902928136], [2.839346215856667, 42.11970896484474], [2.839225242082429, 42.11970879540986], [2.8392241037238115, 42.120159117576094], [2.838982154465377, 42.12015877831839], [2.838981470409852, 42.1204289715979], [2.839102445552482, 42.12042914129212], [2.8391022177032017, 42.12051920571632], [2.8393441683342115, 42.1205195447232], [2.839344850851055, 42.12024935144315], [2.8395868004583518, 42.120249689936685], [2.8395872547791416, 42.12006956107409], [2.8397082292417273, 42.120069730128485], [2.839708910201201, 42.11979953682238], [2.8398298841509, 42.11979970574763], [2.839830791397118, 42.11943944798415], [2.8397098181326403, 42.119439279061], [2.839710272092136, 42.11925915017181], [2.8398312450140075, 42.119259319093885], [2.8398323790380893, 42.118808996843384], [2.839348490782837, 42.11880832040047], [2.839349173240412, 42.1185381270395], [2.839107230146804, 42.118537788056045], [2.8391074579731743, 42.118447723600596], [2.8389864865992274, 42.11844755391811], [2.8389869425914327, 42.118267425004056], [2.839107913622791, 42.11826759468548], [2.839108141446037, 42.118177530225786], [2.8388661997269495, 42.11817719073646], [2.8388666560554863, 42.117997061814954], [2.8387456855400903, 42.11799689188007], [2.8387452288689694, 42.11817702080049], [2.8386242580120333, 42.118176850737], [2.8386238009941507, 42.1183569796507], [2.838865743394241, 42.11835731965229], [2.8388650588873574, 42.118627513015376], [2.839107002319393, 42.118627852510045], [2.83910677449094, 42.11871791696262], [2.838985802603104, 42.11871774727854], [2.838985574602312, 42.118807811729184], [2.8387436304871714, 42.11880747197732], [2.83874340214274, 42.11889753642547], [2.8383804854639627, 42.11889702583959], [2.8383800277441695, 42.119077154728416], [2.8381380826116804, 42.11907681369803], [2.838137853407613, 42.11916687813924], [2.8380168806716384, 42.11916670743221], [2.838017110047007, 42.119076642991516], [2.837775164920806, 42.11907630119591], [2.837775394637727, 42.11898623675489], [2.8375334498583262, 42.11898589445021], [2.837534600140159, 42.11853557222914], [2.8374136286085245, 42.118535400888184], [2.8374124774702025, 42.11898572310658], [2.8372915050831318, 42.11898555163542], [2.837291044277835, 42.11916568051176], [2.837412017007508, 42.11916585198401], [2.837411556540604, 42.11934598085574], [2.8372905834683273, 42.11934580938242], [2.8372896618366736, 42.119706067106726], [2.8370477143248447, 42.11970572377315], [2.8370474835716855, 42.1197957881996], [2.8368055357214623, 42.119795444354814], [2.836805304624634, 42.11988550877876], [2.8369262787205254, 42.119885680765464], [2.836926047793949, 42.11997574518853], [2.8370470220622033, 42.119975917048244], [2.83704679130588, 42.12006598147042], [2.836925816866317, 42.12006580961018], [2.8369255859376294, 42.1201558740304], [2.8368046113278123, 42.120155702042084], [2.836804842427809, 42.120065637622396], [2.836683867990357, 42.120065465507075], [2.836684099260607, 42.119975401086506], [2.836563124995521, 42.11997522884419], [2.836562893553963, 42.12006529326421], [2.8364419191186263, 42.12006512089381], [2.8364414558897164, 42.120245249728534], [2.836562430667673, 42.12024542210001], [2.8365619677771514, 42.12042555093013]], [[2.839348263294899, 42.118898384851285], [2.839469235528453, 42.11889855415384], [2.8394690082107745, 42.118988618603765], [2.839106090999334, 42.11898811031189], [2.839106546661446, 42.118807981413816], [2.839348490782837, 42.11880832040047], [2.839348263294899, 42.118898384851285]], [[2.838258826144635, 42.11916704871875], [2.8382585971108214, 42.11925711315909], [2.8383795700201926, 42.11925728361159], [2.8383793411566347, 42.119347348051036], [2.838137394996335, 42.11934700701743], [2.838137853407613, 42.11916687813924], [2.838258826144635, 42.11916704871875]], [[2.8370465605485027, 42.12015604589119], [2.83704632979007, 42.12024611031054], [2.8369253550078866, 42.120245938449216], [2.8369255859376294, 42.1201558740304], [2.8370465605485027, 42.12015604589119]]]}, "properties": {"area_ha": 4.6, "dnbr_threshold_core": 0.35, "dnbr_threshold_grow": 0.22, "dnbr_mean": 0.4252, "dnbr_max": 0.9988, "severity": "moderada", "severity_method": "dnbr_mean", "forest_mask": "esa_worldcover_2021_10_20", "part": 28, "fire_id": "555402", "burn_year": 2026, "source": "sentinel", "aoi_source": "effis", "dnbr_threshold": 0.35, "buffer_m": 1200.0, "post_windows": 2, "post_window_dates": [{"start": "2026-07-10", "end": "2026-08-02"}, {"start": "2026-08-02", "end": "2026-09-01"}], "pre_window": {"start": "2026-04-19", "end": "2026-06-26"}, "fire_date": "2026-07-03"}}, {"type": "Feature", "geometry": {"type": "Polygon", "coordinates": [[[2.832206151263264, 42.120689458342895], [2.8317222488861282, 42.120688749714944], [2.831722010583511, 42.12077881410165], [2.831359083298149, 42.12077828128984], [2.831358844480495, 42.12086834567346], [2.8311168926197463, 42.12086798982675], [2.831116653458368, 42.12095805420784], [2.8309956773583167, 42.12095787609261], [2.8309949593536707, 42.12122806922568], [2.8311159359676763, 42.12122824734258], [2.831115218467146, 42.121498440464535], [2.8313571727263573, 42.12149879631906], [2.8313564562439244, 42.12176898943158], [2.8315984115354373, 42.121769344779274], [2.831598173048425, 42.12185940914839], [2.831719150867141, 42.12185958663147], [2.8317189125503632, 42.12194965099973], [2.8322028245214135, 42.12195035965882], [2.832202586888849, 42.122040424027894], [2.8326864995625805, 42.12204113064845], [2.832686262614237, 42.1221311950183], [2.8328072409567056, 42.12213137135512], [2.8328084248309686, 42.12168104948886], [2.8326874473451253, 42.12168087315481], [2.8326876842880537, 42.121590808777846], [2.8325667069746157, 42.1215906323168], [2.832567655420783, 42.12123037479698], [2.8324466787937115, 42.121230198210604], [2.8324476279078095, 42.120869940670296], [2.832205676027461, 42.12086958711935], [2.832206151263264, 42.120689458342895]]]}, "properties": {"area_ha": 1.52, "dnbr_threshold_core": 0.35, "dnbr_threshold_grow": 0.22, "dnbr_mean": 0.6832, "dnbr_max": 0.9666, "severity": "alta", "severity_method": "dnbr_mean", "forest_mask": "esa_worldcover_2021_10_20", "part": 34, "fire_id": "555402", "burn_year": 2026, "source": "sentinel", "aoi_source": "effis", "dnbr_threshold": 0.35, "buffer_m": 1200.0, "post_windows": 2, "post_window_dates": [{"start": "2026-07-10", "end": "2026-08-02"}, {"start": "2026-08-02", "end": "2026-09-01"}], "pre_window": {"start": "2026-04-19", "end": "2026-06-26"}, "fire_date": "2026-07-03"}}, {"type": "Feature", "geometry": {"type": "Polygon", "coordinates": [[[2.834733298194349, 42.12582681372313], [2.83461231280959, 42.12582663940464], [2.8346137182996043, 42.12528625346062], [2.834734702656222, 42.12528642777582], [2.8347361070795785, 42.1247460417774], [2.834857090409154, 42.124746215961764], [2.834857324304619, 42.12465615162318], [2.835220273785708, 42.12465667340928], [2.835220507166058, 42.124566609067635], [2.8354624731494216, 42.124566956286166], [2.835463871352972, 42.12402657019994], [2.8357058352844455, 42.1240269169017], [2.835706766028107, 42.12366665947813], [2.8359487285930984, 42.12366700566532], [2.8359494256116418, 42.12339681257948], [2.835707464074686, 42.12339646639557], [2.8357081621116933, 42.1231262733002], [2.83498228061044, 42.12312523169695], [2.834981579489368, 42.123395424782515], [2.834860598728883, 42.1233952507339], [2.8348598970841796, 42.12366544380503], [2.8347389158107457, 42.12366526962721], [2.834737745524815, 42.124115591381305], [2.834616763395739, 42.12411541707321], [2.834616294931188, 42.12429554576382], [2.8344953124604926, 42.124295371327065], [2.834494843648965, 42.12447550001089], [2.834373860836648, 42.124475325445495], [2.8343731570972754, 42.124745518458944], [2.834131190447767, 42.12474516894218], [2.8341300158138516, 42.12519549059738], [2.833525094925092, 42.125194614559426], [2.833524859138317, 42.12528467888346], [2.8331619061039257, 42.12528415172829], [2.833161669802009, 42.12537421604926], [2.832798716263274, 42.125373687744386], [2.83279847944621, 42.12546375206225], [2.832556510083087, 42.12546339922009], [2.832555798597258, 42.125733592161886], [2.83243481340325, 42.12573341554778], [2.8324345760677807, 42.125823479858326], [2.832676546799597, 42.12582383296005], [2.8326763098057612, 42.12591389727029], [2.8335232086007163, 42.125915129111924], [2.8335229728053193, 42.1260051934246], [2.8336439585231337, 42.12600536889227], [2.83364372289802, 42.126095433204064], [2.8338856946796005, 42.12609578375781], [2.8338854593961336, 42.126185848069305], [2.8340064454598997, 42.126186023155384], [2.83400621034672, 42.126276087465996], [2.834127196582923, 42.12627626242506], [2.834126961640032, 42.1263663267348], [2.8346109072810295, 42.126367025297554], [2.8346106730225222, 42.12645708960806], [2.835215605954677, 42.126457959944], [2.8352158393563633, 42.12636789563076], [2.8350948529391595, 42.12636772181925], [2.8350950865111426, 42.126277657505135], [2.83497410026637, 42.126277483566604], [2.834974567749858, 42.12609735493519], [2.8348535818488787, 42.12609718087018], [2.834853815760381, 42.12600711655289], [2.834732830031832, 42.126006942360874], [2.834733298194349, 42.12582681372313]], [[2.834492030689801, 42.1255562719946], [2.834491561848273, 42.12573640063868], [2.8343705766370153, 42.12573622606561], [2.8343710458212583, 42.125556097422624], [2.834492030689801, 42.1255562719946]]]}, "properties": {"area_ha": 3.29, "dnbr_threshold_core": 0.35, "dnbr_threshold_grow": 0.22, "dnbr_mean": 0.6597, "dnbr_max": 1.0926, "severity": "alta", "severity_method": "dnbr_mean", "forest_mask": "esa_worldcover_2021_10_20", "part": 41, "fire_id": "555402", "burn_year": 2026, "source": "sentinel", "aoi_source": "effis", "dnbr_threshold": 0.35, "buffer_m": 1200.0, "post_windows": 2, "post_window_dates": [{"start": "2026-07-10", "end": "2026-08-02"}, {"start": "2026-08-02", "end": "2026-09-01"}], "pre_window": {"start": "2026-04-19", "end": "2026-06-26"}, "fire_date": "2026-07-03"}}, {"type": "Feature", "geometry": {"type": "Polygon", "coordinates": [[[2.840544211453532, 42.12439400127604], [2.84054443729144, 42.12430393690653], [2.840665419814708, 42.124304104965404], [2.8406656454802377, 42.12421404059395], [2.840544663128316, 42.1242138725356], [2.8405460181278945, 42.12367348628022], [2.8403040554832644, 42.123673149787194], [2.8403045078268923, 42.12349302102615], [2.8395786219739154, 42.123492008492114], [2.839578167574209, 42.12367213724681], [2.838610317086987, 42.123670780049885], [2.8386100885148484, 42.123760844420836], [2.8384891070372977, 42.123760674196696], [2.8384893357807774, 42.12367060982628], [2.8383683544756133, 42.12367043947511], [2.8383688123021154, 42.12349031073107], [2.8386107742281297, 42.123490651303726], [2.8386126027509127, 42.12277013626227], [2.83849162315807, 42.12276996604399], [2.8384918518900486, 42.12267990165796], [2.8386128313115595, 42.12268007187569], [2.8386130598711614, 42.12259000748771], [2.8383711013718482, 42.122589666925755], [2.8383701857565105, 42.122949924464926], [2.838491165690975, 42.12295009481182], [2.8384907082196986, 42.123130223573945], [2.8383697279425637, 42.12313005322599], [2.8383692701244323, 42.12331018198137], [2.8384902507442407, 42.1233103523304], [2.8384900220049425, 42.12340041670651], [2.8382480604236973, 42.12340007587983], [2.83824760225661, 42.12358020462562], [2.838126621124879, 42.12358003401988], [2.8381252455704336, 42.124120420219995], [2.838367209891047, 42.12412076131033], [2.8383669809709953, 42.124210825673124], [2.838608945638484, 42.124211166254305], [2.838609402792164, 42.12403103752518], [2.838730384784787, 42.12403120762337], [2.8387306131887167, 42.12394114325615], [2.838972576834407, 42.1239414830688], [2.838971208451313, 42.12448186925726], [2.8387292427494795, 42.124481529438214], [2.8387283291024406, 42.124841786864536], [2.838607345567693, 42.124841616761536], [2.838606659807396, 42.12511180981477], [2.838485675759637, 42.125111639582606], [2.8384852182381732, 42.1252917682766], [2.8383642338487522, 42.125291597915805], [2.838364004915097, 42.12538166226014], [2.838122035796685, 42.125381321154805], [2.838122952895858, 42.12502106377324], [2.8382439367691252, 42.125021234387546], [2.8382450822627603, 42.124570912625984], [2.838124099246245, 42.12457074201437], [2.838123640709234, 42.12475087072218], [2.837881673993951, 42.12475052911409], [2.8378807555365415, 42.125110786508394], [2.8376387874546447, 42.12511044438579], [2.837638327534228, 42.12529057307226], [2.83739635877112, 42.12529023043726], [2.837395898161077, 42.12547035911591], [2.8375168828848154, 42.12547053049827], [2.837516652749571, 42.125560594836], [2.8376376376457184, 42.12556076609134], [2.83763717771479, 42.12574089476364], [2.8377581629547035, 42.12574106589247], [2.8377579331590215, 42.12583113022703], [2.837878918571345, 42.12583130122884], [2.83787845931955, 42.12601142989476], [2.8376364878105136, 42.126011087761405], [2.837636257840319, 42.12610115209116], [2.8377572437656733, 42.12610132322215], [2.8377570139657897, 42.12619138755103], [2.8378780000635566, 42.12619155855499], [2.8378777704339857, 42.12628162288299], [2.8381197429753926, 42.126281964509296], [2.8381204308327845, 42.126011771517845], [2.838241416590974, 42.12601194213805], [2.8382421039248547, 42.125741749132224], [2.8383630891700125, 42.12574191962326], [2.838363318107853, 42.1256518552846], [2.838484303182699, 42.12565202564753], [2.8384845319481364, 42.12556196130692], [2.8386055168526707, 42.125562131541756], [2.8386057454457054, 42.1254720671992], [2.8387267301799275, 42.125472237305935], [2.8387274154386977, 42.12520204426814], [2.838848399659899, 42.125202214245704], [2.8388488561511522, 42.12502208554568], [2.838969840030691, 42.12502225539462], [2.838970752315275, 42.1246619979754], [2.839333701903933, 42.124662506750475], [2.8393323365551293, 42.125202892880374], [2.8394533207815393, 42.12520306222014], [2.839453093391119, 42.12529312657069], [2.8395740777899228, 42.12529329578342], [2.839573396126494, 42.12556348882813], [2.839452411213623, 42.1255633196138], [2.8394512742303406, 42.126013641323944], [2.8393302884617135, 42.1260134719794], [2.839328695441918, 42.126643922310244], [2.839207708474785, 42.12664375283441], [2.839206341960464, 42.12718413877372], [2.8393273299558093, 42.12718430825275], [2.8393284678635005, 42.12673398663754], [2.839570442143619, 42.12673432520757], [2.8395722600000073, 42.12601381054093], [2.839814231542455, 42.126014148592205], [2.839816500342322, 42.1251135051205], [2.8400584684617765, 42.12511384265092], [2.8400598276357107, 42.124573456493394], [2.840301793703097, 42.12457379350721], [2.840302246067401, 42.12439366477457], [2.840544211453532, 42.12439400127604]], [[2.839695743329786, 42.125023271809496], [2.8395747594440044, 42.125023102725926], [2.8395756683015736, 42.12466284529606], [2.839696651501952, 42.12466301437752], [2.839695743329786, 42.125023271809496]], [[2.839937711104462, 42.12502360959398], [2.8398167272166055, 42.12502344076552], [2.8398169540898515, 42.12493337640913], [2.839937937806356, 42.124933545237056], [2.839937711104462, 42.12502360959398]], [[2.839456731513121, 42.12385209679157], [2.8395777131703492, 42.12385226599581], [2.8395779403727985, 42.12376220162201], [2.8399408848366865, 42.123762708467794], [2.8399402047683067, 42.124032901589686], [2.8400611867723704, 42.12403307028476], [2.840061413291523, 42.12394300591169], [2.8403033769600694, 42.1239433429181], [2.8403024722480024, 42.124303600406115], [2.8400605072086997, 42.12430326339547], [2.8400602806854054, 42.12439332776286], [2.8398183153075514, 42.12439299024093], [2.8398180884405275, 42.124483054605825], [2.8396971055818083, 42.124482885653], [2.8396973326201795, 42.124392821288616], [2.839213401881077, 42.12439214420381], [2.8392143127657103, 42.124031886740575], [2.839456276762421, 42.12403222553383], [2.839456731513121, 42.12385209679157]], [[2.840303603135501, 42.123853278542555], [2.8404245847999827, 42.12385344685391], [2.8404243587958935, 42.123943511229974], [2.8403033769600694, 42.1239433429181], [2.840303603135501, 42.123853278542555]]]}, "properties": {"area_ha": 3.28, "dnbr_threshold_core": 0.35, "dnbr_threshold_grow": 0.22, "dnbr_mean": 0.4101, "dnbr_max": 0.8804, "severity": "moderada", "severity_method": "dnbr_mean", "forest_mask": "esa_worldcover_2021_10_20", "part": 42, "fire_id": "555402", "burn_year": 2026, "source": "sentinel", "aoi_source": "effis", "dnbr_threshold": 0.35, "buffer_m": 1200.0, "post_windows": 2, "post_window_dates": [{"start": "2026-07-10", "end": "2026-08-02"}, {"start": "2026-08-02", "end": "2026-09-01"}], "pre_window": {"start": "2026-04-19", "end": "2026-06-26"}, "fire_date": "2026-07-03"}}, {"type": "Feature", "geometry": {"type": "Polygon", "coordinates": [[[2.835573674841409, 42.12834983089932], [2.8359366454195865, 42.12835035045621], [2.8359361806247865, 42.12853047902535], [2.836178161701078, 42.12853082476091], [2.836178393756245, 42.128440760475954], [2.8365413648644893, 42.128441278120846], [2.8365415964044502, 42.128351213832865], [2.83678357680581, 42.1283515582905], [2.836783345608612, 42.12844162257955], [2.8369043359822586, 42.12844179461755], [2.8369041049553863, 42.128531858905745], [2.8370250955014717, 42.1285320308167], [2.8370255572113963, 42.12835190223783], [2.837146547415773, 42.12835207402013], [2.8371463167327198, 42.12844213831082], [2.8372673071095322, 42.128442309966076], [2.8372670765968073, 42.12853237425588], [2.837388067146056, 42.128532545784125], [2.8373878368036607, 42.12862261007304], [2.837629818248082, 42.12862295274783], [2.8376295882474016, 42.128713017036425], [2.8378715700387964, 42.12871335920199], [2.8378722590093846, 42.128443166328765], [2.8377512686273114, 42.12844299531138], [2.837751498453456, 42.12835293101801], [2.837630508243816, 42.12835275987357], [2.8376309682357146, 42.12817263128364], [2.837509978369886, 42.12817246001271], [2.8375102085356376, 42.12808239571615], [2.8372682291498963, 42.128082052792664], [2.837268459657353, 42.12799198849576], [2.8370264806185825, 42.127991645063034], [2.8370269423158447, 42.12781151646712], [2.836905953140797, 42.127811344560484], [2.836906184159221, 42.12772128026094], [2.8367851951566054, 42.12772110822726], [2.836785657533036, 42.12754097962499], [2.8366646688742265, 42.127540807464825], [2.836664900232231, 42.12745074316209], [2.8367858887196666, 42.127450915321724], [2.8367861199052395, 42.12736085101704], [2.8370280965405343, 42.12736119495249], [2.837027865697707, 42.12745125925826], [2.8371488541883103, 42.12745143103517], [2.837148623515801, 42.127541495340054], [2.837632578174246, 42.12754218117413], [2.8376321181970647, 42.127722309783955], [2.8377531072070563, 42.12772248092461], [2.8377528773882648, 42.127812545227926], [2.837873866570683, 42.12781271624155], [2.8378736369222177, 42.127902780544], [2.8379946262770623, 42.127902951430585], [2.8379960031238562, 42.12736256559147], [2.8378750147972616, 42.1273623947081], [2.837875703720613, 42.12709220177099], [2.837996691533093, 42.127092372652754], [2.8379973799328897, 42.12682217970126], [2.837876392634517, 42.1268220088211], [2.837877540803365, 42.12637168720955], [2.8377565543628718, 42.12637151620451], [2.837756784164856, 42.12628145187848], [2.837635797896777, 42.12628128074642], [2.83763533794903, 42.12646140939597], [2.83739336473057, 42.126461066746984], [2.837393134412389, 42.12655113106857], [2.8370301740785013, 42.126550616136704], [2.8370304049107773, 42.12646055181675], [2.836909418306289, 42.12646037991821], [2.8369091873026475, 42.12655044423763], [2.836667213754109, 42.12655010005675], [2.8366674451004807, 42.126460035738404], [2.8365464584991624, 42.12645986345716], [2.8365462269814254, 42.12654992777496], [2.8363042534392338, 42.12654958282868], [2.8363021666473376, 42.12736016161528], [2.836060190024743, 42.12735981614897], [2.836059725596059, 42.12753994475042], [2.835454782344426, 42.12753907884672], [2.835455015416168, 42.12744901454941], [2.8352130384657146, 42.12744866729602], [2.8352132718791365, 42.1273586029984], [2.8350922835768824, 42.127358429180894], [2.83509251716061, 42.12726836488238], [2.83485054090205, 42.127268016865735], [2.8348507748274523, 42.12717795256692], [2.834487810961748, 42.12717742958682], [2.834487576522232, 42.127267493884005], [2.8341246121520585, 42.12726696975413], [2.834124847105689, 42.12717690545859], [2.833882871207017, 42.12717655540193], [2.8338826359106446, 42.12726661969637], [2.8336406596735326, 42.12726626912833], [2.8336399527497242, 42.127536461999846], [2.8337609413818607, 42.12753663734931], [2.8337611768528337, 42.127446573059665], [2.8338821653146726, 42.127446748281], [2.8338816947143988, 42.12762687685996], [2.8340026835200613, 42.12762705195483], [2.8340017429921125, 42.1279873090979], [2.834243721977672, 42.127987658909305], [2.834242782803563, 42.128347916034045], [2.834484763164452, 42.12834826533955], [2.8344842942564847, 42.12852839389561], [2.8347262753071885, 42.128528742692986], [2.8347248706141883, 42.12906912833361], [2.835087845283198, 42.12906965058271], [2.835088312490159, 42.12888952203823], [2.835209303705859, 42.128889695865006], [2.8352097705657786, 42.12870956731376], [2.835330761439775, 42.12870974101189], [2.8353309946967507, 42.128619676733585], [2.8354519854004296, 42.12861985030358], [2.8354524515684165, 42.12843972174162], [2.8355734419303955, 42.12843989518294], [2.835573674841409, 42.12834983089932]], [[2.836666751058193, 42.12673022868918], [2.836666288358048, 42.12691035731593], [2.836424313442802, 42.12691001262045], [2.8364250085196394, 42.12663981968145], [2.83654599546263, 42.12663999209135], [2.836545763942777, 42.126730056406316], [2.836666751058193, 42.12673022868918]]]}, "properties": {"area_ha": 5.0, "dnbr_threshold_core": 0.35, "dnbr_threshold_grow": 0.22, "dnbr_mean": 0.5614, "dnbr_max": 1.061, "severity": "alta", "severity_method": "dnbr_mean", "forest_mask": "esa_worldcover_2021_10_20", "part": 47, "fire_id": "555402", "burn_year": 2026, "source": "sentinel", "aoi_source": "effis", "dnbr_threshold": 0.35, "buffer_m": 1200.0, "post_windows": 2, "post_window_dates": [{"start": "2026-07-10", "end": "2026-08-02"}, {"start": "2026-08-02", "end": "2026-09-01"}], "pre_window": {"start": "2026-04-19", "end": "2026-06-26"}, "fire_date": "2026-07-03"}}]}
