{"type": "FeatureCollection", "features": [{"type": "Feature", "geometry": {"type": "Polygon", "coordinates": [[[1.3031954279625897, 41.92156589906129], [1.3032001996115217, 41.92138584238415], [1.3029591077617402, 41.921382278496516], [1.3029614939084773, 41.92129225016685], [1.3027204024408245, 41.921288685784454], [1.3027227889152695, 41.921198657464444], [1.3023611523033205, 41.921193309958994], [1.302365926235323, 41.921013253347965], [1.3021248358923043, 41.92100968773429], [1.3021272231805616, 41.920919659437686], [1.3022477681773335, 41.92092144230216], [1.3022501552854093, 41.92083141399843], [1.30200906564134, 41.920827848154175], [1.3020114530771116, 41.9207378198601], [1.3014087300039776, 41.92072890306398], [1.3014063417217479, 41.920818931330054], [1.3015268864838827, 41.92082071494785], [1.3015221102253283, 41.921000771486604], [1.3016426553369413, 41.921002554989116], [1.3016378793734045, 41.92118261153298], [1.3017584248344978, 41.921184394920196], [1.3017560370056869, 41.92127442319543], [1.301876582646967, 41.921276206461755], [1.3018741949765609, 41.921366234741065], [1.3021152866303853, 41.92136980090547], [1.302112899287683, 41.92145982919444], [1.302353991323659, 41.9214633948641], [1.3023516043086638, 41.92155342316273], [1.3024721505122814, 41.921555205813426], [1.3024649899098666, 41.92182529071698], [1.302585536632271, 41.92182707325797], [1.3025783764397783, 41.92209715816456], [1.303301660050232, 41.92210785085495], [1.3032992743134513, 41.92219787918766], [1.3034198217892554, 41.92219966086561], [1.3034174362108968, 41.922289689202394], [1.30414072231003, 41.92230037664726], [1.3041431068725582, 41.92221034827692], [1.3040225593314783, 41.92220856735793], [1.3040249440524345, 41.922118538991654], [1.3036633020023751, 41.92211319549251], [1.303670457623704, 41.92184311043486], [1.3035499108033504, 41.921841329032276], [1.3035546815017738, 41.9216612723307], [1.3034341350309013, 41.92165949081283], [1.3034365205330924, 41.92156946246534], [1.3031954279625897, 41.92156589906129]], [[1.3030653375880055, 41.92192423048315], [1.3027036968149188, 41.921918883981796], [1.3027108564341916, 41.92164879904924], [1.3029519492562276, 41.92165236347638], [1.3029495630659553, 41.92174239179997], [1.3030701096625994, 41.92174417382941], [1.3030653375880055, 41.92192423048315]]]}, "properties": {"area_ha": 1.18, "dnbr_threshold_core": 0.35, "dnbr_threshold_grow": 0.22, "dnbr_mean": 0.5729, "dnbr_max": 0.9456, "severity": "alta", "severity_method": "dnbr_mean", "forest_mask": "esa_worldcover_2021_10_20", "part": 38, "fire_id": "272195_38", "burn_year": 2025, "source": "sentinel", "aoi_source": "effis", "dnbr_threshold": 0.35, "buffer_m": 1200.0, "post_windows": 2, "post_window_dates": [{"start": "2025-06-29", "end": "2025-07-22"}, {"start": "2025-07-22", "end": "2025-08-21"}], "pre_window": {"start": "2025-04-08", "end": "2025-06-15"}, "fire_date": "2025-06-22", "aoi_id": "272195", "seed_id": "272195"}}, {"type": "Feature", "geometry": {"type": "Polygon", "coordinates": [[[1.3058045688769786, 41.92322558071157], [1.3058069511778903, 41.923135552278254], [1.3060480499832403, 41.92313911030669], [1.3060528138752139, 41.922959053413145], [1.3061733629555607, 41.92296083222646], [1.3061709811843187, 41.92305086067958], [1.3062915304448424, 41.923052639371974], [1.3062962936378384, 41.922872582453024], [1.3056935491369872, 41.92286368778195], [1.305695931563744, 41.92277365934811], [1.3053342855015626, 41.92276832104428], [1.3053319025668741, 41.92285834946136], [1.3049702560945837, 41.92285301000232], [1.3049774063898272, 41.9225829247968], [1.3048568580953999, 41.9225811447409], [1.3048735429222753, 41.921950945913714], [1.3047529958238595, 41.92194916577045], [1.3047553794963707, 41.92185913736605], [1.3043937387742683, 41.92185379619406], [1.3043865862003894, 41.922123881352384], [1.3045071336047922, 41.9221256618863], [1.3045047495610544, 41.92221569027494], [1.3046252971456356, 41.92221747068796], [1.3046181454570926, 41.922487555861494], [1.3044975973645931, 41.92248577543169], [1.304488060950403, 41.922845888952665], [1.304608609720138, 41.92284766940482], [1.3046062257587145, 41.92293769778684], [1.304485676819669, 41.9229359173291], [1.3044832926780603, 41.92302594570399], [1.3043627435805776, 41.92302416511416], [1.3043603592587822, 41.92311419348192], [1.3042398100028625, 41.92311241276001], [1.304237425500878, 41.92320244112067], [1.3037552279087203, 41.923195316945694], [1.3037576130879565, 41.923105288607395], [1.3036370638864272, 41.923103507252996], [1.3036394492240944, 41.923013478918776], [1.3035189002027574, 41.92301169744347], [1.303521285698856, 41.922921669113315], [1.3034007368577103, 41.92291988751712], [1.303403122512239, 41.922829859191026], [1.3032825738512852, 41.92282807747392], [1.3032849596642413, 41.9227380491519], [1.303164411183479, 41.9227362673139], [1.3031691831153607, 41.92255621067645], [1.3025664425678922, 41.92254729964501], [1.3025640557608549, 41.92263732793653], [1.3024435075147107, 41.922635545345166], [1.3024411205274784, 41.92272557362954], [1.3023205721229143, 41.92272379090608], [1.3023134105879608, 41.92299387573327], [1.302433959500454, 41.922995658473525], [1.3024315724696702, 41.92308568675179], [1.3025521215623628, 41.92308746937114], [1.302547347806756, 41.92326752593431], [1.3027884467020527, 41.9232710908159], [1.3027860601465457, 41.92336111910638], [1.3033888084218432, 41.923370029124676], [1.30339119413078, 41.923280000806216], [1.3035117436491748, 41.92328178242479], [1.3035069725590471, 41.92346183907137], [1.3038686221954012, 41.923467183201666], [1.303871007237961, 41.92337715486236], [1.3047148555849732, 41.9233896200332], [1.304719623267058, 41.92320956327173], [1.3052018212072116, 41.92321668339885], [1.3051970548796425, 41.92339674020502], [1.3053176047304882, 41.92339851993173], [1.3053199877303927, 41.923308491523834], [1.305440537422792, 41.92331027111845], [1.3054429202425128, 41.92322024270344], [1.3058045688769786, 41.92322558071157]]]}, "properties": {"area_ha": 1.9, "dnbr_threshold_core": 0.35, "dnbr_threshold_grow": 0.22, "dnbr_mean": 0.5406, "dnbr_max": 0.9533, "severity": "alta", "severity_method": "dnbr_mean", "forest_mask": "esa_worldcover_2021_10_20", "part": 82, "fire_id": "272195_82", "burn_year": 2025, "source": "sentinel", "aoi_source": "effis", "dnbr_threshold": 0.35, "buffer_m": 1200.0, "post_windows": 2, "post_window_dates": [{"start": "2025-06-29", "end": "2025-07-22"}, {"start": "2025-07-22", "end": "2025-08-21"}], "pre_window": {"start": "2025-04-08", "end": "2025-06-15"}, "fire_date": "2025-06-22", "aoi_id": "272195", "seed_id": "272195"}}]}
