{"type": "FeatureCollection", "features": [{"type": "Feature", "geometry": {"type": "Polygon", "coordinates": [[[2.1211309203884547, 41.64441245004859], [2.121010853501168, 41.64441153191876], [2.1210071811744715, 41.64468171686565], [2.1211272485632278, 41.64468263500414], [2.1211284725105424, 41.644592573353734], [2.121248539737714, 41.644593491363935], [2.1212497635122993, 41.64450342970921], [2.1214898976490426, 41.644505265347654], [2.1214874507629284, 41.64468538866722], [2.1217275855905795, 41.64468722381563], [2.121725139350819, 41.644867347140966], [2.1218452071073157, 41.64486826453283], [2.1218439841462424, 41.644958326196225], [2.1219640520754663, 41.644959243465586], [2.1219603836603245, 41.64522942845571], [2.1220804520965992, 41.645230345608326], [2.1220755614671254, 41.645590592253136], [2.1218354232628305, 41.64558875779943], [2.121836646262879, 41.64549869614616], [2.121716577336248, 41.6454977787341], [2.1217178004978927, 41.64540771708227], [2.121597731743995, 41.645406799547686], [2.121598955067235, 41.6453167378973], [2.121719023653969, 41.645317655429004], [2.1217202468044762, 41.64522759377428], [2.121600178384905, 41.64522667624546], [2.121601401697006, 41.64513661459219], [2.1213612652088965, 41.645134779164145], [2.121357594252909, 41.645404964102326], [2.121237525515722, 41.645404046191544], [2.1212350778495463, 41.645584169470645], [2.1213551469210628, 41.64558508738721], [2.1213539232467826, 41.6456751490275], [2.1212338540081004, 41.64567423110805], [2.121231406308494, 41.6458543543785], [2.1211113367410497, 41.64585343632788], [2.1211125607608063, 41.645763374696266], [2.1209924913661027, 41.64576245652314], [2.12099493972323, 41.64558233326134], [2.1207548016192073, 41.64558049655042], [2.1207572506226997, 41.64540037329441], [2.1208773193375947, 41.64540129170679], [2.120879767984462, 41.64522116843921], [2.120759699603893, 41.645220250032594], [2.1207609240861274, 41.64513018839953], [2.1206408558782948, 41.64512926987041], [2.120639631228898, 41.645219331500584], [2.1205195628594793, 41.645218412843185], [2.120518338037345, 41.64530847446903], [2.1203982695063393, 41.645307555683345], [2.1203994944956364, 41.64521749406037], [2.1202794261373707, 41.64521657515217], [2.120278200980911, 41.64530663677224], [2.1200380639467893, 41.645304798573854], [2.120036838450426, 41.6453948601867], [2.1201569071318604, 41.64539577935149], [2.120154456456724, 41.645575902578614], [2.1202745254780666, 41.64557682162377], [2.1202720751149466, 41.64575694485091], [2.1201520057592727, 41.64575602579996], [2.120153231110787, 41.64566596419001], [2.1200331619278585, 41.64566504501656], [2.12003438744096, 41.645574983408046], [2.119794249426172, 41.645573144690715], [2.119796701104294, 41.645393021480935], [2.1196766324396, 41.64539210193995], [2.119674180427149, 41.645572225143944], [2.1195541114337075, 41.64557130547178], [2.119551659064598, 41.64575142866422], [2.11883124321522, 41.64574590796309], [2.118828788817775, 41.64592603111503], [2.1185886495773363, 41.64592418986653], [2.1185812842448652, 41.6464645592529], [2.1183411430207406, 41.64646271746804], [2.1183288636759876, 41.64736333293844], [2.118448935957016, 41.64736425392253], [2.11844648035534, 41.647544377005055], [2.11856655297632, 41.64754529786952], [2.1185640976866473, 41.64772542095206], [2.118804243614103, 41.647727262316366], [2.118806698235046, 41.64754713922225], [2.118926770872791, 41.64754805971049], [2.118925543732295, 41.647638121261174], [2.119045616542809, 41.6476390416269], [2.1190443895639093, 41.647729103179024], [2.1191644625471926, 41.64773002342225], [2.1191632357298897, 41.647820084975805], [2.1190431625794237, 41.6478191647297], [2.1190394815924476, 41.64808934937306], [2.1187993343051645, 41.64808750848724], [2.118789515419067, 41.64880800075961], [2.118909590397428, 41.648808921288385], [2.1189083631787127, 41.648898982818814], [2.119028438329854, 41.64889990322506], [2.119027211272744, 41.64898996475696], [2.119147286596666, 41.64899088504068], [2.1191460597011633, 41.64908094657401], [2.119266135197865, 41.649081866735216], [2.1192649084639714, 41.64917192826999], [2.119505059808519, 41.64917376822194], [2.11949524841148, 41.64989426049443], [2.119615325429718, 41.649895180305414], [2.1196165517066903, 41.649805118773514], [2.1197366285633095, 41.64980603845619], [2.119730497958631, 41.650256346115654], [2.119850575656846, 41.65025726568737], [2.1198493496863686, 41.650347327217816], [2.11996942755737, 41.650348246667], [2.1199669759340813, 41.65052836972935], [2.1202071323616525, 41.650530208263014], [2.1202034558881095, 41.650800392863026], [2.1203235346118894, 41.65080131195039], [2.120322309276759, 41.65089137348373], [2.120562467075474, 41.65089321128798], [2.1205636920761846, 41.65080314974886], [2.120683770816699, 41.65080406845996], [2.1206886700949386, 41.650443822277495], [2.120928826255032, 41.650445659300296], [2.120927601778251, 41.650535720853874], [2.121047680033867, 41.650536639180025], [2.121046455718718, 41.65062670073504], [2.1211665341471164, 41.65062761893866], [2.121164085834513, 41.650807742050105], [2.1210440070716974, 41.6508068238407], [2.1210391097107646, 41.6511670700347], [2.1213993480224644, 41.65116982432128], [2.1213920048237003, 41.65171019362088], [2.121632165732608, 41.65171202921944], [2.12162971862398, 41.651892152319284], [2.1218698802240428, 41.651893987427684], [2.121873549875322, 41.65162380275842], [2.122113710494356, 41.65162563734779], [2.1221149333658786, 41.651535575782695], [2.122235013516531, 41.65153649288637], [2.1222337908122246, 41.651626554454324], [2.1225940317992302, 41.65162930502139], [2.1225928095910085, 41.651719366596545], [2.1228329706112707, 41.651721199686534], [2.122830526847006, 41.65190132284406], [2.123070688558394, 41.651903155443875], [2.123071910108871, 41.65181309386007], [2.122951829417614, 41.65181217762576], [2.122953051129747, 41.651722116043395], [2.123313292718547, 41.6517248643614], [2.1233120715080687, 41.65181492595241], [2.1235522329295065, 41.65181675754303], [2.1235534538055494, 41.65172669594626], [2.1236735343573887, 41.65172761155054], [2.123675975758364, 41.65154748834693], [2.123796055981327, 41.65154840382003], [2.1237972765062625, 41.651458342213175], [2.1239173565675666, 41.65145925755797], [2.1239185769197295, 41.6513691959468], [2.1242788166353312, 41.651371941219985], [2.1242812563197044, 41.65119181797602], [2.1245214154890197, 41.65119364751952], [2.124523854482328, 41.651013524258275], [2.124643933740889, 41.65101443883613], [2.1246451530620027, 41.65092437720046], [2.124525073970653, 41.65092346262547], [2.1245262934534264, 41.65083340099124], [2.1247664513072557, 41.65083523001003], [2.1247688895873065, 41.65065510672571], [2.1250090467945006, 41.650656935231304], [2.1250127031697015, 41.65038675027674], [2.124772546965754, 41.6503849217884], [2.1247701087190065, 41.650565045081386], [2.1245299518684324, 41.65056321607985], [2.1245311713289965, 41.65047315443984], [2.124411093079245, 41.65047223975382], [2.124415971534805, 41.65011199319079], [2.124776204294246, 41.650114736838084], [2.124779861572784, 41.64984455187475], [2.124419630318171, 41.649841808253335], [2.1244184107292683, 41.649931869900605], [2.124298333488299, 41.64993095510641], [2.124300772994956, 41.649750831816206], [2.1240606191984868, 41.64974900186307], [2.124064279420021, 41.649478816934185], [2.1239442030317184, 41.64947790177812], [2.123945423261652, 41.64938784013514], [2.1238253470461026, 41.64938692485654], [2.1238277878236977, 41.649206801572], [2.123947863704852, 41.649207716844856], [2.123949083918119, 41.64911765519754], [2.124189235362701, 41.64911948536122], [2.1241904552360222, 41.64902942370671], [2.124310530799449, 41.64903033859755], [2.1243117505000217, 41.6489402769387], [2.1244318259018065, 41.648941191701255], [2.1244342649519043, 41.64876106837351], [2.1247944901874103, 41.64876381189139], [2.124796928212146, 41.6485836885406], [2.1246768534624776, 41.6485827741658], [2.1246780726337113, 41.64849271249111], [2.1247981472161896, 41.64849362686303], [2.1247993662146825, 41.64840356518402], [2.12491944063552, 41.648404479427654], [2.1249218782814783, 41.64822435605955], [2.1248018041950187, 41.64822344182166], [2.124803023176862, 41.648133380138326], [2.1246829492631414, 41.6481324657779], [2.124684168406622, 41.648042404095975], [2.124564094665638, 41.648041489613014], [2.1245653139707548, 41.64795142793254], [2.1244452404025087, 41.64795051332703], [2.1244476793304585, 41.647770389967484], [2.1245677525643343, 41.64777130456723], [2.1245726296848786, 41.64741105781928], [2.124452557119734, 41.64741014323103], [2.124453776553174, 41.6473200815433], [2.124333704160763, 41.64731916683253], [2.124337362929308, 41.64704898176931], [2.1245775067166055, 41.64705081104818], [2.1245787259606597, 41.646960749351805], [2.124698797695457, 41.64696166380026], [2.1247024548927844, 41.64669147869382], [2.1245823836595163, 41.64669056425398], [2.124586041308415, 41.64642037914316], [2.1244659705822206, 41.64641946458655], [2.1244671899545913, 41.64632940288293], [2.1245872605136134, 41.646330317436664], [2.12458847971326, 41.64624025572872], [2.1244684093214103, 41.64623934117787], [2.124469628682678, 41.64614927947134], [2.124589698907357, 41.64615019401932], [2.1245933564563426, 41.64588000888247], [2.1247134261850626, 41.64588092329643], [2.1247146451897887, 41.64579086157839], [2.1244745060722345, 41.64578903263084], [2.124472067388559, 41.64596915605399], [2.1243519975037715, 41.645968241386356], [2.1243495584635506, 41.64614836479795], [2.1241094180419533, 41.646146535074976], [2.1241081981791723, 41.64623659677287], [2.1238680574454483, 41.64623476654253], [2.123869277642571, 41.64614470485038], [2.123509067085164, 41.64614195857297], [2.1235102877782417, 41.646051896888025], [2.1236303577913174, 41.646052812436366], [2.123632798826463, 41.6458726890564], [2.1237528685107576, 41.645873604473564], [2.1237540888528277, 41.64578354277853], [2.12387415837551, 41.64578445806742], [2.1238753785448568, 41.645694396368064], [2.1237553091893417, 41.645693481082056], [2.1237565295203, 41.64560341938412], [2.1236364603375066, 41.645602503975596], [2.1236389013170855, 41.645422380581174], [2.1237589701655484, 41.64542329598395], [2.123760190479839, 41.64533323428169], [2.124120396557066, 41.64533597972898], [2.1241289350911576, 41.64470554771227], [2.1238888000410405, 41.64470371757976], [2.12389124024086, 41.64452359414493], [2.1234109715445504, 41.64451993239816], [2.1234134130594, 41.644339808980554], [2.123053212598457, 41.64433706137109], [2.1230544338490103, 41.64424699966876], [2.1229343672069696, 41.64424608355104], [2.1229355886191166, 41.644156021850144], [2.123175721574449, 41.64415785395445], [2.12317938477461, 41.64388766882582], [2.123299450759158, 41.64388858468124], [2.123300671647609, 41.64379852296592], [2.123420737470564, 41.64379943869307], [2.1234231788964912, 41.64361931525236], [2.1235432443907043, 41.643620230848356], [2.1235408032990772, 41.643800354294825], [2.1248615277792973, 41.64381041763815], [2.124859090342779, 41.64399054114214], [2.12461895790053, 41.64398871256039], [2.1246128625405905, 41.64443902126632], [2.124973063719604, 41.64444176399396], [2.1249718451324364, 41.64453182573944], [2.1253320468628507, 41.64453456734715], [2.1253332649485484, 41.64444450559305], [2.125573399128907, 41.64444633269879], [2.1255697458581237, 41.644716517973976], [2.1252095430914846, 41.64471377710141], [2.1252083248219913, 41.6448038388483], [2.125088257077045, 41.64480292497044], [2.125084601733803, 41.64507311019381], [2.1249645334929217, 41.645072196181935], [2.1249633148669176, 41.64516225791729], [2.1250833832749616, 41.64516317193204], [2.1250748539077424, 41.64579360405921], [2.1251949234914895, 41.64579451796866], [2.125193705155436, 41.645884579698205], [2.125313774911899, 41.645885493485146], [2.1253076839842837, 41.64633580212555], [2.1255478251855515, 41.646337629351954], [2.1255429536810206, 41.646697876261236], [2.1253028111423604, 41.64669604901186], [2.1253015929180137, 41.646786110729835], [2.1256618072358493, 41.646788851424404], [2.1256581540341286, 41.64705903659549], [2.1255380820877727, 41.64705812314742], [2.1255356462578794, 41.647238246581836], [2.1257757908248536, 41.647240073364046], [2.125773355641504, 41.64742019680418], [2.1260135008993757, 41.64742202309623], [2.126011066362582, 41.64760214654207], [2.1262512123113515, 41.64760397234397], [2.126248778421126, 41.6477840957955], [2.1264889250607943, 41.64778592110726], [2.1264901416743083, 41.647695859376476], [2.1267302880017636, 41.64769768418085], [2.1267339368059726, 41.647427498962614], [2.1270941548340363, 41.64743023520277], [2.1270953705894864, 41.64734017345187], [2.127335515634843, 41.6473419969792], [2.127336731050396, 41.647251935221114], [2.1276969481583867, 41.64725466956292], [2.1276981630668663, 41.6471646077948], [2.1275780908591835, 41.64716369647581], [2.127581736052969, 41.646893511171356], [2.1274616643523543, 41.646892599735544], [2.127464094788239, 41.64671247619774], [2.127344023427511, 41.64671156464226], [2.1273464541756146, 41.64653144110442], [2.127226383154771, 41.64653052942926], [2.1272288142150892, 41.64635040589138], [2.127468955593616, 41.64635222910482], [2.12747138596311, 41.64617210554968], [2.127591456326328, 41.64617301696256], [2.127592671335605, 41.646082955179956], [2.1277127415371835, 41.64608386646457], [2.127709096994273, 41.646354051816644], [2.1278291677028984, 41.646354962984454], [2.1278267383143175, 41.64653508655098], [2.127946809362821, 41.64653599759912], [2.127949238417054, 41.646355874026845], [2.1281893798619524, 41.64635769573543], [2.128190594046429, 41.6462676339414], [2.1284307351790943, 41.64626945514263], [2.128431949023699, 41.64617939334141], [2.1286720898441254, 41.64618121403531], [2.128673303348861, 41.64609115222693], [2.128553233103057, 41.646090241945544], [2.128554446769438, 41.6460001801386], [2.1289146570219137, 41.64600291059794], [2.128912230686651, 41.646183034227576], [2.1290323011161987, 41.6461839441356], [2.12903351411942, 41.646093882318645], [2.1293937249396824, 41.64609661128174], [2.1293961499265355, 41.645916487626316], [2.129636289832298, 41.645918306296586], [2.129641138402417, 41.64555805894553], [2.1297612076949037, 41.645558968081126], [2.1297624196564704, 41.6454689062369], [2.1298824887873087, 41.645469815244226], [2.1298849123595596, 41.645289691545706], [2.1300049811615844, 41.64529060042191], [2.130003769545382, 41.64538066227477], [2.130123838520088, 41.64538157102844], [2.1301262614126464, 41.64520144731559], [2.129886124137409, 41.64519962969428], [2.1298946064278876, 41.64456919669384], [2.1303748763199133, 41.64457283135487], [2.1303772984445666, 41.64439270760458], [2.1308575670875487, 41.64439634023641], [2.1308563566966088, 41.6444864021237], [2.1309764240382894, 41.64448730997102], [2.130975213808997, 41.644577371859704], [2.1310952813233466, 41.644578279584486], [2.1310928611825504, 41.64475840336324], [2.131453064761607, 41.64476112580229], [2.13145427433328, 41.64467106390508], [2.1315743420368203, 41.644671971131125], [2.1315755514358274, 41.644581909229615], [2.1316956189777145, 41.64458281632739], [2.131694409745866, 41.64467287823175], [2.1319345451804748, 41.644674692056846], [2.131935754078004, 41.64458463014678], [2.132055821636405, 41.64458553686838], [2.1320582390806364, 41.64440541303819], [2.1319381718565524, 41.644404506322296], [2.131939380737571, 41.64431444440789], [2.132059447794498, 41.64431535112094], [2.132060656502857, 41.64422528920223], [2.1319405896130856, 41.64422438249204], [2.1319442162066076, 41.64395419673581], [2.132064282594915, 41.64395510343746], [2.132063073903065, 41.644045165360495], [2.1323032070304953, 41.644046978393284], [2.1323007902989075, 41.64422710224642], [2.132180723398131, 41.64422619578703], [2.1321795148569285, 41.644316257708574], [2.1325397160772304, 41.64431897671914], [2.132542132151197, 41.64413885285749], [2.1326621989013197, 41.64413975893785], [2.132663406762899, 41.64404969700201], [2.133023606544794, 41.644052414482175], [2.133027228592157, 41.64378222864035], [2.133267360804651, 41.64378403964974], [2.1332685678084746, 41.643693977693864], [2.1335086997086457, 41.643695788195984], [2.133507493039126, 41.64378585015753], [2.1333874269191413, 41.64378494496633], [2.133386220076975, 41.64387500692358], [2.1335062863641125, 41.64387591211763], [2.133505079683605, 41.643965974076295], [2.1333850132293146, 41.643965068879396], [2.13338259951751, 41.644145192786695], [2.1335026663061103, 41.644146097989285], [2.1335014596091217, 41.6442361599436], [2.133621526570372, 41.64423706502365], [2.133620320035046, 41.644327126979384], [2.133860454308337, 41.644328936768964], [2.1338616605093494, 41.64423887480755], [2.1339817274870754, 41.644239779511395], [2.1339829335154405, 41.64414971754569], [2.1341030003315016, 41.6441506221213], [2.1341042061872204, 41.6440605601513], [2.1342242728416165, 41.64406146459867], [2.1342278898743734, 41.64379127867147], [2.134347956032797, 41.64379218298492], [2.134350367026219, 41.64361205902053], [2.1344704328558275, 41.6436129632029], [2.134471638177155, 41.643522901215704], [2.1343515725146975, 41.64352199703619], [2.1343563944137305, 41.64316174908433], [2.134236329425356, 41.643160844790785], [2.1342411519051625, 41.64280059682718], [2.134121087590859, 41.642799692419636], [2.1341222933642325, 41.64270963042797], [2.1340022292225624, 41.64270872589787], [2.1340034351575894, 41.6426186639076], [2.133763307225007, 41.64261685447693], [2.1337645134888286, 41.64252679249089], [2.1336444496979166, 41.6425258875903], [2.1336456561233876, 41.64243582560569], [2.1331654016832373, 41.64243220476087], [2.133164194589201, 41.64252226673411], [2.133044130825759, 41.64252136120659], [2.1330453380869367, 41.64243129923619], [2.131604575360251, 41.64242042315983], [2.131609412372677, 41.64206017540062], [2.131129160980778, 41.64205654607505], [2.1311303708886693, 41.641966484143055], [2.1312504335612465, 41.64196739165967], [2.1312516432964936, 41.64187732972337], [2.1318519559062965, 41.641881865411406], [2.1318555825719714, 41.64161167955104], [2.1319756446090414, 41.64161258630394], [2.131976853319459, 41.64152252434476], [2.1320969151948983, 41.64152343096942], [2.1320957066516137, 41.641613492931455], [2.1324558928123416, 41.641616212061685], [2.1324571008542255, 41.64152615009109], [2.1326972246546103, 41.64152796221195], [2.132698432356729, 41.641437900234216], [2.132938555844841, 41.64143971184784], [2.132939763207198, 41.64134964986297], [2.133299947979192, 41.64135236633448], [2.13330236168463, 41.64117224234332], [2.133542484224909, 41.64117405268602], [2.1335448972398514, 41.64099392867769], [2.133664958183971, 41.64099483365528], [2.1336661645160744, 41.64090477164609], [2.1337862252985573, 41.64090567649546], [2.1337874314580416, 41.64081561448199], [2.1340275527052257, 41.64081742379888], [2.1340299643392138, 41.64063729975622], [2.134510205562438, 41.64064091686267], [2.1345114107026952, 41.64055085482781], [2.134751531012978, 41.64055266262306], [2.1347551453980875, 41.64028247649274], [2.134635085741575, 41.64028157266633], [2.1346362906927645, 41.64019151062284], [2.1345162312088606, 41.64019060667389], [2.1345174363216857, 41.64010054463181], [2.134277317704582, 41.64009873636346], [2.1342797285822566, 41.639918612286316], [2.134639905513418, 41.63992132448371], [2.134641110442665, 41.63983126243444], [2.134761169263572, 41.639832166246656], [2.1347647835170456, 41.63956198008166], [2.1348848418420827, 41.63956288375996], [2.134888455544847, 41.63929269757343], [2.134768397721157, 41.63929179390366], [2.1347696024448917, 41.639201731841446], [2.1346495447938008, 41.639200828049134], [2.1346519545590428, 41.63902070392605], [2.1345318972476632, 41.639019800014054], [2.1345331022891685, 41.638929737953184], [2.1344130451503864, 41.63892883391866], [2.134414250353517, 41.63883877185918], [2.1342941933873334, 41.63883786770212], [2.1342966041113534, 41.638657743584545], [2.134056490863889, 41.63865593490569], [2.134057696551885, 41.6385658728504], [2.1339376401034946, 41.63856496832577], [2.13393884595311, 41.638474906271895], [2.133818789677317, 41.63847400162473], [2.1338199956885497, 41.63838393957225], [2.1335798834876503, 41.638382129907484], [2.1335810898276057, 41.63829206785927], [2.1334610339024995, 41.638291162841675], [2.1334622404040693, 41.63820110079484], [2.1335822961620696, 41.63820200580959], [2.1335847088145212, 41.63802188170591], [2.133704764243805, 41.63802278658961], [2.1337059703946903, 41.637932724532746], [2.1339460809355226, 41.63793453391831], [2.1339472867467113, 41.63784447185432], [2.1340673418582594, 41.63784537635622], [2.134068547496857, 41.63775531428794], [2.1334682728295276, 41.63775079053905], [2.1334670663554207, 41.63784085259309], [2.133226956192727, 41.637839042210274], [2.133228163001037, 41.637748980161916], [2.133108108095033, 41.6377480747853], [2.1331093150649503, 41.637658012738335], [2.1332293698038534, 41.63765891811212], [2.1332305766011754, 41.637568856060874], [2.133110522029372, 41.63756795068995], [2.1331153498321154, 41.6372077024819], [2.1333554576444294, 41.63720951307561], [2.1333578708444496, 41.63702938895155], [2.134078192408048, 41.637034817689745], [2.1340806035809607, 41.63685469352575], [2.1338404970395115, 41.63685288445918], [2.1338429088588438, 41.6366727603008], [2.13372285593054, 41.63667185558516], [2.133724061999063, 41.63658179350664], [2.133844114760275, 41.636582698219435], [2.1338501441850855, 41.63613238779094], [2.133730092259322, 41.63613148309237], [2.133732504324992, 41.63595135891654], [2.1338525559165817, 41.635952263609425], [2.1338585851492557, 41.63550195313039], [2.1339786359109136, 41.63550285768368], [2.133984664170949, 41.63505254715429], [2.1338646142446938, 41.63505164261522], [2.133879083513843, 41.633970897231485], [2.1341191793620617, 41.63397270611602], [2.1341215901617985, 41.633792581853804], [2.1342416377600015, 41.63379348610234], [2.1342428429845706, 41.63370342396622], [2.134122795553435, 41.633702519720515], [2.134124000939585, 41.6336124575858], [2.1340039536810034, 41.63361155321758], [2.134006364770973, 41.633431428949486], [2.133886317852011, 41.63343052446161], [2.1338887292541564, 41.633250400193425], [2.13400877583899, 41.633251304675625], [2.134009981364766, 41.63316124253652], [2.1338899349469957, 41.633160338057166], [2.1338911406343466, 41.63307027591947], [2.1341312331412503, 41.63307208474713], [2.1341360544992845, 41.63271183615912], [2.134376145691653, 41.63271364446263], [2.1343773506833266, 41.632623582306344], [2.134497396120681, 41.63262448626724], [2.1344986009398115, 41.63253442410665], [2.1343785556695147, 41.6325335201486], [2.134380965625435, 41.63235339582878], [2.1345010105616176, 41.632354299781156], [2.1345022153642943, 41.63226423761623], [2.134622260138906, 41.632265141440406], [2.1346234647690427, 41.63217507927121], [2.1348635540006082, 41.63217688653786], [2.1348611454030717, 41.632357010886196], [2.1349811903611884, 41.632357914337184], [2.134982394495642, 41.632267852160886], [2.1351024392921847, 41.6322687554837], [2.135101235324787, 41.632358817662826], [2.135341325268426, 41.63236062393809], [2.135343732529519, 41.632180499567035], [2.1355838218268532, 41.63218230532956], [2.135588634946864, 41.6318220565474], [2.135708678935535, 41.63182295922929], [2.1357110851285728, 41.63164283482386], [2.135831128788619, 41.631643737374745], [2.1358323317098726, 41.63155367516703], [2.135712288216876, 41.631552772618996], [2.135713491299703, 41.63146271041266], [2.135593447979233, 41.63146180774212], [2.1355946512236312, 41.631371745537194], [2.1354746080756866, 41.63137084274416], [2.13547340466424, 41.631460904946245], [2.1353533613547246, 41.63146000202502], [2.1353557685062357, 41.63127987762508], [2.1352357255362957, 41.631278974584205], [2.1352345217962325, 41.631369036782054], [2.1351144786647245, 41.631368133613], [2.1351156825718354, 41.63127807141798], [2.1348755966593567, 41.63127626470952], [2.134873188171464, 41.631456389086736], [2.1347531448893515, 41.63145548553882], [2.1347543493030874, 41.631365423353785], [2.1345142630894087, 41.631363615887594], [2.1345154678317555, 41.631273553706784], [2.134035296138405, 41.631269937281715], [2.134034090727869, 41.63135999945115], [2.1336739615143285, 41.631357285807745], [2.1336763733321935, 41.63117716148451], [2.133556330606085, 41.63117625669172], [2.133557536673829, 41.631086194530766], [2.133197409029585, 41.63108347940889], [2.1331949958863325, 41.63126360371227], [2.1334350816451866, 41.631265413930244], [2.1334338753994158, 41.631355476085446], [2.132953703235489, 41.631351855136764], [2.132954910149448, 41.631261792992944], [2.132834867289247, 41.63126088744528], [2.132836074364758, 41.631170825302846], [2.1329561170579128, 41.63117173084768], [2.1329573239608832, 41.63108166870096], [2.1330773664924876, 41.631082574117606], [2.133080986667303, 41.63081238766024], [2.1332010287032688, 41.630813292943], [2.1332022352501787, 41.63072323078483], [2.1334423190045015, 41.63072504096864], [2.1334447314136784, 41.63054491663655], [2.13320464832752, 41.63054310646412], [2.1332070613828926, 41.630362982137626], [2.1333271025891465, 41.63036388728082], [2.1333283089415556, 41.630273825112575], [2.133448349986262, 41.630274730127574], [2.1334495561661417, 41.630184667955035], [2.1335695970493016, 41.63018557284186], [2.1335708030566534, 41.63009551066502], [2.13345076234053, 41.630094605781046], [2.1334531746728356, 41.62991448142872], [2.133573215054887, 41.62991538630702], [2.1335744210457683, 41.62982532412585], [2.1336944612662743, 41.629826228875956], [2.133700490303172, 41.62937591793421], [2.1334604115379765, 41.62937410833712], [2.133464029896424, 41.6291039217718], [2.1333439910231498, 41.62910301679379], [2.133348816092321, 41.628742768031216], [2.133228777892646, 41.628741862939265], [2.1332323971379403, 41.6284716763607], [2.13299232175721, 41.628469865817884], [2.1330031822028936, 41.62765930605543], [2.1332432545772724, 41.62766111654699], [2.133245667281161, 41.62748099212806], [2.133365703142557, 41.627481897180175], [2.13336690931925, 41.62739183496569], [2.1331268379359773, 41.62739002474184], [2.1331316639239417, 41.627029775892254], [2.1330116289085925, 41.62702887060372], [2.133014042203642, 41.62684874617596], [2.1331340768849714, 41.626849651458784], [2.1331364898240333, 41.62666952701955], [2.1330164554767213, 41.626668621742404], [2.133017662105021, 41.62657855952346], [2.1331376962853263, 41.62657946479774], [2.1331401091914364, 41.62639934034984], [2.1332601430432208, 41.626400245493116], [2.1332649681215234, 41.62603999656857], [2.1333850013107827, 41.62604090157514], [2.1333898256332255, 41.625680652616104], [2.13374992322993, 41.62568336684978], [2.133752334356218, 41.62550324234453], [2.133992398780133, 41.62550505119569], [2.1339936040010503, 41.625414988935205], [2.1341136360542396, 41.625415893169965], [2.1341148411026736, 41.6253258309052], [2.1342348729943517, 41.62532673501181], [2.1342336681129144, 41.625416797279414], [2.134353700177074, 41.62541770126356], [2.1343524954571502, 41.625507763532575], [2.1344725276937915, 41.62550866739425], [2.1344737322467178, 41.625418605122384], [2.1345937643218442, 41.6254195088559], [2.1345949687022903, 41.625329446579755], [2.1347150006159024, 41.62533035018512], [2.134718613223359, 41.6250601633395], [2.1348386446414658, 41.625061066811014], [2.1348398486659947, 41.62497100452342], [2.134959879922588, 41.62497190786678], [2.1349646952979255, 41.62461165869057], [2.135204756491614, 41.62461346497863], [2.1352071634784435, 41.624433340370494], [2.13508713321284, 41.6244324372948], [2.1350883368650257, 41.6243423749914], [2.1349683067718903, 41.62434147179323], [2.1349707143938006, 41.62416134718781], [2.1346106251492003, 41.62415863685848], [2.1346118294528953, 41.624068574562116], [2.134371770317877, 41.62406676705504], [2.134370565680209, 41.62415682934572], [2.1341305062331526, 41.62415502133173], [2.134131711204793, 41.62406495904675], [2.1340116816564776, 41.62406405485463], [2.1340128867896193, 41.623973992571024], [2.1338928574137754, 41.623973088256456], [2.1338904468080355, 41.624153212816516], [2.133650387404865, 41.62415140380005], [2.1336491817597913, 41.62424146607223], [2.13352915189945, 41.62424056137319], [2.1335279460819008, 41.62433062364107], [2.133407916060062, 41.624329718813875], [2.1334042980735117, 41.62459990560033], [2.1332842675561947, 41.62459900063929], [2.1332818552037307, 41.624779125150674], [2.133161824357922, 41.62477822005863], [2.13315941164951, 41.62495834455854], [2.1330393804752075, 41.6249574393355], [2.1330381739457707, 41.62504750158045], [2.132798111279656, 41.62504569075273], [2.1327920768801305, 41.62549600192731], [2.1325520125660318, 41.62549419056985], [2.132547183611528, 41.625854439460724], [2.1321870851776072, 41.625851721450495], [2.132188292925477, 41.625761659238506], [2.131948227664351, 41.62575984661081], [2.1319494357407227, 41.62566978440305], [2.1318294032854075, 41.62566887790408], [2.1318185288970666, 41.62647943769616], [2.1315784609968933, 41.62647762427097], [2.1315772523700085, 41.62656768645715], [2.1314572182611675, 41.62656677955371], [2.1314548006568783, 41.62674690391607], [2.1313347662195254, 41.62674599688162], [2.131332348259208, 41.62692612123249], [2.1312123134933403, 41.62692521406701], [2.1312074768386204, 41.62728546273999], [2.131327512272532, 41.62728636991689], [2.131325094246173, 41.62746649425041], [2.13156516579856, 41.627468308239635], [2.131560331015924, 41.62782855691217], [2.1316803674684337, 41.627829463730215], [2.1316731161315303, 41.62836983671279], [2.1315530786769035, 41.628368929877645], [2.1315506611865445, 41.628549054187914], [2.1311905478535444, 41.6285463329134], [2.131186920073518, 41.628816519342294], [2.130946843543561, 41.62881470451553], [2.1309480531431246, 41.62872464237972], [2.1308280150534302, 41.628723734781204], [2.1308304345700875, 41.628543610510945], [2.130590359075316, 41.628541794949335], [2.130592779238034, 41.628361670684725], [2.130232667039327, 41.628358946419496], [2.130233877613487, 41.62826888429359], [2.129993803175943, 41.62826706749585], [2.129995014078633, 41.628177005374205], [2.129634902964722, 41.628174279246224], [2.129633691560971, 41.6282643413593], [2.1295136543670083, 41.62826343239646], [2.1295148659377796, 41.62817337028624], [2.1293948289163525, 41.62817246120093], [2.129391193686431, 41.62844264751866], [2.1296312687369263, 41.62844446558109], [2.1296300573166325, 41.62853452768981], [2.1297500950171746, 41.628535436535905], [2.129746461224276, 41.628805622862004], [2.1299865376440463, 41.62880744019533], [2.12998532670277, 41.628897502306856], [2.1301053650879496, 41.62889841078839], [2.130102943522914, 41.629078535012816], [2.129982904803681, 41.629077626525564], [2.1299816938458673, 41.62916768863277], [2.129861654965119, 41.62916678001733], [2.1298604438347644, 41.62925684212021], [2.1297404047925, 41.6292559333766], [2.1297331368924053, 41.62979630594643], [2.129613096853468, 41.629795397060334], [2.1296094623278745, 41.63006558331718], [2.1294894217933478, 41.630064674297174], [2.129488210106751, 41.63015473637703], [2.129608250808313, 41.630155645399896], [2.1296058277526453, 41.630335769561015], [2.1303260740822596, 41.630341221100466], [2.1303236530089977, 41.6305213452901], [2.1305637358311187, 41.63052316147865], [2.1305613154039764, 41.63070328567393], [2.130801398916296, 41.63070510137256], [2.1308001890285446, 41.63079516347373], [2.130680147102589, 41.63079425568422], [2.1306789370422874, 41.6308843177811], [2.131039063337805, 41.63088704078217], [2.131036644202939, 41.63106716498871], [2.1312767290956582, 41.631068979707486], [2.131274310606948, 41.631249103919664], [2.1310342250460472, 41.631247289189474], [2.131035434627246, 41.631157227089815], [2.130915392022101, 41.63115631953958], [2.1309166017648384, 41.63106625744132], [2.130796559332245, 41.63106534976858], [2.1307941395071723, 41.63124547395795], [2.130914182273856, 41.63124638163637], [2.130912972520105, 41.63133644373173], [2.1310330154593426, 41.631337351287684], [2.131031805867131, 41.63142741338444], [2.1306716765647997, 41.63142469033201], [2.1306728866581524, 41.631334628243806], [2.130552843735438, 41.63133372031183], [2.1305552642397103, 41.631153596136805], [2.130435221656598, 41.63115268808521], [2.1304364320675147, 41.63106262599836], [2.129596135309365, 41.631056266147674], [2.1295985584532766, 41.63087614200967], [2.1293584743830345, 41.63087432379287], [2.129362110059786, 41.6306041375922], [2.12912202701386, 41.6306023188912], [2.129119602566712, 41.630782443014986], [2.129239644420998, 41.63078335243387], [2.129237220285861, 41.630963476557596], [2.1291171780974896, 41.630962567133], [2.1291135413522686, 41.63123275329918], [2.1288734559898153, 41.63123093405679], [2.12887224339628, 41.631320996103575], [2.128752200556287, 41.63132008629151], [2.1287509877901845, 41.63141014833398], [2.1285109017926684, 41.631408328328114], [2.1285096886869503, 41.63149839036344], [2.1283896455294284, 41.63149748016963], [2.1283884322511404, 41.63158754220062], [2.12814834561857, 41.63158572143127], [2.1281471320006613, 41.6316757834551], [2.1280270885256143, 41.63167487287954], [2.1280258747351306, 41.631764934899074], [2.128145918377227, 41.631765845477496], [2.128141063828244, 41.63212609355259], [2.128501196792296, 41.63212882457013], [2.128502409936672, 41.63203876254495], [2.128742498272882, 41.632040582590875], [2.128741285462612, 41.632130644621796], [2.1286212411246934, 41.63212973465864], [2.128612750128822, 41.632760168814585], [2.1288528411489605, 41.632761988655616], [2.1288516284615806, 41.63285205067784], [2.1293318112363337, 41.63285568886719], [2.1293245390055953, 41.633396061038816], [2.129444585715449, 41.633396970289944], [2.1294433738247447, 41.63348703231635], [2.1290832332105447, 41.633484304178346], [2.1290820208131294, 41.63357436619473], [2.1289619737857017, 41.63357345656183], [2.128963186350182, 41.63348339454831], [2.12884313949534, 41.63348248479293], [2.128844352221365, 41.63339242278082], [2.128604258862371, 41.63339060289973], [2.128601832736542, 41.63357072691106], [2.1284817857311995, 41.63356981677678], [2.1284793592491495, 41.633749940776596], [2.1279991699464893, 41.63374629896303], [2.1279979560289117, 41.633836360949324], [2.127877908549993, 41.633835450179696], [2.127879122634637, 41.633745388196274], [2.1276390280275157, 41.6337435662867], [2.1276402424407657, 41.63365350430754], [2.1272801010727465, 41.63365077051166], [2.127278886158298, 41.63374083248221], [2.1271588388796197, 41.63373992096334], [2.1271576237925736, 41.63382998292958], [2.1270375763523597, 41.6338290712825], [2.1270400068550526, 41.63364894735432], [2.1269199597545034, 41.63364803558762], [2.126921175164616, 41.63355797362423], [2.1264409874860175, 41.63355432531544], [2.126445851744153, 41.633194077493314], [2.126325805506594, 41.63319316511422], [2.126328237936568, 41.63301304120023], [2.1262081920386677, 41.63301212870153], [2.1262094084124095, 41.63292206674523], [2.1260893626871056, 41.632921154124055], [2.126090579222369, 41.6328310921692], [2.1258504881224947, 41.632829266556534], [2.1258480543781926, 41.63300939045334], [2.1257280085024455, 41.63300847745325], [2.125726791454925, 41.63309853939661], [2.1258468374977317, 41.63309945239958], [2.1258431868231127, 41.63336963822963], [2.12572314027912, 41.633368725218055], [2.125702449340987, 41.6348997779605], [2.1255823999623544, 41.63489886477476], [2.125581182631403, 41.63498892668492], [2.1254611330912354, 41.63498801337095], [2.125458698078552, 41.63516813718118], [2.1252185983465366, 41.635166310165694], [2.1252161626433677, 41.63534643395864], [2.1249760622652127, 41.635344606430245], [2.1249711894556955, 41.63570485397582], [2.1252112911704995, 41.635706681527196], [2.125210073288422, 41.63579674341572], [2.1253301243212235, 41.63579765700625], [2.125328906600685, 41.63588771889621], [2.125448957806114, 41.63588863236424], [2.1254477402471172, 41.63597869425562], [2.1255677916251736, 41.635979607601186], [2.125569009017086, 41.63588954570693], [2.126049213916386, 41.63589319782408], [2.1260479971928126, 41.63598325972981], [2.1261680485985717, 41.63598417244858], [2.1261668320365446, 41.636074234355746], [2.126406935198848, 41.63607605942292], [2.1264020702320554, 41.63643630706007], [2.126282017979785, 41.63643539457768], [2.1262808015571553, 41.636525456480506], [2.126040696735049, 41.636523631133905], [2.1260394799727016, 41.63661369302952], [2.1263996377154375, 41.63661643086999], [2.1263972051766724, 41.63679655467411], [2.126517258102842, 41.63679746704261], [2.1265123936272414, 41.637157714645014], [2.12627228644369, 41.63715588975968], [2.126273502905084, 41.637065827867], [2.125913342672577, 41.63706308960739], [2.125912125709899, 41.63715315149148], [2.12555196502597, 41.63715041209498], [2.1255531824899325, 41.637060350219514], [2.125313075729213, 41.637058523334105], [2.12531429352182, 41.63696846146294], [2.1251942403168695, 41.63696754783506], [2.1251966762196366, 41.63678742409413], [2.124956570494741, 41.63678559647378], [2.124954133923603, 41.63696572020323], [2.1248340807352895, 41.63696480619926], [2.1248316438077794, 41.63714492991715], [2.1249516973302813, 41.63714584392687], [2.124944387417204, 41.637686215063134], [2.1248243328921195, 41.63768530103617], [2.1248231143867615, 41.63777536288428], [2.124703059700125, 41.63777444872908], [2.124699403649463, 41.63804463425612], [2.1244592932902275, 41.638042805552374], [2.124458074261372, 41.638132867386076], [2.124338018922976, 41.63813195284327], [2.1243367997214673, 41.63822201467266], [2.12409668872712, 41.63822018520518], [2.124099127792998, 41.638040061556474], [2.123979072638358, 41.63803914664044], [2.1239815120162318, 41.6378590229917], [2.123741402392015, 41.637857192795025], [2.123742622406823, 41.63776713097426], [2.1236225677701457, 41.63776621569074], [2.1236237879465, 41.637676153871396], [2.1235037334824765, 41.63767523846541], [2.123498852075331, 41.63803548572261], [2.1233787969484617, 41.638034570179734], [2.1233775764156837, 41.638124631987544], [2.123257521127268, 41.63812371631642], [2.1232538589942838, 41.63839390172255], [2.123493970579294, 41.638395732956695], [2.1234903093989312, 41.63866591836708], [2.123370253102329, 41.63866500280405], [2.1233690325306553, 41.63875506460174], [2.1232489760725017, 41.638754148910465], [2.1232465345782665, 41.63893427249576], [2.1227663074643663, 41.63893060845389], [2.1227638646110187, 41.63911073201035], [2.122523750418988, 41.63910889922566], [2.12252008509459, 41.63937908453224], [2.122400027505581, 41.639378167943185], [2.1223988055525442, 41.63946822970626], [2.1222787478019844, 41.639467312988955], [2.1222738592657433, 41.639827560015306], [2.122033742444394, 41.6398257261815], [2.1220312974744195, 41.640005849674466], [2.121911238737857, 41.640004932563734], [2.1219087934113823, 41.64018505604516], [2.121788734346148, 41.64018413880328], [2.1217862886631678, 41.640364262273145], [2.121666229269259, 41.64036334490012], [2.1216674522806542, 41.64027328316879], [2.1215473930594344, 41.64027236567327], [2.121542500311959, 41.640632612578365], [2.1216625602016674, 41.64063353008543], [2.121660114128766, 41.64081365353508], [2.1217801743582907, 41.64081457092254], [2.121778951480614, 41.64090463264807], [2.1212987099274234, 41.64090096233445], [2.1212913685333725, 41.641441332588094], [2.1215314913043675, 41.6414431680303], [2.1215302680534576, 41.64153322973995], [2.121410206498044, 41.641532312078645], [2.1214065362105026, 41.641802497190284], [2.120806226010014, 41.64179790695976], [2.1208050017340248, 41.64188796864631], [2.1206849395435112, 41.641887050221165], [2.120682490640543, 41.64206717358416], [2.120802553165326, 41.64206809201508], [2.120801328872616, 41.642158153697295], [2.120561203494352, 41.64215631670429], [2.120558754223662, 41.64233644005282], [2.1203186281991515, 41.642334602546725], [2.120316178237606, 41.64251472587794], [2.120196114899438, 41.64251380693102], [2.1201948897431606, 41.642603868591564], [2.1203149532484677, 41.642604787541366], [2.1203137282537527, 41.64269484920335], [2.1205538556153782, 41.64269668673257], [2.1205575295799544, 41.64242650172493], [2.120677592767711, 41.64242742029279], [2.1206714703012426, 41.64287772864607], [2.120791534330277, 41.64287864710299], [2.1207890856389526, 41.643058770439964], [2.1209091500078476, 41.64305968877726], [2.120910374189153, 41.64296962710661], [2.121030438396477, 41.642970545315634], [2.1210316624050667, 41.642880483640646], [2.121271790502146, 41.64288231967675], [2.121266895771506, 41.6432425663911], [2.1210267663372746, 41.64324073033189], [2.1210218701803205, 41.64360097700004], [2.120901804802975, 41.64360005877081], [2.1209005805826555, 41.64369012043133], [2.1207805150437347, 41.64368920207381], [2.120779290650692, 41.64377926373001], [2.1202990278821594, 41.643775589034476], [2.1202978028149415, 41.64386565067766], [2.1204178686658612, 41.64386656954252], [2.1204166437602163, 41.64395663118718], [2.120296577742146, 41.64395571231942], [2.120295352663773, 41.644045773959725], [2.120175286484128, 41.644044854963695], [2.1201691601728316, 41.64449516312909], [2.12052936123581, 41.64449791978437], [2.120530586007759, 41.64440785814551], [2.120650652872749, 41.644408776776906], [2.120651877471967, 41.644318715133714], [2.121012077598921, 41.6443214702669], [2.1210145257777078, 41.64414134695886], [2.121134592163532, 41.64414226508003], [2.1211382638884597, 41.643872080098454], [2.1212583297783993, 41.643872998085556], [2.1212534348026275, 41.64423324473632], [2.1213735013667483, 41.644234162609585], [2.1213710541797437, 41.64441428593206], [2.121250987281314, 41.64441336805302], [2.1212522110447565, 41.64432330639539], [2.121132144319053, 41.644322388393846], [2.1211309203884547, 41.64441245004859]], [[2.123390217770724, 41.646050981214294], [2.1233914386254136, 41.6459609195308], [2.123511508465762, 41.64596183520165], [2.1235102877782417, 41.646051896888025], [2.123390217770724, 41.646050981214294]], [[2.12364012179854, 41.64533231888179], [2.1236413422744387, 41.64524225718095], [2.1237614107885743, 41.64524317257797], [2.123760190479839, 41.64533323428169], [2.12364012179854, 41.64533231888179]], [[2.1336040092433417, 41.636580888668476], [2.1336052154734655, 41.636490826591356], [2.133725268062096, 41.636491731426666], [2.133724061999063, 41.63658179350664], [2.1336040092433417, 41.636580888668476]], [[2.1272776712383195, 41.6338308944513], [2.127275241381769, 41.63401101838518], [2.1269150980587206, 41.63400828342674], [2.1269163134909657, 41.633918221469116], [2.1271564086999963, 41.633920044894374], [2.1271576237925736, 41.63382998292958], [2.1272776712383195, 41.6338308944513]], [[2.121281579696022, 41.642161826178686], [2.1212803560662854, 41.642251887871005], [2.1210402303091636, 41.64225005187531], [2.121034110405528, 41.64270036028635], [2.12091404669963, 41.64269944208599], [2.1209152708586423, 41.64260938040956], [2.120795207325458, 41.6426084620867], [2.120801328872616, 41.642158153697295], [2.121281579696022, 41.642161826178686]], [[2.1210181980040916, 41.64387116198594], [2.1210194220684073, 41.64378110032542], [2.1211394877856247, 41.64378201843504], [2.1211382638884597, 41.643872080098454], [2.1210181980040916, 41.64387116198594]], [[2.121160413323807, 41.651077926706435], [2.121161637499616, 41.65098786515577], [2.1212817166024256, 41.650988783245516], [2.1212804925938284, 41.65107884479909], [2.121160413323807, 41.651077926706435]], [[2.1236894030663542, 41.65055681062367], [2.1236881824297797, 41.65064687224209], [2.123087789758963, 41.650642293139164], [2.1230902326986336, 41.65046216992965], [2.1232103108872615, 41.65046308599532], [2.123211532181548, 41.650373024385516], [2.1234516882410723, 41.650374856134825], [2.123452909195387, 41.650284794517816], [2.123813142824745, 41.6502875411925], [2.1238094814499853, 41.65055772606511], [2.1236894030663542, 41.65055681062367]], [[2.1202083578416744, 41.650440146726794], [2.1202108087849796, 41.650260023649984], [2.120330886505517, 41.65026094272002], [2.1203284358966226, 41.650441065802596], [2.1202083578416744, 41.650440146726794]], [[2.1205698169960803, 41.650352842031594], [2.120571041963328, 41.65026278048381], [2.1208111974434467, 41.65026461774591], [2.1208099728106102, 41.650354679299475], [2.1205698169960803, 41.650352842031594]], [[2.119751341445146, 41.64872529992602], [2.1197501154023612, 41.64881536147815], [2.1198701904254, 41.648816281003604], [2.119868964544226, 41.64890634255718], [2.119628814169345, 41.648904503375086], [2.1196312665948818, 41.64872438027805], [2.119751341445146, 41.64872529992602]], [[2.120109114941433, 41.64890818123761], [2.120110340488221, 41.64881811967825], [2.120230415528001, 41.64881903882746], [2.120229190148406, 41.64890910038971], [2.120109114941433, 41.64890818123761]], [[2.1196410760737194, 41.64800388783208], [2.1196361713789615, 41.64836413406662], [2.1195160972030394, 41.64836321430481], [2.119514870848205, 41.64845327585694], [2.1192747221787345, 41.64845143595128], [2.119275948867947, 41.648361374404935], [2.119155874708778, 41.64836045426687], [2.1191607820785285, 41.64800020807861], [2.1192808555689497, 41.648001128205095], [2.1192796289020763, 41.64809118975723], [2.1195197762340445, 41.64809302963975], [2.119521002566546, 41.64800296808183], [2.1196410760737194, 41.64800388783208]], [[2.122889171048095, 41.64757836546793], [2.1228940574863784, 41.64721811886961], [2.1231342018090387, 41.6472199511698], [2.1231366443260953, 41.647039827850435], [2.1224162134310043, 41.64703432947955], [2.122418657931947, 41.64685420618899], [2.1221785150134673, 41.64685237240697], [2.122179737589943, 41.64676231076529], [2.1222998088792244, 41.646763227716114], [2.122301031282959, 41.646673166070094], [2.122180960160853, 41.64667224912215], [2.122182182726197, 41.64658218747758], [2.121942040833033, 41.64658035321124], [2.1219432637271574, 41.646490291570984], [2.1217031221906106, 41.6464884568088], [2.121700675728098, 41.64666858007631], [2.1214605335451324, 41.64666674480095], [2.1214629806763408, 41.64648662154497], [2.1212228391843526, 41.64648478577955], [2.1212252869619674, 41.646304662529325], [2.1214654277852665, 41.64630649828322], [2.12146787487191, 41.646126375015676], [2.1217080150488075, 41.64612821025641], [2.121709238249434, 41.6460381486147], [2.121829308179067, 41.64603906604408], [2.1218280851456104, 41.64612912768867], [2.1220682253559198, 41.64613096217698], [2.1220657799409843, 41.646311085473386], [2.1223059208422446, 41.646312919471605], [2.1223071432181526, 41.64622285781837], [2.1224272135099596, 41.646223774626506], [2.1224259913012227, 41.646313836282616], [2.1225460617657648, 41.64631475296822], [2.122544839718636, 41.64640481462578], [2.1226649103559145, 41.646405731188864], [2.122663688470394, 41.646495792847865], [2.123384113413899, 41.64650128961015], [2.1233865551733038, 41.64632116625615], [2.123626696196923, 41.64632299749548], [2.1236254756543445, 41.64641305917896], [2.1237455463416626, 41.646413974613395], [2.1237443259607, 41.64650403629832], [2.123864396820747, 41.64650495161024], [2.1238656170345362, 41.64641488992245], [2.1241057584369494, 41.6464167201643], [2.1241069783108375, 41.646326658469306], [2.124227048853203, 41.646327573399255], [2.1242233897163962, 41.64659775848853], [2.124103318672511, 41.64659684354996], [2.124102098781961, 41.646686905240614], [2.1239820275764547, 41.64668599017375], [2.1239808075131754, 41.646776051860094], [2.1238607361460486, 41.64677513666495], [2.1238509741024085, 41.647495630080584], [2.1237309014034054, 41.64749471473701], [2.1237296809557678, 41.64758477640457], [2.123609608095139, 41.64758386093271], [2.123608387474761, 41.64767392259596], [2.1234883144525067, 41.647673006995824], [2.1234870936593886, 41.64776306865473], [2.123367020475508, 41.64776215292629], [2.12336824143581, 41.64767209127025], [2.1231280954190943, 41.647670259442904], [2.1231268741244245, 41.64776032109319], [2.1230068009572225, 41.64775940498852], [2.123004358016832, 41.64793952827898], [2.122884284520822, 41.64793861204314], [2.122881841223814, 41.64811873532207], [2.1224015459579104, 41.64811506910151], [2.122403990592409, 41.64793494584564], [2.1225240640661664, 41.647935862583125], [2.1225252862078827, 41.64784580095014], [2.1226453595200194, 41.64784671755933], [2.122646581488988, 41.647756655922024], [2.1227666546395034, 41.64775757240293], [2.1227690982263825, 41.647577449118195], [2.122889171048095, 41.64757836546793]], [[2.120490165589136, 41.64737989146459], [2.1204877156716115, 41.64756001464546], [2.1201274975573976, 41.647557257695446], [2.120128723020493, 41.647467196114405], [2.1200086504940945, 41.647466276883144], [2.1200098761187913, 41.64737621530356], [2.120129948478009, 41.64737713453192], [2.120131173929946, 41.647287072948], [2.120251246127563, 41.647287992048064], [2.1202500208428066, 41.64737805363489], [2.120490165589136, 41.64737989146459]], [[2.1267351530629677, 41.64733743722033], [2.1267363693144246, 41.64724737547657], [2.1269765139922066, 41.64724919975061], [2.1269752980751107, 41.6473392615001], [2.1267351530629677, 41.64733743722033]], [[2.120149555039506, 41.64593614901553], [2.1201507804021786, 41.64584608740847], [2.12027084992502, 41.6458470064623], [2.120269624729515, 41.64593706807226], [2.120149555039506, 41.64593614901553]], [[2.1270093416613434, 41.64481753196837], [2.127010557423447, 41.64472747017843], [2.1271306250898863, 41.64472838204704], [2.1271294094949424, 41.64481844383986], [2.1270093416613434, 41.64481753196837]], [[2.12340853000747, 41.644700055809956], [2.123409750778789, 41.644609994104776], [2.1235298181116886, 41.64461090973244], [2.1235285975075273, 41.64470097144051], [2.12340853000747, 41.644700055809956]], [[2.1265315032382506, 41.64463375967006], [2.1264114357666526, 41.64463284717731], [2.126412652353476, 41.64454278539883], [2.1262925850545744, 41.64454187278357], [2.1262950185459184, 41.644361749227976], [2.126535152480633, 41.64436357432163], [2.1265375852811976, 41.6441834507488], [2.1267777185694428, 41.644185275329406], [2.126776502506239, 41.64427533712228], [2.1266564356921926, 41.64427442489182], [2.126650354457342, 41.644724733820176], [2.1265302868130473, 41.64472382144997], [2.1265315032382506, 41.64463375967006]], [[2.12617495158687, 41.64436083649306], [2.1261725177612125, 41.644540960042896], [2.126052450473391, 41.64454004717683], [2.1260597528868113, 41.643999676527216], [2.126299885462132, 41.64400150209949], [2.1262950185459184, 41.644361749227976], [2.12617495158687, 41.64436083649306]], [[2.1288212788395953, 41.64402064032564], [2.1288188524130343, 41.64420076401312], [2.1289389191594634, 41.644201673983616], [2.1289364930451207, 41.644381797671045], [2.128696358889162, 41.644379977593246], [2.128701212432998, 41.644019730235485], [2.1288212788395953, 41.64402064032564]], [[2.121854990595462, 41.64414777117373], [2.121856213506426, 41.64405770949733], [2.1219762797640853, 41.64405862673786], [2.121975057020275, 41.64414868841714], [2.121854990595462, 41.64414777117373]], [[2.1270178518798333, 41.64418709940842], [2.127019067603192, 41.64409703760836], [2.1271391340995356, 41.644097949456906], [2.127137918543331, 41.644188011259835], [2.1270178518798333, 41.64418709940842]], [[2.127980814109448, 41.64401426706125], [2.127979599728852, 41.64410432888568], [2.1278595331937864, 41.644103417914906], [2.127858318640508, 41.64419347973502], [2.127738251943817, 41.64419256863598], [2.1277406813791524, 41.64401244500003], [2.127980814109448, 41.64401426706125]], [[2.1255794878026655, 41.64399602387792], [2.125580705520785, 41.64390596210939], [2.1258208377174688, 41.64390778867909], [2.1258196203336532, 41.643997850453346], [2.1255794878026655, 41.64399602387792]], [[2.12606948912775, 41.64327918224678], [2.1260707061329347, 41.64318912045521], [2.126310835699565, 41.64319094597584], [2.1263096190286737, 41.64328100777313], [2.126549748951754, 41.64328283279792], [2.1265509652883523, 41.643192770994894], [2.1267910948992896, 41.64319459551237], [2.1267947428729896, 41.642924410077384], [2.126674678566187, 41.642923497889946], [2.1266758947134927, 41.642833436078256], [2.1267959588531506, 41.64283434826283], [2.1268008227184367, 41.64247410099016], [2.126560695781789, 41.642472276518575], [2.1265619120685506, 41.64238221470253], [2.126441848775672, 41.64238130228152], [2.1264454981041463, 41.64211111683334], [2.1263254353182206, 41.64211020429554], [2.126326651917106, 41.64202014247947], [2.125846401497342, 41.64201649108593], [2.125851270511651, 41.64165624385308], [2.1259713324397422, 41.641657156878054], [2.1259737665793823, 41.641477033247206], [2.1260938281787505, 41.641477946141066], [2.12608896054584, 41.641838193408454], [2.1262090228192805, 41.6418391061884], [2.1262078060643375, 41.6419291680045], [2.1263278685104527, 41.641930080661936], [2.1263290850982606, 41.641840018842956], [2.1264491473827793, 41.64184093137214], [2.1264479309621063, 41.64193099319398], [2.126688055882027, 41.64193281788193], [2.12668927196843, 41.641842756054345], [2.12680933426956, 41.641843668207365], [2.126806902425489, 41.64202379186682], [2.127047027712898, 41.64202561580819], [2.1270421652954306, 41.64238586313268], [2.127162228615988, 41.642386774926756], [2.1271610131649252, 41.64247683675714], [2.1272810766581562, 41.64247774842869], [2.127277430773191, 41.64274793391976], [2.127397494773379, 41.64274884547453], [2.1273950644900244, 41.64292896913375], [2.12727500015555, 41.642928057573265], [2.12727378483843, 41.643018119397844], [2.1271537203423443, 41.64301720770909], [2.1271525048525466, 41.64310726952937], [2.1270324401948493, 41.64310635771235], [2.12703000886436, 41.643286481342805], [2.126909943877904, 41.64328556939468], [2.1269087280372103, 41.64337563120487], [2.126668597746612, 41.6433738069267], [2.1266673815660866, 41.643463868729704], [2.1267874468757655, 41.64346478093436], [2.1267825827668942, 41.64382502814344], [2.1266625167886155, 41.64382411592731], [2.126661300580405, 41.6439141777231], [2.126541234440511, 41.64391326537871], [2.1265448835499843, 41.64364307999561], [2.1264248179170813, 41.643642167534445], [2.12642603444298, 41.64355210574005], [2.126305968982765, 41.643551193156355], [2.126308402352243, 41.64337106956898], [2.126188337231864, 41.64337015686563], [2.126189554075442, 41.64328009507264], [2.12606948912775, 41.64327918224678]], [[2.124981593674441, 41.64381133173519], [2.124984030754465, 41.64363120821968], [2.125104096320856, 41.643632122185565], [2.125101659575133, 41.643812245706826], [2.124981593674441, 41.64381133173519]], [[2.1213808427940677, 41.643693792607465], [2.1213820663457907, 41.64360373093539], [2.1216221971506246, 41.64360556626533], [2.1216209739331995, 41.64369562794318], [2.1213808427940677, 41.643693792607465]], [[2.123789476356152, 41.643171752993894], [2.1235493470225304, 41.643169922206866], [2.123550567532226, 41.64307986047423], [2.123190374074904, 41.64307711336189], [2.123187932047085, 41.64325723680844], [2.122827737636922, 41.64325448855031], [2.1228252945839863, 41.643434611973795], [2.122705229457426, 41.6434336956312], [2.122704007755468, 41.643523757337896], [2.1224638771847397, 41.64352192427078], [2.1224626551429226, 41.64361198597027], [2.1217422625613946, 41.64360648374221], [2.1217434856061024, 41.64351642206003], [2.1216234203624804, 41.643515504586034], [2.121627089964635, 41.643245319539474], [2.1217471547068167, 41.64324623700482], [2.1217459316788134, 41.64333629869134], [2.1218659965937094, 41.64333721603417], [2.1218635508552928, 41.64351733940863], [2.1219836161100503, 41.64351825663184], [2.1219848388148947, 41.643428194942445], [2.122224969006813, 41.64343002900693], [2.1222261913717975, 41.64333996731033], [2.122346256308958, 41.643340884151606], [2.12234747850123, 41.64325082245066], [2.1224675432768088, 41.64325173916366], [2.1224663212516828, 41.643341800867475], [2.1225863861999708, 41.643342717457976], [2.122587608057951, 41.64325265575126], [2.1227076728446552, 41.64325357221348], [2.1227101162096367, 41.643073448789984], [2.1225900517572223, 41.643072532333534], [2.1225937172644107, 41.64280234719609], [2.122473653318989, 41.642801430622896], [2.1224748753107345, 41.642711368910405], [2.122594939089015, 41.64271228548071], [2.122596160908056, 41.64262222376391], [2.122716224524758, 41.64262314020594], [2.1227186678118737, 41.642443016762215], [2.1225986045294523, 41.64244210032593], [2.122601048128598, 41.64226197688219], [2.1227211110767437, 41.6422628933127], [2.122724775932336, 41.64199270812758], [2.1226047134856, 41.64199179170572], [2.1226071570291225, 41.641811668247506], [2.122967343383207, 41.641814417119676], [2.1229649008424913, 41.641994540595164], [2.1233250882494232, 41.64199728835616], [2.1233263090211554, 41.6419072266105], [2.123446371334114, 41.641908142277174], [2.1234488125266386, 41.64172801877576], [2.123568874510886, 41.64172893431129], [2.12357009493168, 41.64163887255553], [2.1234500331145654, 41.64163795702289], [2.123452474273748, 41.64145783351278], [2.123092289858538, 41.64145508617979], [2.1230935109311857, 41.64136502443121], [2.1229734496376964, 41.641364108405654], [2.122977113323673, 41.6410939231599], [2.1232172349134366, 41.64109575506834], [2.1232160140245937, 41.641185816824134], [2.123336074994942, 41.64118673259316], [2.12333485426767, 41.641276794350375], [2.1238150988731443, 41.641280456184184], [2.1238114386635507, 41.64155064148174], [2.1239315003301997, 41.64155155663537], [2.123930280416358, 41.64164161840121], [2.123810218582577, 41.641640703244704], [2.123808998496049, 41.641730765006216], [2.12368893650069, 41.64172984972144], [2.1236755133437573, 41.642720528971054], [2.1237955771776287, 41.64272144428748], [2.123794357024443, 41.64281150603165], [2.1239144210310115, 41.64281242122557], [2.123913201039414, 41.642902482971174], [2.1240332652186784, 41.642903398042584], [2.1240308255531093, 41.64308352153522], [2.1237906965315574, 41.6430816912555], [2.123789476356152, 41.643171752993894]], [[2.1279917432860187, 41.64320371057636], [2.1281118081551105, 41.6432046213931], [2.128110593991419, 41.6432946832334], [2.1282306590331856, 41.64329559392761], [2.128229445031114, 41.643385655769336], [2.1281093798222, 41.643384745072254], [2.1281081656474536, 41.64347480690966], [2.1279881002769185, 41.64347389608433], [2.1279917432860187, 41.64320371057636]], [[2.127871678422455, 41.64320279963422], [2.127872892914911, 41.643112737798205], [2.1279929576113283, 41.64311364873747], [2.1279917432860187, 41.64320371057636], [2.127871678422455, 41.64320279963422]], [[2.1288370500737233, 41.642849836216016], [2.1288382632069176, 41.642759774351305], [2.128958327278963, 41.64276068427601], [2.128955901341339, 41.64294080800968], [2.129196030170571, 41.642942627494364], [2.1291936048794384, 41.64312275123371], [2.1293136696366264, 41.64312366079369], [2.1293148821178076, 41.64303359892187], [2.1294349467133697, 41.643034508353594], [2.129436159021886, 41.64294444647747], [2.1296762878952777, 41.642946264959036], [2.1296738639413078, 41.643126388721264], [2.130874511982117, 41.64313547366275], [2.130873301668322, 41.643225535570274], [2.130753236672286, 41.64322462763752], [2.1307520261858333, 41.643314689540716], [2.1291911795662233, 41.643302874967276], [2.129192392225591, 41.643212813101215], [2.1289522623934856, 41.643210993599375], [2.1289534753816257, 41.6431209317376], [2.1287133459059024, 41.64311911173991], [2.128715772534196, 41.642938988023445], [2.12859570813891, 41.64293807784224], [2.128596921611915, 41.64284801598472], [2.1288370500737233, 41.642849836216016]], [[2.128358006973972, 41.64275613339861], [2.1283592207702133, 41.642666071543914], [2.12847928465302, 41.64266698196731], [2.1284780710239213, 41.64275704382487], [2.128358006973972, 41.64275613339861]], [[2.128242798749922, 41.64239497543096], [2.1283628621257806, 41.64239588597115], [2.1283616483461176, 41.64248594783018], [2.1282415848031184, 41.64248503728712], [2.128242798749922, 41.64239497543096]], [[2.128002672014786, 41.64239315397441], [2.128003886290341, 41.642303092122525], [2.127883823098205, 41.64230218120903], [2.12788503753537, 41.642212119358554], [2.1277649745159, 41.64221120832254], [2.127766189114675, 41.6421211464735], [2.127646126267872, 41.64212023531496], [2.1276485557831055, 41.64194011161826], [2.1275284932761065, 41.641939200340076], [2.1275345678030773, 41.64148889108736], [2.127774691151267, 41.64149071348971], [2.127772262025602, 41.6416708372066], [2.12801238606444, 41.64167265911887], [2.1280063148248667, 41.64212296841442], [2.1281263776882557, 41.6421238791968], [2.1281251635908944, 41.642213941054436], [2.1282452266269485, 41.642214851714286], [2.128242798749922, 41.64239497543096], [2.128002672014786, 41.64239315397441]], [[2.130767762079875, 41.64214388468632], [2.1307665516595513, 41.64223394660686], [2.13016623595491, 41.64222940521934], [2.1301686584614252, 41.64204928140537], [2.1304087840581927, 41.64205109832511], [2.1304112058741054, 41.641870974493926], [2.130531268346486, 41.64187188276001], [2.1305276361157577, 41.64214206851318], [2.130767762079875, 41.64214388468632]], [[2.1307689724946877, 41.642053822764325], [2.1308890353178747, 41.64205473065995], [2.1308878250702, 41.6421447925848], [2.130767762079875, 41.64214388468632], [2.1307689724946877, 41.642053822764325]], [[2.1301710809458836, 41.64186915758561], [2.1301735034082845, 41.64168903376009], [2.1306537519497, 41.64169266705231], [2.1306525413897948, 41.64178272897723], [2.1304124167737926, 41.641780912576166], [2.1304112058741054, 41.641870974493926], [2.1301710809458836, 41.64186915758561]], [[2.129932167607947, 41.64177727826944], [2.1299333791706596, 41.64168721636165], [2.1300534412867145, 41.64168812512356], [2.1300522298911364, 41.641778187034205], [2.129932167607947, 41.64177727826944]], [[2.12669292019442, 41.64157257056292], [2.1266941362586778, 41.64148250872957], [2.126814197891275, 41.64148342087111], [2.1268117660914885, 41.64166354454214], [2.1265716421633005, 41.64166172012217], [2.1265728584002273, 41.64157165829312], [2.12669292019442, 41.64157257056292]], [[2.1262126730508735, 41.641568920731416], [2.126213889783659, 41.64147885890953], [2.1263339513941064, 41.64147977155261], [2.126332734828453, 41.64156983337736], [2.1262126730508735, 41.641568920731416]], [[2.1272956597000756, 41.641397006334344], [2.127298090129607, 41.641216882631724], [2.127178028976264, 41.64121597100031], [2.1271792443498603, 41.64112590914969], [2.1276594883279047, 41.6411295549116], [2.1276582736228256, 41.641219616773675], [2.127538212452888, 41.64121870551841], [2.127535782691879, 41.64139882923249], [2.1272956597000756, 41.641397006334344]], [[2.1249102718493007, 41.640207946344496], [2.1249139272967295, 41.63993776090426], [2.124673809896669, 41.639935932581245], [2.1246725910855018, 41.640025994390356], [2.124432473373399, 41.64002416556008], [2.124434911658656, 41.639844041951925], [2.124194794637226, 41.63984221263165], [2.1241972335687493, 41.63966208902921], [2.1240771754005947, 41.63966117418676], [2.124078395025144, 41.639571112386236], [2.1239583370296575, 41.63957019742129], [2.123954677638003, 41.639840382809865], [2.123834619146721, 41.63983946771091], [2.1238370590809437, 41.63965934412574], [2.1237170009294486, 41.63965842890716], [2.1237182210553445, 41.63956836711528], [2.1238382790397243, 41.639569282330974], [2.1238394989929508, 41.63947922053478], [2.124319730317542, 41.639482880132306], [2.1243209495967585, 41.63939281832317], [2.1244410072746716, 41.63939373290622], [2.124442226381224, 41.63930367109275], [2.1246823414194727, 41.63930549987702], [2.1246799038692714, 41.63948562351402], [2.1255203090174706, 41.6394920203499], [2.1255178737846903, 41.639672144021354], [2.125878048505489, 41.639674883659055], [2.1258768313821337, 41.639764945501234], [2.1257567729692086, 41.639764032411165], [2.125753121064542, 41.6400342179204], [2.1256330621558046, 41.64003330469636], [2.125630627190744, 41.640213428356205], [2.1253905087214173, 41.640211601520484], [2.1253892908963308, 41.640301663342505], [2.125029112732561, 41.64029892213995], [2.125027894400565, 41.6403889839519], [2.124787775318206, 41.640387155850895], [2.124788993984446, 41.640297094044705], [2.12466893461871, 41.640296179809006], [2.124671372268787, 41.64011605619801], [2.124791431300282, 41.640116970427954], [2.124790212645138, 41.64020703223705], [2.1249102718493007, 41.640207946344496]], [[2.1234793255578204, 41.6394764745202], [2.1234805460068347, 41.63938641273119], [2.123600603645876, 41.639387328191894], [2.123601823922221, 41.63929726639855], [2.1239619963713343, 41.63930001201973], [2.1239607765963284, 41.6393900738217], [2.1238407189406234, 41.63938915873714], [2.1238394989929508, 41.63947922053478], [2.1234793255578204, 41.6394764745202]], [[2.1328390213517165, 41.639907752212764], [2.1328329840890783, 41.64035806222404], [2.1327129243533043, 41.64035715638871], [2.132711716717162, 41.640447218383784], [2.132591656819763, 41.64044631242023], [2.1325952802130654, 41.64017612643923], [2.1324752208225335, 41.64017522035884], [2.1324764287764255, 41.64008515836513], [2.132356369558514, 41.640084252162225], [2.132357577674027, 41.63999419016993], [2.132597695781108, 41.639996002444676], [2.132598903556881, 41.639905940445225], [2.1328390213517165, 41.639907752212764]], [[2.132242351704263, 41.63963303587224], [2.132243559959393, 41.63954297387555], [2.1318833853633006, 41.63954025418973], [2.1318845941142777, 41.639450192200165], [2.132484884299689, 41.63945472436873], [2.132483676384292, 41.63954478637256], [2.1323636181690926, 41.63954388018674], [2.132362410081079, 41.63963394218627], [2.132242351704263, 41.63963303587224]], [[2.1334441423037918, 41.63955203134556], [2.133446555455236, 41.63937190729091], [2.133686671321593, 41.63937371726901], [2.133684258838612, 41.639553841335044], [2.1334441423037918, 41.63955203134556]], [[2.1338115534946187, 41.63901437390923], [2.1338127595387943, 41.63892431186543], [2.133932816650135, 41.638925216526815], [2.133931610773071, 41.63901527857347], [2.1338115534946187, 41.63901437390923]], [[2.1255300497268665, 41.63877152560628], [2.125531267290597, 41.63868146375682], [2.125651323687089, 41.638682377063176], [2.125650106290467, 41.638772438915495], [2.1255300497268665, 41.63877152560628]], [[2.1242130860823756, 41.63849128547246], [2.124214305467641, 41.638401223650284], [2.1243343613017993, 41.63840213832709], [2.1243331420836395, 41.63849220015214], [2.1242130860823756, 41.63849128547246]], [[2.125429476197002, 41.63732962245294], [2.125430693839145, 41.63723956058324], [2.1256708012793295, 41.6372413872294], [2.1256695839713786, 41.63733144910485], [2.125429476197002, 41.63732962245294]], [[2.1312090030877373, 41.63611245546408], [2.131206583982401, 41.63629257951445], [2.130966479709958, 41.63629076446467], [2.130967689599556, 41.636200702445905], [2.1308476376386842, 41.63619979473583], [2.130846427581998, 41.63628985675174], [2.130246167024845, 41.63628531630665], [2.1302449561272057, 41.63637537830682], [2.1301249038652204, 41.63637446983886], [2.1301261149299484, 41.63628440784155], [2.130006062840566, 41.636283499251086], [2.1300084852876577, 41.63610337525782], [2.13060874411882, 41.63610791692796], [2.1306099544986625, 41.636017854914876], [2.130730006114342, 41.63601876286996], [2.1307287959015864, 41.6361088248859], [2.1312090030877373, 41.63611245546408]], [[2.12881767097348, 41.63537378671342], [2.128816458125992, 41.63546384869374], [2.129056559192405, 41.63546566820503], [2.1290529216193073, 41.63573585415449], [2.129172972662041, 41.63573676373068], [2.1291717602937195, 41.6358268257138], [2.1292918115090567, 41.63582773516749], [2.1292881748722325, 41.63609792111677], [2.129168123155638, 41.6360970116545], [2.129169335540518, 41.6360069496757], [2.12904928399653, 41.63600604009094], [2.129050496542976, 41.63591597811356], [2.1288103938057312, 41.63591415857366], [2.1288140324144518, 41.63564397265005], [2.128693981555363, 41.635643062700645], [2.128697620615636, 41.6353728767726], [2.12881767097348, 41.63537378671342]], [[2.128221060255014, 41.63509904984906], [2.1282198465886975, 41.635189111819415], [2.128339896590289, 41.635190022255934], [2.1283386830855267, 41.63528008422768], [2.1280985827537098, 41.63527826322356], [2.128101010426026, 41.635098139290044], [2.128221060255014, 41.63509904984906]], [[2.1283532447780757, 41.63419934047118], [2.128354458216548, 41.63410927848208], [2.1284745062187733, 41.63411018875889], [2.128473292947371, 41.63420025075085], [2.1283532447780757, 41.63419934047118]], [[2.12859576732533, 41.634021036914085], [2.1285969804186173, 41.63393097491637], [2.1288370757824033, 41.63393279483179], [2.128835863023254, 41.63402285683524], [2.12859576732533, 41.634021036914085]], [[2.1289728866673117, 41.632762898388116], [2.1289740991821136, 41.632672836361586], [2.129214189901257, 41.63267465544482], [2.1292129777205715, 41.632764717477066], [2.1289728866673117, 41.632762898388116]], [[2.1340208308498014, 41.63235068321961], [2.1340220363206996, 41.63226062106606], [2.1339019915735187, 41.63225971661515], [2.133904402832961, 41.632079592309424], [2.1340244472460337, 41.63208049675464], [2.1340256527004695, 41.63199043459675], [2.1341456969519768, 41.631991338913785], [2.1341408757695257, 41.63235158754801], [2.1340208308498014, 41.63235068321961]], [[2.1313931443100897, 41.63134007320351], [2.1313943533956556, 41.63125001109674], [2.1316344389895825, 41.63125182507489], [2.1316320214811344, 41.631431949298396], [2.1315119783473255, 41.63143104236629], [2.131513187271348, 41.63134098025811], [2.1313931443100897, 41.63134007320351]], [[2.130466690549729, 41.62881107335806], [2.130467900817393, 41.62872101123366], [2.1305879388905637, 41.62872191920816], [2.130586728789925, 41.62881198133542], [2.130466690549729, 41.62881107335806]], [[2.131692452589827, 41.62692884197701], [2.1316936610717097, 41.62683877979374], [2.131813695692577, 41.626839686455085], [2.1318112790573305, 41.62701981082587], [2.1315712091530585, 41.62701799736646], [2.1315724178074524, 41.62692793518749], [2.131692452589827, 41.62692884197701]], [[2.1347210216009227, 41.62488003876853], [2.1347222257814824, 41.62478997648088], [2.134842256698609, 41.62479087994387], [2.1348410526850423, 41.62488094223436], [2.1347210216009227, 41.62488003876853]]]}, "properties": {"area_ha": 164.87, "dnbr_threshold_core": 0.35, "dnbr_threshold_grow": 0.22, "dnbr_mean": 0.494, "dnbr_max": 1.0373, "severity": "alta", "severity_method": "dnbr_mean", "forest_mask": "esa_worldcover_2021_10_20", "part": 3, "fire_id": "558909", "burn_year": 2026, "source": "sentinel", "aoi_source": "effis", "dnbr_threshold": 0.35, "buffer_m": 1200.0, "post_windows": 2, "post_window_dates": [{"start": "2026-07-13", "end": "2026-08-05"}, {"start": "2026-08-05", "end": "2026-09-04"}], "pre_window": {"start": "2026-04-22", "end": "2026-06-29"}, "fire_date": "2026-07-06"}}]}
