{"type": "FeatureCollection", "features": [{"type": "Feature", "geometry": {"type": "Polygon", "coordinates": [[[3.1664261204055775, 42.106551268919645], [3.166425649281197, 42.10637113967955], [3.166667546037539, 42.10637078860182], [3.166665894739495, 42.105740336224436], [3.1667868419177383, 42.105740160498215], [3.166786605851146, 42.105650095867745], [3.166907552857126, 42.1056499200146], [3.166907080384812, 42.10546979075051], [3.1667861337211978, 42.105469966602556], [3.1667856615955645, 42.105289837331675], [3.1666647152732343, 42.105290013055146], [3.166664479383216, 42.10519994841701], [3.166543533230988, 42.10520012401245], [3.1665432975132273, 42.10511005937235], [3.1654547836354086, 42.10511163399006], [3.165454315284329, 42.10493150469574], [3.1649705326801993, 42.104932201207184], [3.164970999661852, 42.105112330505875], [3.164729107668668, 42.105112677998946], [3.1647295739698684, 42.105292807294155], [3.164487681287703, 42.105293154279515], [3.16448814690844, 42.105473283571214], [3.164730040275332, 42.10547293658368], [3.164730506585057, 42.10565306586751], [3.1648514536092716, 42.10565289218144], [3.164851920265628, 42.105833021458515], [3.164972867631145, 42.10583284764388], [3.1649738016414024, 42.1061931061788], [3.1652156977387302, 42.10619275816274], [3.165216165435019, 42.106372887419504], [3.1653371138244593, 42.10637271321915], [3.165337347845397, 42.106462777844854], [3.1654582964049576, 42.106462603516476], [3.1654585305981566, 42.10655266814021], [3.1664261204055775, 42.106551268919645]]]}, "properties": {"area_ha": 2.41, "dnbr_threshold_core": 0.35, "dnbr_threshold_grow": 0.22, "dnbr_mean": 0.4846, "dnbr_max": 0.6926, "severity": "alta", "severity_method": "dnbr_mean", "forest_mask": "esa_worldcover_2021_10_20", "part": 0, "fire_id": "273159_0", "burn_year": 2025, "source": "sentinel", "aoi_source": "effis", "dnbr_threshold": 0.35, "buffer_m": 1200.0, "post_windows": 2, "post_window_dates": [{"start": "2025-07-08", "end": "2025-07-31"}, {"start": "2025-07-31", "end": "2025-08-30"}], "pre_window": {"start": "2025-04-17", "end": "2025-06-24"}, "fire_date": "2025-07-01", "aoi_id": "273159", "seed_id": "273159"}}]}
