{"type": "FeatureCollection", "features": [{"type": "Feature", "geometry": {"type": "Polygon", "coordinates": [[[0.8430766142447468, 42.70831330755389], [0.8430859657743358, 42.708043332802774], [0.8432079893574134, 42.70804563161922], [0.8432142232868972, 42.707865648429404], [0.8434582697919252, 42.70787024564383], [0.8434676195227666, 42.70760027080391], [0.843711665028953, 42.7076048674556], [0.8437178974072739, 42.70742488419219], [0.8435958749990471, 42.707422585945686], [0.8436021076721637, 42.70724260269025], [0.843358063602661, 42.70723800583633], [0.8433611802697739, 42.707148014220614], [0.8431171366095132, 42.707143416861534], [0.8431140195903867, 42.70723340846286], [0.8428699756353497, 42.70722881056982], [0.8428730930064884, 42.70713881898288], [0.8427510712264418, 42.707136519848724], [0.8427479536792964, 42.70722651142846], [0.8425039098101249, 42.707221912756076], [0.8425007918966539, 42.70731190431984], [0.8422567477327209, 42.70730730511348], [0.8422629842493752, 42.70712732201318], [0.8417748975013424, 42.70711812209936], [0.8417780164422172, 42.707028130575615], [0.84141195205954, 42.70702122929802], [0.8414057131074416, 42.70720121230072], [0.8412836913231784, 42.70719891160067], [0.8412805716496425, 42.70728890309242], [0.8411585497036942, 42.70728660225528], [0.8411523099616438, 42.707466585219564], [0.8412743322596059, 42.707468886071105], [0.8412712125431063, 42.707558877558036], [0.8413932350313985, 42.7075611782869], [0.8413776371141312, 42.70801113573355], [0.8416216838937889, 42.7080157368736], [0.841624803153859, 42.70792574537307], [0.8418688496387676, 42.70793034597915], [0.8418626118083621, 42.7081103290074], [0.8416185646194, 42.70810572837252], [0.8416154453306918, 42.708195719869835], [0.8414934215816751, 42.70819341935036], [0.8414903021026313, 42.708283410838874], [0.8416123260276631, 42.70828571136556], [0.841609206710316, 42.70837570285967], [0.8414871826092676, 42.70837340232578], [0.8414715849276404, 42.70882335973628], [0.8417156349042411, 42.70882796074616], [0.841712515676995, 42.70891795223785], [0.8420785912773517, 42.70892485280006], [0.8420817099765346, 42.70883486128676], [0.842203735029267, 42.708837161207164], [0.8421974979686281, 42.70901714424654], [0.8424415488211277, 42.70902174372643], [0.8424446670065607, 42.70893175219315], [0.8425666922782612, 42.70893405173107], [0.8425698102733579, 42.70884406018898], [0.8426918353833494, 42.70884635958979], [0.8427074242640376, 42.70839640181931], [0.8429514727667667, 42.708401000159256], [0.842954590147933, 42.70831100858595], [0.8430766142447468, 42.70831330755389]], [[0.8424664939037915, 42.70830181141526], [0.8422224458676015, 42.708297212050546], [0.8422255642905524, 42.70820722051882], [0.842469611974711, 42.70821181986915], [0.8424664939037915, 42.70830181141526]], [[0.8424789661015859, 42.707941845221185], [0.8423569427803916, 42.70793954563256], [0.8423600609700691, 42.70784955408724], [0.8428481536366736, 42.70785875163356], [0.8428450361510473, 42.70794874320768], [0.8429670595294917, 42.70795104227671], [0.8429608248673337, 42.70813102543453], [0.8427167774207008, 42.70812642713776], [0.8427136597161256, 42.70821641869989], [0.842469611974711, 42.70821181986915], [0.8424789661015859, 42.707941845221185]]]}, "properties": {"area_ha": 2.58, "dnbr_threshold_core": 0.35, "dnbr_threshold_grow": 0.22, "dnbr_mean": 0.7266, "dnbr_max": 1.0199, "severity": "alta", "severity_method": "dnbr_mean", "forest_mask": "esa_worldcover_2021_10_20", "part": 5, "fire_id": "253064_5", "burn_year": 2025, "source": "sentinel", "aoi_source": "effis", "dnbr_threshold": 0.35, "buffer_m": 1200.0, "post_windows": 2, "post_window_dates": [{"start": "2025-02-13", "end": "2025-03-08"}, {"start": "2025-03-08", "end": "2025-04-07"}], "pre_window": {"start": "2024-11-23", "end": "2025-01-30"}, "fire_date": "2025-02-06", "aoi_id": "253064", "seed_id": "253064"}}, {"type": "Feature", "geometry": {"type": "Polygon", "coordinates": [[[0.8501127928596105, 42.70610434170307], [0.849990772524689, 42.706102050325796], [0.8499938794876458, 42.70601205829966], [0.8501158996465664, 42.70601434966978], [0.8501283266517727, 42.70565438152062], [0.8498842877561725, 42.70564979870792], [0.8498873948238113, 42.70555980668096], [0.8497653755734009, 42.70555751508695], [0.8497622683297666, 42.705647507106725], [0.849518229519748, 42.7056429235147], [0.8495213371153727, 42.705552931509274], [0.8492772987144064, 42.705548347412055], [0.8492710828049097, 42.705728331392606], [0.8493931023502505, 42.705730623520516], [0.8493899945500978, 42.70582061551556], [0.8490239354288887, 42.70581373872067], [0.8490208270864772, 42.70590373069259], [0.8491428469552764, 42.70590602309461], [0.8491366305796441, 42.70608600704801], [0.8490146103588473, 42.706083714631625], [0.8490177187297975, 42.705993722662896], [0.8488956986992691, 42.70599143012381], [0.848889481591102, 42.70617141404529], [0.8490115019736292, 42.70617370659873], [0.8490083935741412, 42.70626369856424], [0.84864233194137, 42.706256820492726], [0.8486454408688592, 42.706166828548746], [0.848523420529145, 42.70616453560563], [0.8485265296183618, 42.70607454366723], [0.8477944089358231, 42.70606078332401], [0.8478037392857956, 42.70579080762842], [0.8479257588358714, 42.70579310132212], [0.8479226489094877, 42.70588309322944], [0.8480446686498366, 42.70588538680045], [0.8480539978581716, 42.70561541105216], [0.848176017084808, 42.70561770447174], [0.8481791266163752, 42.705527712545255], [0.8480571075657332, 42.705525419132854], [0.8480602172590188, 42.70543542721195], [0.8474501230999181, 42.70542395823756], [0.847456344203585, 42.705243974462746], [0.8469682705412578, 42.705234797002774], [0.8469651592925985, 42.70532478886225], [0.8468431407367296, 42.705322494165365], [0.8468462521613795, 42.70523250231308], [0.8467242337957844, 42.70523020749349], [0.8466931171465858, 42.7061301258725], [0.8464490769383567, 42.70612553569998], [0.8464459648428748, 42.7062155275147], [0.8462019243397932, 42.70621093680826], [0.8462081492204646, 42.706030953205975], [0.8459641094785275, 42.70602636200875], [0.845967222249426, 42.705936370219554], [0.8458452025758882, 42.7059340744333], [0.8458483155084929, 42.705844082649705], [0.8454822571016113, 42.70583719453318], [0.8454853705479116, 42.705747202769544], [0.8453633512835296, 42.705744906478124], [0.8453664648915321, 42.705654914720064], [0.845122426757637, 42.70565032176193], [0.8451161988233612, 42.70583030524767], [0.8446281213191605, 42.705821117715274], [0.8446250066265979, 42.70591110942697], [0.8441369286471854, 42.70590191978764], [0.8441244669179998, 42.70626188650337], [0.8440024467549099, 42.706259588740046], [0.8439993311108601, 42.70634958040778], [0.8438773107860746, 42.70634728250738], [0.8438648473628458, 42.70670724913351], [0.8441088894347284, 42.706711844861964], [0.8441057738951678, 42.706801836528875], [0.8442277951285662, 42.70680413420546], [0.8442340258413789, 42.70662415085565], [0.844356046737073, 42.706626448387965], [0.8443529315638197, 42.70671644007085], [0.8444749526498164, 42.70671873748047], [0.8444780676470669, 42.7066287457904], [0.8446000885713607, 42.70663104306293], [0.8446032033783099, 42.70654105136405], [0.8447252241409007, 42.7065433484995], [0.844722109509953, 42.70663334020557], [0.8449661514300313, 42.706637934101195], [0.844969265708975, 42.706547942380745], [0.8453353281683067, 42.70655483222845], [0.8453322144173693, 42.706644823970464], [0.845820298600598, 42.70665400864438], [0.8458234116475257, 42.70656401687361], [0.8460674534728827, 42.70656860841685], [0.8460767914719166, 42.70629863305179], [0.8464428527331068, 42.70630551932781], [0.846439740609052, 42.706395511139334], [0.8465617612340233, 42.70639780631207], [0.846564873182077, 42.70630781449338], [0.8466868936453333, 42.70631010952906], [0.8466837818732793, 42.70640010135494], [0.8468058025268211, 42.70640239626791], [0.8468089141228736, 42.706312404434854], [0.8471749756411968, 42.706319288372896], [0.8471718645731471, 42.706409280227504], [0.8472938852838197, 42.70641157462092], [0.8472876634568783, 42.70659155833972], [0.8474096845338367, 42.70659385261761], [0.8474065737749488, 42.70668384448177], [0.8475285950421909, 42.70668613863696], [0.8475254844450271, 42.706776130506704], [0.8478915488604392, 42.70678301221447], [0.8478884387770124, 42.70687300410416], [0.8481324821440182, 42.70687759127424], [0.8481231528641154, 42.707147566976786], [0.848367197344268, 42.70715215367038], [0.8483703067664952, 42.70706216175677], [0.8484923288519748, 42.70706445490155], [0.8484954380839206, 42.70697446297916], [0.8487394819456838, 42.70697904886468], [0.8487425908113426, 42.70688905692635], [0.8494747216830836, 42.70690281142246], [0.8494840450263327, 42.70663283546867], [0.8493620237067214, 42.70663054339891], [0.8493651316352755, 42.70654055141828], [0.8492431105059358, 42.706538259225795], [0.8492493266722484, 42.70635827527408], [0.8496153890470525, 42.706365151418794], [0.8496184965808022, 42.70627515941901], [0.8499845585559895, 42.7062820343732], [0.8499876655474707, 42.7061920423503], [0.8501096860583921, 42.70619433373475], [0.8501127928596105, 42.70610434170307]], [[0.8493589157639002, 42.70672053537793], [0.849236894282551, 42.7067182431711], [0.8492400024013779, 42.70662825119924], [0.8493620237067214, 42.70663054339891], [0.8493589157639002, 42.70672053537793]], [[0.8457138435050915, 42.70620175383677], [0.8459578838938631, 42.70620634558229], [0.8459547710800963, 42.706296337366666], [0.8457107303393263, 42.70629174560677], [0.8457138435050915, 42.70620175383677]], [[0.8469402687891556, 42.70604472368039], [0.8470622887672656, 42.706047018304865], [0.8470591775660615, 42.70613701015709], [0.8469371574119527, 42.70613471552546], [0.8469402687891556, 42.70604472368039]], [[0.849634034035572, 42.70582519939605], [0.8497560537997068, 42.70582749114148], [0.8497529465132805, 42.70591748315645], [0.8498749664676779, 42.70591977477914], [0.8498718593429864, 42.70600976679968], [0.8497498392125905, 42.706007475169805], [0.8497467318976354, 42.70609746718158], [0.8496247116055056, 42.70609517541464], [0.849634034035572, 42.70582519939605]], [[0.8475565897741024, 42.705876211737106], [0.8476786094716195, 42.70587850569777], [0.8476754991789652, 42.70596849758912], [0.8475534793054508, 42.705966203621266], [0.8475565897741024, 42.705876211737106]]]}, "properties": {"area_ha": 4.54, "dnbr_threshold_core": 0.35, "dnbr_threshold_grow": 0.22, "dnbr_mean": 0.8771, "dnbr_max": 1.0748, "severity": "alta", "severity_method": "dnbr_mean", "forest_mask": "esa_worldcover_2021_10_20", "part": 31, "fire_id": "253064_31", "burn_year": 2025, "source": "sentinel", "aoi_source": "effis", "dnbr_threshold": 0.35, "buffer_m": 1200.0, "post_windows": 2, "post_window_dates": [{"start": "2025-02-13", "end": "2025-03-08"}, {"start": "2025-03-08", "end": "2025-04-07"}], "pre_window": {"start": "2024-11-23", "end": "2025-01-30"}, "fire_date": "2025-02-06", "aoi_id": "253064", "seed_id": "253064"}}, {"type": "Feature", "geometry": {"type": "Polygon", "coordinates": [[[0.8510454792500823, 42.707382557146246], [0.851039268050231, 42.7075625412779], [0.8511612913295946, 42.7075648316009], [0.8511550804247449, 42.70774481574047], [0.8510330567933523, 42.70774252540315], [0.851023739801108, 42.708012501579], [0.8513898123222, 42.70801937226583], [0.8513960226085184, 42.707839388107175], [0.8516400703231202, 42.7078439678869], [0.851643175092867, 42.70775397579084], [0.8521312699890333, 42.70776313376286], [0.8521343740404645, 42.70767314163653], [0.8523784212220183, 42.70767771982884], [0.8523908358771431, 42.70731775125017], [0.8520247672383484, 42.707310883852855], [0.8520278713945452, 42.70722089172569], [0.8517838260586199, 42.70721631282567], [0.8517869305525867, 42.70712632071123], [0.8516649080820116, 42.70712403107356], [0.8516680127377371, 42.70703403896467], [0.8517900350323028, 42.70703632859519], [0.8517931394977667, 42.706946336477536], [0.8520371837776342, 42.70695091533455], [0.8520558081590717, 42.70641096250904], [0.8518117659912766, 42.70640638373803], [0.8518086616113194, 42.706496375865285], [0.8516866403727937, 42.70649408627778], [0.8516897449287548, 42.70640409415769], [0.8515677238804843, 42.70640180444746], [0.8515708285981968, 42.70631181233293], [0.8516928494704645, 42.706314102035996], [0.8516959539979223, 42.706224109912704], [0.8514519126196447, 42.70621953039103], [0.8514550174848531, 42.70612953828047], [0.8512109765155909, 42.70612495825358], [0.851214081718548, 42.70603496615574], [0.8510920614312987, 42.70603267595463], [0.8510951667959996, 42.70594268386238], [0.8508511266162668, 42.705938103084826], [0.8508542323187097, 42.70584811100532], [0.8504881726840345, 42.70584123888636], [0.8504850664535966, 42.70593123094435], [0.8503630464278906, 42.70592893997109], [0.8503599400071942, 42.706018932020314], [0.8501158996465664, 42.70601434966978], [0.8501127928596105, 42.70610434170307], [0.8502348132087935, 42.70610663295046], [0.8502317065835758, 42.7061966249893], [0.8504757476767255, 42.70620120710876], [0.8504726413892494, 42.70629119916036], [0.850716682891441, 42.706295780774596], [0.8507135769417096, 42.706385772838935], [0.8508355978901946, 42.7063880634584], [0.850832492102209, 42.70647805552831], [0.8511985555612169, 42.706484926628846], [0.8511954502869861, 42.706574918718665], [0.8508293862999655, 42.706568047596605], [0.8508200688076903, 42.70683802379191], [0.8506980469791801, 42.70683573313659], [0.8506949409438989, 42.70692572519133], [0.8505729189536398, 42.70692343439895], [0.850569812728092, 42.70701342644492], [0.8500817242056284, 42.707004261947816], [0.8500879380505244, 42.70682427791167], [0.8499659163075782, 42.70682198647701], [0.8499565949908172, 42.7070919625073], [0.8498345727341112, 42.70708967092122], [0.8498314654239881, 42.707179662920936], [0.8499534878567037, 42.707181954514176], [0.8499503807083262, 42.70727194651947], [0.8498283580996008, 42.70726965491905], [0.8498252507609485, 42.70735964691556], [0.8497032279904772, 42.707357355178075], [0.8496939053608953, 42.70762733113647], [0.8501819986405149, 42.70763649739314], [0.8501851054939206, 42.707546505379916], [0.8500630823286339, 42.707544214017766], [0.850075510303682, 42.70718424597754], [0.850197532764923, 42.707186537310996], [0.8501944259685665, 42.70727652933063], [0.8506825166601867, 42.70728569339422], [0.8506794105536113, 42.70737568544094], [0.8510454792500823, 42.707382557146246]], [[0.8515211514044546, 42.707751685973086], [0.8515242563359624, 42.7076616938826], [0.8516462798483594, 42.707663983693166], [0.851643175092867, 42.70775397579084], [0.8515211514044546, 42.707751685973086]], [[0.8514488077401827, 42.70630952249998], [0.8514457028464674, 42.706399514607334], [0.8513236818267029, 42.70639722463733], [0.8513267868964214, 42.70630723253714], [0.8514488077401827, 42.70630952249998]]]}, "properties": {"area_ha": 2.35, "dnbr_threshold_core": 0.35, "dnbr_threshold_grow": 0.22, "dnbr_mean": 0.8353, "dnbr_max": 1.0524, "severity": "alta", "severity_method": "dnbr_mean", "forest_mask": "esa_worldcover_2021_10_20", "part": 34, "fire_id": "253064_34", "burn_year": 2025, "source": "sentinel", "aoi_source": "effis", "dnbr_threshold": 0.35, "buffer_m": 1200.0, "post_windows": 2, "post_window_dates": [{"start": "2025-02-13", "end": "2025-03-08"}, {"start": "2025-03-08", "end": "2025-04-07"}], "pre_window": {"start": "2024-11-23", "end": "2025-01-30"}, "fire_date": "2025-02-06", "aoi_id": "253064", "seed_id": "253064"}}, {"type": "Feature", "geometry": {"type": "Polygon", "coordinates": [[[0.8530257721460888, 42.706609256793676], [0.8530319774001607, 42.70642927239747], [0.8531539986193979, 42.706431560549014], [0.8531508961754878, 42.706521552755085], [0.8532729175849723, 42.7065238407839], [0.8532760198528769, 42.706433848570676], [0.8536420836387592, 42.7064407118563], [0.8536389818988691, 42.70653070409102], [0.8540050463409157, 42.70653756622912], [0.8539957426198725, 42.7068075429881], [0.8538737205969326, 42.70680525571715], [0.8538706191521034, 42.70689524795978], [0.8536265747969193, 42.706890673013866], [0.8536234729858341, 42.706980665240586], [0.8531353837423067, 42.70697151376142], [0.8531322812129434, 42.707061505957874], [0.8528882363246123, 42.7070569294246], [0.8528789275949998, 42.707326905961395], [0.853000950560077, 42.70732919431447], [0.8529916422303051, 42.707599170858344], [0.8531136657376664, 42.707601459103], [0.8531105631086034, 42.70769145128825], [0.8538427055079397, 42.70770517807141], [0.8538396039207314, 42.70779517029803], [0.8539616278798098, 42.70779745764775], [0.8539647292910014, 42.70770746541396], [0.8540867530883002, 42.707709752626634], [0.8540898543092389, 42.707619760384084], [0.8539678306879557, 42.70761747317859], [0.853970932070673, 42.7075274809416], [0.8538489086396422, 42.70752519361337], [0.853852010184136, 42.707435201381934], [0.8537299869433577, 42.70743291393097], [0.853733088649626, 42.70734292170512], [0.8538551117143913, 42.707345209148926], [0.8538582132304092, 42.707255216914305], [0.8539802361333999, 42.707257504221054], [0.8539864387706999, 42.70707751973268], [0.854108461335905, 42.70707980689522], [0.8541053602003849, 42.70716979914737], [0.8542273829558368, 42.707172086187164], [0.85423358486062, 42.70699210166696], [0.8544776297101871, 42.706996675328256], [0.8544807302892066, 42.70690668305142], [0.8549688194550978, 42.70691582878666], [0.8549378200649154, 42.70781575176919], [0.855059844152103, 42.70781803794982], [0.8550567443108328, 42.70790803024643], [0.8546906715639131, 42.70790117129334], [0.8546937719332368, 42.70781117901821], [0.8545717478887462, 42.707808892447865], [0.8545655467838291, 42.70798887698221], [0.8544435224015354, 42.70798659026767], [0.8544373208876447, 42.7081665747813], [0.8545593456219778, 42.708168861510174], [0.8545562450197014, 42.70825885377173], [0.8546782699442896, 42.70826114037785], [0.8546751695038017, 42.70835113264497], [0.8547971946186448, 42.70835341912835], [0.8547940943399457, 42.708443411401035], [0.854916119645044, 42.708445697761675], [0.8549130195281363, 42.708535690039916], [0.8547909940470149, 42.708533403672114], [0.8547878937398514, 42.70862339594159], [0.8542997912536, 42.70861424914276], [0.8542935891883713, 42.708794233619656], [0.8540495373265569, 42.708789659412204], [0.854046435920536, 42.708879651633914], [0.8538023837636182, 42.70887507689255], [0.8537961802047537, 42.70905506130254], [0.8540402330657811, 42.70905963607257], [0.8540433345002766, 42.708969643854054], [0.8542873870661987, 42.70897421809015], [0.8542749826510203, 42.70933418701188], [0.8543970096594543, 42.70933647396371], [0.8543939086961, 42.70942646619731], [0.8545159358947999, 42.709428753026394], [0.8545128350932419, 42.70951874526555], [0.8543908077185102, 42.7095164584293], [0.8543877067266843, 42.70960645065969], [0.8545097342774494, 42.709608737503096], [0.8545066334474222, 42.70969872973903], [0.854872716713227, 42.70970558951128], [0.854866516066678, 42.70988557402133], [0.8549885442024834, 42.70988786036658], [0.8550009447345129, 42.70952789131146], [0.8556110821063089, 42.70953932094601], [0.8556141813235726, 42.70944932864245], [0.8557362086645852, 42.70945161417249], [0.8557331096233546, 42.70954160648319], [0.8562212198337977, 42.709550747332905], [0.8562305148024209, 42.70928077031013], [0.8564745689367912, 42.70928533991264], [0.8564776668791569, 42.70919534755421], [0.8563556399808915, 42.70919306282505], [0.8563587380850651, 42.70910307047217], [0.8564807648073005, 42.70910535519417], [0.8564962542346956, 42.70865539336997], [0.8563742283925991, 42.708653108683734], [0.8563711303595367, 42.70874310104462], [0.8562491043556363, 42.708740816221336], [0.8562614971066536, 42.708380846796764], [0.8560174465497209, 42.7083762768177], [0.8560236435439822, 42.708196292124434], [0.8557795937480362, 42.70819172165438], [0.8557826925758732, 42.70810172931965], [0.8556606678752589, 42.70809944389692], [0.8556637668648902, 42.70800945156775], [0.8555417423545223, 42.708007166022284], [0.8555448415059465, 42.707917173698654], [0.8554228171858255, 42.707914888030444], [0.8554259164990405, 42.70782489571238], [0.8556699648014735, 42.70782946690458], [0.8556668658402949, 42.70791945923697], [0.8559109145516698, 42.707924029923895], [0.8559171117557276, 42.70774404522892], [0.8557950877449639, 42.70774175996472], [0.855798186501673, 42.70765176762198], [0.8555541388748562, 42.707647196718185], [0.8555665351675594, 42.70728722738846], [0.8554445120795495, 42.70728494177035], [0.8554476112931714, 42.70719494944107], [0.855325588395402, 42.7071926637002], [0.855328687770808, 42.70710267137648], [0.8552066650632787, 42.70710038551287], [0.8552097646004679, 42.7070103931947], [0.8550877420831775, 42.70700810720837], [0.8551032404357369, 42.70655814562928], [0.8549812188127179, 42.706555859548835], [0.8549843186165474, 42.706465867235366], [0.8538861262338752, 42.706445286730606], [0.8538892276075184, 42.70635529447997], [0.8537672064788454, 42.70635300711493], [0.8537703080142544, 42.70626301486984], [0.85352626615163, 42.706258439764404], [0.8535417753751198, 42.70580847858659], [0.8534197553451706, 42.70580619087484], [0.8534259592868888, 42.705626206406826], [0.8531819199737036, 42.705621630622325], [0.8531850222751961, 42.705531638400245], [0.8530630028159617, 42.705529350320326], [0.8530661052792092, 42.705439358103796], [0.8528220667554592, 42.70543478156863], [0.8528034496503687, 42.70597473475778], [0.8529254699611087, 42.70597702313329], [0.8529223672364069, 42.70606701533303], [0.8528003467496664, 42.706064726950366], [0.8527910379620948, 42.70633470351852], [0.8526690169615921, 42.706332414984466], [0.8526659138279091, 42.70642240716349], [0.8527879350044156, 42.70642469570469], [0.8527786260459109, 42.70669467225364], [0.8531446912449423, 42.706701537162424], [0.8531477937173363, 42.70661154495956], [0.8530257721460888, 42.706609256793676]], [[0.853044387737391, 42.706069303585814], [0.853041285174447, 42.706159295791146], [0.8529192644974617, 42.706157007531196], [0.8529223672364069, 42.70606701533303], [0.853044387737391, 42.706069303585814]], [[0.8548913183112922, 42.70916563594273], [0.8551353717806074, 42.70917020838882], [0.8551322719019049, 42.70926020066856], [0.8548882180805288, 42.709255628208155], [0.8548913183112922, 42.70916563594273]], [[0.8553980221678918, 42.70863482651736], [0.855407320406329, 42.70836484959677], [0.8557733960496856, 42.708371706319035], [0.855770297179172, 42.708461698648954], [0.8558923225981, 42.7084639839704], [0.8558892238893839, 42.70855397630588], [0.8560112494985619, 42.70855626150457], [0.8560081509516458, 42.7086462538456], [0.8561301767510735, 42.70864853892155], [0.8561177831252725, 42.709008508298275], [0.8558737301324243, 42.70900393795927], [0.8558706313383561, 42.709093930285135], [0.8557486046872415, 42.70909164491361], [0.8557455057029173, 42.70918163723073], [0.8556234788899991, 42.709179351722156], [0.8556389745494953, 42.708729390156336], [0.8555169486309449, 42.70872710455363], [0.8555200478961884, 42.70863711224281], [0.8553980221678918, 42.70863482651736]], [[0.8562398096430328, 42.709010793272945], [0.8562367113770524, 42.709100785620265], [0.8561146846832624, 42.70909850063846], [0.8561177831252725, 42.709008508298275], [0.8562398096430328, 42.709010793272945]], [[0.8551539707539842, 42.70863025467676], [0.8552759964538231, 42.70863254066201], [0.8552697972050038, 42.70881252525341], [0.8551477711531132, 42.70881023925385], [0.8551539707539842, 42.70863025467676]]]}, "properties": {"area_ha": 4.78, "dnbr_threshold_core": 0.35, "dnbr_threshold_grow": 0.22, "dnbr_mean": 0.4876, "dnbr_max": 0.9447, "severity": "alta", "severity_method": "dnbr_mean", "forest_mask": "esa_worldcover_2021_10_20", "part": 40, "fire_id": "253064_40", "burn_year": 2025, "source": "sentinel", "aoi_source": "effis", "dnbr_threshold": 0.35, "buffer_m": 1200.0, "post_windows": 2, "post_window_dates": [{"start": "2025-02-13", "end": "2025-03-08"}, {"start": "2025-03-08", "end": "2025-04-07"}], "pre_window": {"start": "2024-11-23", "end": "2025-01-30"}, "fire_date": "2025-02-06", "aoi_id": "253064", "seed_id": "253064"}}]}
