{"type": "FeatureCollection", "features": [{"type": "Feature", "geometry": {"type": "Polygon", "coordinates": [[[1.9104262203055193, 41.77053047708022], [1.9102957601282193, 41.77052006496899], [1.9098525786123528, 41.770501765948396], [1.9095458551905349, 41.770500697199616], [1.909541597825947, 41.77049582803886], [1.9093413929867482, 41.770306275663415], [1.9091835913821704, 41.77016987935262], [1.908964419133852, 41.769996538967476], [1.9087589638227975, 41.76986041469304], [1.908512604495571, 41.76985807476292], [1.9085095510772987, 41.770038182605106], [1.9077877922421596, 41.77003132275317], [1.9077893199638387, 41.769941268854375], [1.9080299058780252, 41.769943555968176], [1.9080375427002478, 41.769493286416285], [1.9079172505805504, 41.7694921429403], [1.9079126680035734, 41.76976230466506], [1.907792375386313, 41.76976116105237], [1.9077985364576309, 41.769397978944646], [1.907631403339551, 41.76933856580885], [1.907439484806348, 41.769287054219284], [1.9074376103558004, 41.76939751388042], [1.9076781942101195, 41.76939980170661], [1.9076766663620364, 41.769489855610594], [1.9075563742632227, 41.76948871175687], [1.9075533182098223, 41.76966881955326], [1.907192440946119, 41.76966538721497], [1.907193969480823, 41.7695753333283], [1.9074345539799797, 41.76957762167254], [1.907436082171372, 41.769487567777205], [1.9073157900864848, 41.76948642367163], [1.9073197192319353, 41.769254908730204], [1.9072949473240135, 41.76924825986554], [1.9069482101579525, 41.76918331054134], [1.9068398932223476, 41.76917137797723], [1.906837679860204, 41.76930173823106], [1.906597096439747, 41.769299448649186], [1.9065848614072758, 41.77001987959288], [1.90706603365764, 41.77002445836806], [1.907064504919931, 41.770114512243836], [1.906823918444457, 41.7701122231009], [1.906819331180456, 41.77038238469786], [1.9069396249192467, 41.77038352934308], [1.9069426827658564, 41.77020342160605], [1.907062976175255, 41.77020456611815], [1.9070476883453449, 41.77110510478081], [1.908491229983259, 41.771118829535425], [1.9084927567793615, 41.77102877563261], [1.9082521667731382, 41.771026489439954], [1.9082536938986547, 41.77093643554286], [1.908734873266187, 41.77094100741009], [1.9087379261508646, 41.770760899582775], [1.91018146088459, 41.770774603009436], [1.9101845097050372, 41.77059449509015], [1.9104250982518782, 41.770596777217285], [1.9104262203055193, 41.77053047708022]], [[1.9069533850095282, 41.76957304448035], [1.906951856138476, 41.769663098359835], [1.9068315637451043, 41.76966195374339], [1.9068330927843307, 41.76957189986751], [1.9067128005661003, 41.76957075512874], [1.906714329766533, 41.76948070125498], [1.907075205937605, 41.76948413508273], [1.9070767346265514, 41.76939408119672], [1.9071970265293359, 41.76939522555054], [1.907193969480823, 41.7695753333283], [1.9069533850095282, 41.76957304448035]], [[1.9072989777482083, 41.770477016400314], [1.9072943924187802, 41.770747178022894], [1.9071740979863605, 41.77074603374105], [1.9071786838203364, 41.77047587212927], [1.9072989777482083, 41.770477016400314]], [[1.9092221557955977, 41.77058536154458], [1.909220630043381, 41.77067541547626], [1.909100335667797, 41.77067427321282], [1.9091018615881967, 41.77058421928473], [1.9092221557955977, 41.77058536154458]], [[1.907786264513518, 41.77012137665053], [1.9077847367779153, 41.77021143054641], [1.9075441498825068, 41.77020914290734], [1.9075456779544673, 41.77011908901866], [1.907786264513518, 41.77012137665053]], [[1.9085080243577268, 41.77012823652402], [1.9085064976311983, 41.77021829044145], [1.9083862041382533, 41.77021714744042], [1.9083877310329616, 41.770127093526575], [1.9085080243577268, 41.77012823652402]]]}, "properties": {"area_ha": 3.018, "dnbr_threshold_core": 0.35, "dnbr_threshold_grow": 0.22, "dnbr_mean": 0.3285, "dnbr_max": 0.5694, "severity": "moderada", "severity_method": "dnbr_mean", "forest_mask": "esa_worldcover_2021_10_20", "part": 1, "fire_id": "560890", "burn_year": 2026, "source": "sentinel", "aoi_source": "effis", "dnbr_threshold": 0.35, "buffer_m": 1200.0, "post_windows": 2, "post_window_dates": [{"start": "2026-07-15", "end": "2026-08-07"}, {"start": "2026-08-07", "end": "2026-09-06"}], "pre_window": {"start": "2026-04-24", "end": "2026-07-01"}, "fire_date": "2026-07-08"}}, {"type": "Feature", "geometry": {"type": "Polygon", "coordinates": [[[1.9147666886665722, 41.77712279717443], [1.9147682070053194, 41.77703274317826], [1.9148885134886164, 41.777033879647256], [1.9148900316522062, 41.77694382564605], [1.9146494190290073, 41.77694155258924], [1.9146524560083795, 41.776761444596765], [1.914171232190927, 41.77675689700028], [1.9141803470005871, 41.77621657307346], [1.9143006519351629, 41.776217710140074], [1.9143021708776449, 41.77612765614358], [1.913941256599381, 41.77612424457663], [1.9139427760396328, 41.77603419058939], [1.913702166891871, 41.77603191558883], [1.9137036866616584, 41.77594186160729], [1.9135833822663957, 41.77594072392166], [1.9135849021974858, 41.77585066994223], [1.9134645979773786, 41.77584953213422], [1.9134676381552354, 41.77566942417813], [1.913347334278511, 41.77566828625132], [1.913348854525275, 41.77557823227465], [1.9131082471290637, 41.77557595605037], [1.9131097677053517, 41.77548590207939], [1.9132300712317674, 41.77548704025092], [1.9132346324143823, 41.77521687831851], [1.9131143293926394, 41.7752157401577], [1.9131158499412095, 41.77512568618087], [1.9134767585225554, 41.77512910027474], [1.9134828386288958, 41.77476888430992], [1.9133625364344027, 41.77476774641889], [1.9133640566118897, 41.7746776924276], [1.9132437545925431, 41.774676554414185], [1.9132452749313205, 41.77458650042502], [1.9128843694195075, 41.77458308563987], [1.9128858902560086, 41.774493031659965], [1.9127655886008152, 41.77449189314995], [1.9127671095986023, 41.77440183917216], [1.912526506645442, 41.77439956178146], [1.9125295492930834, 41.774219453835805], [1.9120483448156842, 41.77421489757171], [1.9120498668019612, 41.77412484361102], [1.911929565868163, 41.774123704233716], [1.9119310880157179, 41.774033650275136], [1.911810787257069, 41.774032510775484], [1.9118138318677935, 41.773852402861124], [1.9115732310441556, 41.77385012349831], [1.9115777989174736, 41.773579961637274], [1.9112168992479484, 41.77357654168076], [1.9112184223631348, 41.773486487734914], [1.9108575232607026, 41.773483066655714], [1.910859046873571, 41.77339301271915], [1.9106184478430788, 41.773390731377155], [1.9106199717854173, 41.773300677446294], [1.9104996724487942, 41.77329953658999], [1.9104981483382484, 41.77338959051727], [1.9103778488403644, 41.77338844953144], [1.9103808973909218, 41.77320834168259], [1.9102605982363963, 41.77320720057799], [1.9102590737963847, 41.77329725449955], [1.9101387744805998, 41.77329611326544], [1.910140299088817, 41.77320605934745], [1.9095388034551515, 41.77320035130573], [1.9095372780059068, 41.77329040520578], [1.9094169787318194, 41.773289263216036], [1.9094154531074166, 41.773379317111036], [1.9090545548222533, 41.773375890375426], [1.9090530286862777, 41.77346594425819], [1.9082109317535632, 41.773457944108834], [1.9082139863734489, 41.77327783639214], [1.9079733879852692, 41.77327554951613], [1.9079749156211827, 41.77318549566277], [1.9078546166057395, 41.77318435203945], [1.9078561444028956, 41.77309429818822], [1.907615546729305, 41.77309201057097], [1.9076140185957409, 41.77318206441501], [1.907132822659315, 41.7731774876549], [1.9071282361983728, 41.77344764913507], [1.9068876372627244, 41.77344535997783], [1.9068845789144326, 41.773625467609584], [1.9066439793338283, 41.773623177934205], [1.9066424498128132, 41.773713231740686], [1.906040950142251, 41.77370750533031], [1.906037889397214, 41.77388761290292], [1.9062784899173606, 41.773889903859285], [1.9062708396148451, 41.77434017280119], [1.9063911407264384, 41.774341318108455], [1.906389610813232, 41.77443137189605], [1.906509912100011, 41.774432517080974], [1.9065068525891138, 41.77461262465898], [1.9063865509659037, 41.774611479466856], [1.9063850210317814, 41.77470153325007], [1.9066256246216076, 41.77470382351555], [1.906627154219296, 41.77461376972516], [1.9069880591516615, 41.77461720416805], [1.906989588237731, 41.77452715036539], [1.907591095756611, 41.774532871900064], [1.9075895675116228, 41.77462292572071], [1.9084316795080492, 41.77463093060486], [1.9084332065755216, 41.77454087675907], [1.9091550161202808, 41.77454773315504], [1.9091565421714982, 41.77445767928625], [1.910118953941527, 41.7744668140661], [1.9101174292360392, 41.774556867963604], [1.910358032584476, 41.77455915040634], [1.910359556953531, 41.774469096501655], [1.9107204615236344, 41.77447251921041], [1.9107189376592295, 41.774562573125856], [1.9109595410771212, 41.774564854309155], [1.9109580175422063, 41.774654908230296], [1.9111986213243046, 41.774657188917], [1.9111970981188826, 41.77474724284385], [1.9114377022651827, 41.77474952303395], [1.9114361793892582, 41.77483957696649], [1.9115564816410373, 41.77484071687621], [1.9115549589263925, 41.77493077081088], [1.9116752613533312, 41.774931910598234], [1.9116737387999674, 41.77502196453503], [1.911794041402065, 41.775023104200024], [1.9117894742050117, 41.77529326601238], [1.9116691710982476, 41.775292126336645], [1.9116706936724266, 41.77520207240424], [1.9114300878161607, 41.775199792682095], [1.9114316107198452, 41.77510973875538], [1.910589491619119, 41.7751017557857], [1.9105910156934123, 41.77501170188263], [1.9103504106350007, 41.775009419907825], [1.9103519350387894, 41.77491936601045], [1.9101113303446056, 41.77491708353904], [1.9101082808571992, 41.77509719131797], [1.9096270702064537, 41.775092624835125], [1.9096255447794415, 41.77518267870805], [1.9093849391593312, 41.77518039470379], [1.9093864649227874, 41.77509034083803], [1.909266162291383, 41.77508919865057], [1.9092676882161062, 41.77499914478695], [1.9090270833106013, 41.77499686004137], [1.9090286095648108, 41.77490680618347], [1.9089083072907105, 41.77490566362536], [1.9089067808682811, 41.774995717479676], [1.908786478432917, 41.77499457479203], [1.9087880050235666, 41.7749045209413], [1.9083067960245648, 41.77489994894564], [1.908305268761037, 41.77499000278199], [1.9075834544620267, 41.774983140988645], [1.9075773413009995, 41.775343356233186], [1.9076976443396463, 41.77534450019465], [1.9076961162002015, 41.77543455400572], [1.9078164194140361, 41.77543569784483], [1.907814891435851, 41.77552575165804], [1.9079351948248722, 41.7755268953748], [1.9079336670079496, 41.77561694919014], [1.9081742741433292, 41.77561923625302], [1.9081727466558949, 41.775709290074076], [1.9082930504022522, 41.77571043342019], [1.9082915230760842, 41.77580048724339], [1.9084118269976273, 41.77580163046714], [1.9084133541555695, 41.77571157664035], [1.9085336579158465, 41.77571271973457], [1.9085321309261314, 41.77580277356494], [1.9092539546432565, 41.7758096295069], [1.9092524286559478, 41.77589968335736], [1.9093727328013737, 41.77590082557713], [1.9093712069753392, 41.77599087942972], [1.9098524242994805, 41.77599544706366], [1.90985089913941, 41.776085500929135], [1.9099712036560528, 41.776086642526344], [1.909969678657262, 41.776176696393954], [1.9100899833490839, 41.77617783786879], [1.9100884585115747, 41.77626789173852], [1.9111712025646603, 41.77627815937663], [1.9111696792342892, 41.776368213277166], [1.911289984332029, 41.77636935349969], [1.9112915074941683, 41.77627929959556], [1.9115321173740059, 41.776281579655574], [1.911530594548331, 41.77637163356686], [1.912011815064206, 41.776376192189815], [1.9120102929045226, 41.77646624611396], [1.9126118195466006, 41.776471941576666], [1.912610298221151, 41.77656199551725], [1.912850909262986, 41.77656427282783], [1.912849388267072, 41.77665432677411], [1.9129696939666219, 41.776655465244055], [1.912968173132013, 41.77674551919245], [1.9130884790067288, 41.776746657540016], [1.913086958333426, 41.776836711490525], [1.9132072643833082, 41.77683784971572], [1.9131996617540354, 41.777288119464224], [1.9135605824688378, 41.77729153343774], [1.9135590624269188, 41.77738158739377], [1.914040290816595, 41.77738613760938], [1.9140418101855488, 41.777296083639044], [1.9141621171320387, 41.77729722087448], [1.914165155512694, 41.777117112922255], [1.9142854621296261, 41.7771182500246], [1.9142869811413301, 41.77702819604273], [1.914527594059483, 41.77703046986239], [1.9145260753842577, 41.77712052385142], [1.9147666886665722, 41.77712279717443]], [[1.9138072750658333, 41.776933592922894], [1.913686968813075, 41.776932455323895], [1.913685448967102, 41.77702250928937], [1.9134448361458891, 41.777020233706345], [1.9134509168341194, 41.77666001786431], [1.9132103053865126, 41.77665774180608], [1.9132148668393514, 41.77638757993067], [1.9134554772775527, 41.77638985596743], [1.913453957136669, 41.776479909934515], [1.913694567939048, 41.77648218547463], [1.9136900084842425, 41.77675234738857], [1.9138103144005263, 41.77675348498043], [1.9138072750658333, 41.776933592922894]], [[1.9129742564288652, 41.7763853033901], [1.9130945616306434, 41.77638644172336], [1.9130930409850595, 41.77647649567972], [1.9129727356150483, 41.776475357342875], [1.9129742564288652, 41.7763853033901]], [[1.9116569902550309, 41.77601255774328], [1.9117772947076064, 41.776013697447674], [1.9117742497638757, 41.77619380529188], [1.911653944974839, 41.776192665580325], [1.9116569902550309, 41.77601255774328]]]}, "properties": {"area_ha": 13.97, "dnbr_threshold_core": 0.35, "dnbr_threshold_grow": 0.22, "dnbr_mean": 0.6628, "dnbr_max": 1.0161, "severity": "alta", "severity_method": "dnbr_mean", "forest_mask": "esa_worldcover_2021_10_20", "part": 22, "fire_id": "560890", "burn_year": 2026, "source": "sentinel", "aoi_source": "effis", "dnbr_threshold": 0.35, "buffer_m": 1200.0, "post_windows": 2, "post_window_dates": [{"start": "2026-07-15", "end": "2026-08-07"}, {"start": "2026-08-07", "end": "2026-09-06"}], "pre_window": {"start": "2026-04-24", "end": "2026-07-01"}, "fire_date": "2026-07-08"}}]}
