{"type": "FeatureCollection", "features": [{"type": "Feature", "geometry": {"type": "Polygon", "coordinates": [[[0.8799438625135769, 42.7085516838314], [0.879940798539388, 42.70864167757467], [0.8800628262310525, 42.70864393715381], [0.8801848539367818, 42.70864619660305], [0.8803068816565751, 42.708648455922365], [0.8804289093904324, 42.70865071511178], [0.8805509371383529, 42.7086529741713], [0.8806729649003346, 42.7086552331009], [0.8807949926763776, 42.7086574919006], [0.8807919299203834, 42.70874748569178], [0.8809139578865242, 42.70874974436864], [0.8810359858667249, 42.70875200291559], [0.8810329234487468, 42.708841996719315], [0.8811549516190451, 42.70884425514342], [0.8812769798034001, 42.70884651343763], [0.881399008001814, 42.70884877160192], [0.8814020698916765, 42.708758777777], [0.8814051317674828, 42.708668783950465], [0.8815271596278761, 42.70867104197072], [0.8815302213135887, 42.70858104813552], [0.8814081936292332, 42.70857879012234], [0.8814112554769267, 42.70848879629262], [0.8814143173105649, 42.7083988024613], [0.8815363446428489, 42.70840106046035], [0.8815394062863965, 42.70831106662036], [0.8814173791301462, 42.70830880862839], [0.8814204409356714, 42.70821881479388], [0.8814235027271407, 42.708128820957775], [0.8813014759370131, 42.70812656285003], [0.8811794491609425, 42.70812430461238], [0.8811825112904204, 42.70803431078881], [0.88106048470444, 42.70803205242832], [0.8809384581325165, 42.70802979393793], [0.8808164315746522, 42.70802753531764], [0.8806944050308486, 42.70802527656744], [0.8805723785011048, 42.70802301768733], [0.8804503519854227, 42.70802075867732], [0.8804534151570288, 42.70793076489458], [0.8803313888314396, 42.707928505761735], [0.8802093625199132, 42.70792624649899], [0.8802124260295172, 42.707836252728804], [0.8800903999080842, 42.707833993343236], [0.8799683738007161, 42.70783173382775], [0.8799653099390533, 42.70792172758379], [0.8799622460633248, 42.70801172133824], [0.8799591821735309, 42.7081017150911], [0.8799561182696711, 42.70819170884235], [0.8798340914722451, 42.708189449168664], [0.8798310273782877, 42.708279442911255], [0.879827963270263, 42.70836943665224], [0.8798248991481721, 42.70845943039164], [0.879946926473699, 42.70846169008654], [0.8799438625135769, 42.7085516838314]]]}, "properties": {"area_ha": 1.01, "dnbr_threshold_core": 0.35, "dnbr_threshold_grow": 0.22, "forest_mask": "esa_worldcover_2021_10_20", "part": 6, "fire_id": "292551", "burn_year": 2026, "source": "sentinel", "aoi_source": "effis", "dnbr_threshold": 0.35, "buffer_m": 1200.0, "post_windows": 2, "post_window_dates": [{"start": "2026-03-11", "end": "2026-04-03"}, {"start": "2026-04-03", "end": "2026-05-03"}], "pre_window": {"start": "2025-12-19", "end": "2026-02-25"}, "fire_date": "2026-03-04", "severity": "moderada", "severity_method": "threshold_proxy"}}]}
