{"type": "FeatureCollection", "features": [{"type": "Feature", "geometry": {"type": "Polygon", "coordinates": [[[1.2164190314722516, 41.65933204009119], [1.2164165466118773, 41.65942206839878], [1.2161764454100037, 41.65941834124868], [1.216173960204245, 41.65950836954302], [1.2160539094532379, 41.65950650577415], [1.2160514240691298, 41.65959653406108], [1.2164115768571981, 41.659602125009364], [1.2164140617401928, 41.65951209670484], [1.2166541633213817, 41.65951582336538], [1.216656647858991, 41.65942579504762], [1.2173769518717126, 41.65943697198645], [1.2173744683363281, 41.65952700033935], [1.2179747228263176, 41.65953631103804], [1.217972240114822, 41.65962633941867], [1.2183323934455403, 41.65963192435161], [1.2183348756559198, 41.65954189595343], [1.2188150795868904, 41.659549340752804], [1.2188175611178185, 41.659459312329695], [1.219057662816999, 41.659463033965764], [1.2190601440025568, 41.6593730055294], [1.2193002454128348, 41.65937672665251], [1.2193027262530252, 41.65928669820292], [1.2189425746556588, 41.65928111634784], [1.218945055985666, 41.65919108791427], [1.2187049553112954, 41.65918736606266], [1.2187223266435858, 41.65855716706653], [1.2186022774925738, 41.658555305993694], [1.2186047592333227, 41.65846527756536], [1.2182446123491555, 41.658459693612514], [1.2182421301073179, 41.65854972202329], [1.2178819828237433, 41.65854413692506], [1.2178844655666703, 41.65845410853183], [1.2177644166617747, 41.658452246587636], [1.2177668995604294, 41.65836221819876], [1.2175268021185999, 41.658358493946125], [1.2175292853400101, 41.65826846556741], [1.2172891882774461, 41.65826474082524], [1.21728670472198, 41.658354769192265], [1.2171666560406258, 41.65835290662735], [1.2171641723068272, 41.65844293498697], [1.2172842211552106, 41.65844479755773], [1.2172817375771363, 41.658534825921684], [1.2174017866038525, 41.65853668837298], [1.2173993031815047, 41.658626716741246], [1.2176394016029064, 41.658630441279605], [1.2176369185033171, 41.658720469658036], [1.2173968197478533, 41.65871674510797], [1.2173943363028985, 41.65880677347315], [1.2171542372585853, 41.65880304841011], [1.2171517534682623, 41.65889307676205], [1.216911654135105, 41.658889351186026], [1.2169066858524102, 41.65906940786189], [1.2166665858963461, 41.659065681761184], [1.2166616169002853, 41.65924573840747], [1.2165415666051458, 41.65924387515743], [1.2165390819231174, 41.659333903472415], [1.2164190314722516, 41.65933204009119]], [[1.217641884691194, 41.65854041289964], [1.2177619337518186, 41.658542274975005], [1.217759450830561, 41.65863230336082], [1.2176394016029064, 41.658630441279605], [1.217641884691194, 41.65854041289964]]]}, "properties": {"area_ha": 1.91, "dnbr_threshold_core": 0.35, "dnbr_threshold_grow": 0.22, "dnbr_mean": 0.6764, "dnbr_max": 0.9853, "severity": "alta", "severity_method": "dnbr_mean", "forest_mask": "esa_worldcover_2021_10_20", "part": 21, "fire_id": "272118_21", "burn_year": 2025, "source": "sentinel", "aoi_source": "effis", "dnbr_threshold": 0.35, "buffer_m": 1200.0, "post_windows": 2, "post_window_dates": [{"start": "2025-06-28", "end": "2025-07-21"}, {"start": "2025-07-21", "end": "2025-08-20"}], "pre_window": {"start": "2025-04-07", "end": "2025-06-14"}, "fire_date": "2025-06-21", "aoi_id": "272118", "seed_id": "272118"}}, {"type": "Feature", "geometry": {"type": "Polygon", "coordinates": [[[1.2245204720460545, 41.65297268449046], [1.2242803937383608, 41.652968974733845], [1.2242754470086004, 41.653149032316655], [1.2241554075376666, 41.653147177238765], [1.224152933988913, 41.65323720602204], [1.224032894362251, 41.653235350813006], [1.2240304206352517, 41.653325379588914], [1.2239103808528604, 41.65332352424876], [1.2239054330311077, 41.65350358178431], [1.2237853929259983, 41.65350172630719], [1.223787867009494, 41.65341169754601], [1.2236678270826344, 41.65340984194944], [1.2236579300131292, 41.65376995696159], [1.2234178488572722, 41.6537662453459], [1.2234128995869815, 41.65394630281943], [1.223292858691962, 41.65394444681197], [1.2232903838729283, 41.65403447554061], [1.2229302607544774, 41.65402890674895], [1.2229327360744917, 41.65393887803782], [1.2228126952245324, 41.65393702152919], [1.2228077442392518, 41.654117078938235], [1.2225676619051609, 41.65411336552172], [1.2225651860616307, 41.65420339421225], [1.2224451447444928, 41.65420153731022], [1.2224401926896347, 41.65438159467503], [1.222560234340764, 41.65438345158875], [1.2225577584634277, 41.65447348027468], [1.2227978421334855, 41.65447719373788], [1.2227928910129995, 41.6546572511285], [1.2229129331989257, 41.65465910768382], [1.2229154085978038, 41.65456907898344], [1.2230354506279983, 41.654570935407634], [1.2230329753961189, 41.65466096411384], [1.2231530176045775, 41.654662820418565], [1.223150542528432, 41.65475284912907], [1.223270584915155, 41.65475470531433], [1.2232681099947442, 41.654844734029155], [1.223388152559732, 41.65484659009494], [1.2233832030191203, 41.65502664753161], [1.2235032459293755, 41.655028503483784], [1.2235007713091768, 41.65511853220565], [1.2236208143976974, 41.65512038803834], [1.223633186551056, 41.654670244384484], [1.22387327109187, 41.654673955615635], [1.2238806932467512, 41.6544038693699], [1.224120776830617, 41.65440758006488], [1.2241281978821783, 41.654137493770314], [1.2242482391900116, 41.65413934891236], [1.224253186167437, 41.65395929136332], [1.2243732271525394, 41.65396114636841], [1.2243781737509485, 41.653781088801566], [1.2242581330998317, 41.65377923380815], [1.2242630799871954, 41.65359917624683], [1.2243831203043296, 41.653601031228604], [1.2243855935641352, 41.653511002439814], [1.2246256738981924, 41.653514712015784], [1.2246330926081364, 41.65324462560522], [1.2247531322910814, 41.65324648018778], [1.2247457140821039, 41.65351656661584], [1.2249857944836895, 41.65352027544006], [1.22498826689729, 41.65343024662057], [1.2257085073701537, 41.6534413700512], [1.2257134501597315, 41.65326131233771], [1.2259535297393906, 41.65326501912227], [1.2259560007833314, 41.65317499025157], [1.2260760404230435, 41.65317684345008], [1.2260834529864273, 41.65290675681132], [1.2259634138476747, 41.65290490363027], [1.2259658848466293, 41.652814874753446], [1.2260859238183972, 41.65281672792865], [1.2260883946391214, 41.65272669904446], [1.226208433455151, 41.652728552088554], [1.2262133747288968, 41.6525484943039], [1.226573490242551, 41.6525540526495], [1.2265759603616104, 41.6524640237374], [1.2266959987216648, 41.652465876262866], [1.2267108181980588, 41.65192570272312], [1.2268308555674776, 41.65192755508835], [1.2268333252738886, 41.65183752615387], [1.2269533624875706, 41.651839378388], [1.2269558320157645, 41.651749349446156], [1.2268357949690587, 41.651747497217855], [1.2268382646529883, 41.651657468280305], [1.2267182277844977, 41.65165561593253], [1.226720697624162, 41.65156558699926], [1.2266006609338875, 41.65156373453203], [1.226603130929285, 41.65147370560305], [1.2261229849485054, 41.65146629450455], [1.2261205142852134, 41.65155632341025], [1.2258804410283421, 41.651552617097636], [1.225875499000125, 41.651732674881096], [1.2257554620546094, 41.65173082152521], [1.2257529908566553, 41.65182085040882], [1.2258730279691468, 41.651822703770534], [1.2258705569269226, 41.65191273265842], [1.2257505196474545, 41.65191087929089], [1.2257455771953107, 41.65209093705042], [1.2256255395931348, 41.65208908354594], [1.225623068183213, 41.65217911241758], [1.2257431059523674, 41.65218096592789], [1.225740634698177, 41.652270994803814], [1.2256205967620428, 41.652269141287675], [1.2256156538859584, 41.65244919902328], [1.2254956156271117, 41.65244734537021], [1.225493144005215, 41.65253737422987], [1.2250129904144014, 41.65252995834139], [1.2250179349827945, 41.65234990066714], [1.224897896947182, 41.652348046393456], [1.2249028418045258, 41.6521679887247], [1.2247828041141249, 41.652166134337385], [1.224790221816677, 41.65189604784024], [1.2245501474715013, 41.6518923387247], [1.2245328370036244, 41.65252254044825], [1.2246528753394375, 41.65252439510948], [1.2246454568996104, 41.65279448155689], [1.2248855346068963, 41.652798190538434], [1.22488306210508, 41.65288821936283], [1.225003101142587, 41.65289007367149], [1.2250006287965025, 41.65298010250017], [1.2248805895920103, 41.65297824818568], [1.224878117067687, 41.65306827700701], [1.2247580777074616, 41.653066422561395], [1.2247605503987709, 41.6529763937459], [1.2246405112167853, 41.652974539180825], [1.2246380383584903, 41.6530645679905], [1.224517999020774, 41.6530627132943], [1.2245204720460545, 41.65297268449046]], [[1.2232755347221835, 41.65457464788012], [1.2232780096088012, 41.6544846191607], [1.2233980515057925, 41.65448647520316], [1.2233955767861728, 41.65457650392841], [1.2232755347221835, 41.65457464788012]], [[1.2238905892956142, 41.65404375435408], [1.2238930632796796, 41.65395372559629], [1.2240131042310067, 41.65395558097727], [1.2240081565856042, 41.65413563850297], [1.223888115300289, 41.65413378311034], [1.2238856412937034, 41.65422381186505], [1.2237655998526533, 41.65422195634128], [1.223758177264344, 41.654492042578745], [1.2235180934140475, 41.65448833112032], [1.2235304660082167, 41.654038187441884], [1.2238905892956142, 41.65404375435408]]]}, "properties": {"area_ha": 3.71, "dnbr_threshold_core": 0.35, "dnbr_threshold_grow": 0.22, "dnbr_mean": 0.5047, "dnbr_max": 0.8754, "severity": "alta", "severity_method": "dnbr_mean", "forest_mask": "esa_worldcover_2021_10_20", "part": 89, "fire_id": "272118_89", "burn_year": 2025, "source": "sentinel", "aoi_source": "effis", "dnbr_threshold": 0.35, "buffer_m": 1200.0, "post_windows": 2, "post_window_dates": [{"start": "2025-06-28", "end": "2025-07-21"}, {"start": "2025-07-21", "end": "2025-08-20"}], "pre_window": {"start": "2025-04-07", "end": "2025-06-14"}, "fire_date": "2025-06-21", "aoi_id": "272118", "seed_id": "272118"}}, {"type": "Feature", "geometry": {"type": "Polygon", "coordinates": [[[1.2270230354026972, 41.65805507656413], [1.2261826943232867, 41.65804210723576], [1.226180223173029, 41.658132136041026], [1.2257000278498211, 41.65812472221603], [1.2257024996681944, 41.658034693434054], [1.2255824510325464, 41.65803283967034], [1.2255849230066975, 41.65794281089265], [1.2254648745493284, 41.65794095700945], [1.2254624024081486, 41.658030985781316], [1.2248621594549587, 41.658021714456474], [1.2248596864673846, 41.658111743197644], [1.2246195890308376, 41.65810803377885], [1.2246171156979484, 41.65819806250684], [1.2241369202918337, 41.65819064214215], [1.2241319722560422, 41.65837069954687], [1.2243720706047023, 41.65837441000317], [1.2243745442941671, 41.65828438128992], [1.2248547404584673, 41.65829180067541], [1.2248522674371247, 41.65838182941198], [1.224972316673373, 41.658383683950895], [1.2249747895276846, 41.65829365520849], [1.225695084179321, 41.658304779775385], [1.2256926123271954, 41.65839480855274], [1.2258126616422147, 41.65839666221444], [1.225815133327309, 41.65830663343125], [1.2262953300317538, 41.6583140468016], [1.2262928590147846, 41.6584040756081], [1.2268931059835477, 41.65841333953054], [1.2268906357904936, 41.65850336836462], [1.2273708342360174, 41.65851077727018], [1.227368364699853, 41.658600806126], [1.2278485639933547, 41.65860821304976], [1.2278460951140873, 41.658698241927354], [1.228446345318969, 41.65870749779151], [1.2284512813959232, 41.65852743997663], [1.2280911322414931, 41.658521886868996], [1.2280936007642198, 41.65843185797671], [1.2279735512355803, 41.65843000669602], [1.227976019914103, 41.65833997780801], [1.2278559705637317, 41.65833812640783], [1.2278584393980505, 41.65824809752411], [1.2272581936499216, 41.658238838672524], [1.2272606633081558, 41.65814880981637], [1.2270205654216448, 41.65814510541016], [1.2270230354026972, 41.65805507656413]]]}, "properties": {"area_ha": 1.1, "dnbr_threshold_core": 0.35, "dnbr_threshold_grow": 0.22, "dnbr_mean": 0.6923, "dnbr_max": 0.9459, "severity": "alta", "severity_method": "dnbr_mean", "forest_mask": "esa_worldcover_2021_10_20", "part": 97, "fire_id": "272118_97", "burn_year": 2025, "source": "sentinel", "aoi_source": "effis", "dnbr_threshold": 0.35, "buffer_m": 1200.0, "post_windows": 2, "post_window_dates": [{"start": "2025-06-28", "end": "2025-07-21"}, {"start": "2025-07-21", "end": "2025-08-20"}], "pre_window": {"start": "2025-04-07", "end": "2025-06-14"}, "fire_date": "2025-06-21", "aoi_id": "272118", "seed_id": "272118"}}, {"type": "Feature", "geometry": {"type": "Polygon", "coordinates": [[[1.2302739777690166, 41.644595130988584], [1.2302764420471906, 41.64450510177123], [1.2305164897128555, 41.644508798395705], [1.2305140257685137, 41.644598827624684], [1.2306340497850832, 41.64460067575486], [1.2306389773287203, 41.644420617283735], [1.230879024727832, 41.644424313145066], [1.2308888783452436, 41.644064196137954], [1.2307688553077376, 41.644062348293154], [1.2307713188509743, 41.64397231904335], [1.2306512959915923, 41.64397047107909], [1.2306562233782532, 41.643790412586505], [1.2307762459038143, 41.643792260539136], [1.2307787094134164, 41.64370223128472], [1.230898731783279, 41.64370407910629], [1.2309011951147606, 41.64361404984455], [1.230301084212115, 41.64360480951322], [1.2302912274807225, 41.643964926434826], [1.2300511818628816, 41.64396122937906], [1.2300413236167507, 41.64432134622964], [1.2298012767084732, 41.64431764862635], [1.229796346850449, 41.64449770701919], [1.2295562993193838, 41.64449400889163], [1.2295489034467109, 41.644764096434514], [1.2293088549590248, 41.64476039777105], [1.2293039236534693, 41.64494045610205], [1.229063874542994, 41.6449367569143], [1.2290614085395448, 41.64502678606587], [1.2291814332560909, 41.64502863572818], [1.2291789674083393, 41.64511866488403], [1.2292989923030286, 41.64512051442689], [1.2292940609077012, 41.64530057274562], [1.2295341113984286, 41.645304271478835], [1.2295365767678594, 41.645214242308604], [1.2297766269696233, 41.645217940529164], [1.229779091993991, 41.64512791134578], [1.22989911694478, 41.645129760262364], [1.2299040466260192, 41.64494970187938], [1.2300240712541848, 41.64495155065908], [1.2300290005567163, 41.644771492258336], [1.2301490248622613, 41.64477334090116], [1.2301539537860904, 41.64459328248265], [1.2302739777690166, 41.644595130988584]]]}, "properties": {"area_ha": 1.06, "dnbr_threshold_core": 0.35, "dnbr_threshold_grow": 0.22, "dnbr_mean": 0.4382, "dnbr_max": 0.7185, "severity": "moderada", "severity_method": "dnbr_mean", "forest_mask": "esa_worldcover_2021_10_20", "part": 130, "fire_id": "272118_130", "burn_year": 2025, "source": "sentinel", "aoi_source": "effis", "dnbr_threshold": 0.35, "buffer_m": 1200.0, "post_windows": 2, "post_window_dates": [{"start": "2025-06-28", "end": "2025-07-21"}, {"start": "2025-07-21", "end": "2025-08-20"}], "pre_window": {"start": "2025-04-07", "end": "2025-06-14"}, "fire_date": "2025-06-21", "aoi_id": "272118", "seed_id": "272118"}}, {"type": "Feature", "geometry": {"type": "Polygon", "coordinates": [[[1.22898822671495, 41.65646417651824], [1.229228318614093, 41.65646787669336], [1.2292307853752729, 41.656377847713436], [1.2294708769852933, 41.6563815473757], [1.2294807425816237, 41.65602143139409], [1.2297208329004328, 41.65602513050861], [1.2297257649631954, 41.65584507248535], [1.2296057201322026, 41.655843223002364], [1.2296106524840902, 41.65566316498459], [1.2288903857380076, 41.65565206552505], [1.2288879185656156, 41.65574209449982], [1.2278075177014276, 41.6557254368001], [1.2278025803167614, 41.655905494640315], [1.227562490691367, 41.65590179152764], [1.2275600216481566, 41.6559918204338], [1.227199886793315, 41.65598626480753], [1.2272023563375596, 41.65589623591883], [1.2270823115754363, 41.65589438379862], [1.227084781275452, 41.655804354914196], [1.2268446921189489, 41.655800650309494], [1.2268471621417434, 41.65571062143518], [1.2267271177473646, 41.655708768950696], [1.2267246475575608, 41.65579879781918], [1.226244469424445, 41.65579138660491], [1.2262419985553572, 41.65588141544856], [1.2255217306910193, 41.65587029483305], [1.2255242025621669, 41.655780266024344], [1.2254041581244939, 41.65577841215568], [1.2254066301513995, 41.65568838335127], [1.2252865858919864, 41.65568652936314], [1.2252890580746487, 41.65559650056303], [1.2254091021670535, 41.65559835454533], [1.225418990117161, 41.65523823930621], [1.2255390335527918, 41.65524009313991], [1.2255415053451864, 41.65515006432046], [1.2256615486250633, 41.65515191802303], [1.225664020239204, 41.655061889196226], [1.2257840633633263, 41.65506374276766], [1.225779120457804, 41.6552438004314], [1.226019207407811, 41.655247507221674], [1.226016736272187, 41.65533753606289], [1.2261367799310678, 41.655339389275895], [1.2261343089512031, 41.65542941812141], [1.2262543527883363, 41.655431271214944], [1.2262518819642318, 41.65552130006474], [1.2263719259796177, 41.655523153038786], [1.2263743966367149, 41.65543312418317], [1.2264944404963387, 41.6554349770261], [1.2264969109751844, 41.65534494816312], [1.226616954679046, 41.655346800874916], [1.226619424979641, 41.65525677200458], [1.2267394685277406, 41.65525862458526], [1.2267444087611918, 41.65507856682834], [1.2268644519865244, 41.65508041927206], [1.2268669219193826, 41.65499039038549], [1.227107008069765, 41.65499409488539], [1.227104538470914, 41.65508412378361], [1.2272245817299696, 41.655085975851435], [1.2272270511618169, 41.65499594694738], [1.227347094265108, 41.65499779888408], [1.2273446250002644, 41.655087827793956], [1.2274646682817982, 41.65508967961117], [1.2274794827002689, 41.65454950609399], [1.2277195672930246, 41.65455320928268], [1.2277220359894387, 41.65446318034615], [1.2279621202931406, 41.654466883022], [1.2279645886443213, 41.65437685407229], [1.2282046726589633, 41.65438055623531], [1.2282022046417798, 41.65447058519666], [1.2283222468329493, 41.65447243609604], [1.2283247146831338, 41.65438240712886], [1.2284447567185366, 41.654384257897135], [1.2284422890353517, 41.65447428687011], [1.2288024157099429, 41.65447983844056], [1.228799948516526, 41.65456986742946], [1.2290400333564013, 41.654573567861554], [1.2290499007267028, 41.65421345185022], [1.2292899842754963, 41.65421715173459], [1.2292949172252945, 41.654037093696466], [1.2295350001510046, 41.654040793056396], [1.229532534015711, 41.65413082208785], [1.2296525756624002, 41.654132671585685], [1.2296550416306968, 41.654042642548404], [1.2301352076616936, 41.6540500392635], [1.2301426034953002, 41.65377995207271], [1.2300225624717038, 41.65377810309932], [1.2300250278941256, 41.65368807403848], [1.2297849462145847, 41.65368437572742], [1.2297923434164761, 41.65341428857054], [1.2295522627837783, 41.65341058979318], [1.229554728829278, 41.65332056074945], [1.2293146485754571, 41.65331686148254], [1.22930971580527, 41.65349691954522], [1.2294297562605498, 41.65349876925295], [1.2294272900256098, 41.653588798287814], [1.2293072494033381, 41.65358694857427], [1.2293047829901809, 41.65367697760177], [1.2284644977796906, 41.65366402605799], [1.2284620301863551, 41.65375405504325], [1.228341989319924, 41.65375220431571], [1.228339521548364, 41.653842233293624], [1.2280994395152112, 41.65383853145101], [1.228101907620758, 41.65374850248474], [1.227861825966525, 41.65374480015258], [1.2278642943948246, 41.653654771196415], [1.2281043757150718, 41.653658473516934], [1.2281142479799958, 41.65329835763034], [1.2283543280092486, 41.65330205940313], [1.2283641987585412, 41.65294194344544], [1.2286042774968151, 41.652945644670524], [1.228609212136131, 41.65276558665921], [1.2287292511881414, 41.65276743707218], [1.2287341854485698, 41.65258737904308], [1.2288542241778402, 41.652589229319126], [1.2288690256877501, 41.65204905516013], [1.228388874845594, 41.65204165344379], [1.2283864072874278, 41.652131682450865], [1.227906255957046, 41.65212427870664], [1.2279037877197287, 41.65221430768891], [1.2277837497482365, 41.65221245643381], [1.2277812813327056, 41.65230248540872], [1.2276612432054668, 41.6523006340225], [1.2276587746117202, 41.65239066299006], [1.2275387363287358, 41.652388811472754], [1.2275362675567718, 41.65247884043295], [1.227416229118042, 41.65247698878452], [1.2274137601678587, 41.65256701773736], [1.227053644418146, 41.65256146202289], [1.2270561138692764, 41.6524714330875], [1.226816037092962, 41.652467728663034], [1.2268135673078668, 41.65255775758676], [1.226573490242551, 41.6525540526495], [1.2265710201122484, 41.65264408156006], [1.2264509814294708, 41.65264222889767], [1.2264386297743974, 41.65309237339832], [1.2263185902679374, 41.65309052058152], [1.2263210607884254, 41.65300049169028], [1.2262010214601962, 41.652998638754006], [1.2261911386428272, 41.65335875428646], [1.2265512586650997, 41.65336431278928], [1.2265537288853425, 41.653274283891], [1.226793808622429, 41.65327798892144], [1.2268012182137766, 41.65300790218245], [1.2270412969939024, 41.65301160667678], [1.22704376650123, 41.65292157774907], [1.2271638057411667, 41.65292342980248], [1.2271687443881334, 41.65274337193081], [1.227288783305338, 41.652745223847276], [1.2272813758189862, 41.65301531066994], [1.227401415248386, 41.65301716247859], [1.2273964772019363, 41.653197220364326], [1.2272764374385612, 41.65319536854405], [1.227273968231491, 41.653285397478804], [1.2273940081618546, 41.653287249304896], [1.2273866009741852, 41.653557336117395], [1.227146520122756, 41.65355363230497], [1.2271415812734867, 41.65373369014901], [1.2267814590786885, 41.65372813345572], [1.2267789891362157, 41.65381816235798], [1.2266589482601054, 41.653816309870464], [1.2266564781393976, 41.65390633876535], [1.2265364371075365, 41.65390448614673], [1.2265339668085913, 41.65399451503428], [1.2264139256209794, 41.65399266228452], [1.2264089846553685, 41.65417272004334], [1.2262889431450101, 41.65417086715665], [1.226286472478342, 41.65426089602794], [1.2261664308122318, 41.654259043010114], [1.226163959967321, 41.654349071874044], [1.2260439181454597, 41.65434721872511], [1.2260513311474424, 41.654077132146206], [1.2259312898378165, 41.65407527888945], [1.225933760982979, 41.65398525003257], [1.2258137198515953, 41.653983396656336], [1.2258112485394381, 41.654073425507384], [1.225691207252307, 41.65407157200004], [1.2256887357619064, 41.65416160084373], [1.2255686943190283, 41.654159747205256], [1.2255612792793416, 41.654429833709635], [1.2254412373467236, 41.65442797992838], [1.2254387654773302, 41.65451800875428], [1.2253187233889637, 41.65451615484189], [1.225316251341321, 41.65460618366044], [1.2249561246427354, 41.65460062115402], [1.2249536520828421, 41.65469064995352], [1.2242333979875437, 41.65467952152263], [1.2242284508299892, 41.654859579047105], [1.224468536151399, 41.65486328904859], [1.2244660628897377, 41.65495331782019], [1.2245861057343304, 41.65495517263881], [1.2245836326284143, 41.6550452014147], [1.2244635896168192, 41.65504334659024], [1.2244586430372115, 41.65522340412575], [1.2242185563797796, 41.65521969407762], [1.2242136090871236, 41.65539975158367], [1.2239735218067065, 41.65539604101101], [1.2239636257502322, 41.65575615595803], [1.2240836700528395, 41.65575801133034], [1.2240787222910585, 41.65593806880631], [1.2241987669389445, 41.655939924064974], [1.2241913457128584, 41.6562100102849], [1.2244314360444757, 41.6562137204613], [1.224428962613954, 41.65630374920988], [1.224549007963663, 41.65630560411596], [1.2245514812271714, 41.65621557536155], [1.2247915716263327, 41.656219284786125], [1.2247890986968506, 41.65630931355219], [1.2246690533246292, 41.65630745889673], [1.2246665802168775, 41.65639748765541], [1.2249066713066048, 41.656401196852684], [1.2249091440803275, 41.65631116808235], [1.22502918947506, 41.6563130224872], [1.225026716868351, 41.656403051263375], [1.2256269448458776, 41.65641232143715], [1.2256294166175157, 41.656322292631835], [1.2253893257267774, 41.6563185849499], [1.225394269904356, 41.65613852735796], [1.226114540707406, 41.65614964883019], [1.2261194828358366, 41.6559695911622], [1.2267197071442244, 41.655978855551545], [1.2267147666859153, 41.65615891327777], [1.2269548571560263, 41.65616261817967], [1.226952387244034, 41.65625264705211], [1.2270724326629667, 41.65625449932092], [1.2270699629067463, 41.65634452819768], [1.2273100541123618, 41.65634823237101], [1.2272977068328124, 41.656798376789894], [1.227777892719249, 41.6568057837493], [1.2277803615295653, 41.6567157548453], [1.2281405005613266, 41.65672130873164], [1.2281429688593524, 41.65663127980866], [1.2282630150587244, 41.65663313084767], [1.2282654831784987, 41.65654310191733], [1.228745667420248, 41.656550504797025], [1.2287481348607219, 41.65646047584188], [1.2288681807822213, 41.65646232624272], [1.2288657135087637, 41.656552355203665], [1.2289857596085092, 41.65655420548501], [1.22898822671495, 41.65646417651824]], [[1.2257964204302831, 41.65461359858147], [1.2257988918099294, 41.65452356973963], [1.2260389760879045, 41.6545272764367], [1.2260365050422568, 41.654617305290195], [1.2257964204302831, 41.65461359858147]]]}, "properties": {"area_ha": 10.2, "dnbr_threshold_core": 0.35, "dnbr_threshold_grow": 0.22, "dnbr_mean": 0.6321, "dnbr_max": 0.9533, "severity": "alta", "severity_method": "dnbr_mean", "forest_mask": "esa_worldcover_2021_10_20", "part": 142, "fire_id": "272118_142", "burn_year": 2025, "source": "sentinel", "aoi_source": "effis", "dnbr_threshold": 0.35, "buffer_m": 1200.0, "post_windows": 2, "post_window_dates": [{"start": "2025-06-28", "end": "2025-07-21"}, {"start": "2025-07-21", "end": "2025-08-20"}], "pre_window": {"start": "2025-04-07", "end": "2025-06-14"}, "fire_date": "2025-06-21", "aoi_id": "272118", "seed_id": "272118"}}, {"type": "Feature", "geometry": {"type": "Polygon", "coordinates": [[[1.2290490630136073, 41.658626721586955], [1.2290441285845397, 41.65880677945693], [1.229284229191512, 41.658810479683815], [1.2292792953856737, 41.658990537570915], [1.229519396705708, 41.65899423731979], [1.229516930120023, 41.659084266272664], [1.2296369809639192, 41.65908611596493], [1.2296221822162872, 41.659626289684844], [1.2298622859422512, 41.65962998876318], [1.2298573536047392, 41.659810046680796], [1.230217510280136, 41.659815594393265], [1.2302150445956788, 41.6599056233672], [1.2303350970103033, 41.65990747235985], [1.2303301659418135, 41.66008753031477], [1.2304502187017536, 41.660089379193714], [1.2304452879224719, 41.660269437154106], [1.2306853941442097, 41.66027313455927], [1.2306829290718353, 41.660363163548794], [1.230802982366584, 41.6603650120692], [1.230798052522277, 41.660545070055235], [1.2309181061623466, 41.660546918461954], [1.2309156413904156, 41.66063694745847], [1.2316359644687145, 41.66064803530168], [1.2316384282383328, 41.6605580062703], [1.2311582134761418, 41.66055061489938], [1.2311606779027513, 41.660460585889695], [1.2310406244072964, 41.66045873773945], [1.231048018120972, 41.66018865071862], [1.2314081771375394, 41.66019419474109], [1.2314131052216137, 41.66001413668468], [1.2310529472073335, 41.66000859269706], [1.2310578762488253, 41.659828534669366], [1.2308177716302435, 41.659824838074236], [1.230820236468253, 41.65973480906971], [1.2307001843428356, 41.65973296058996], [1.2307075792906823, 41.659462873584594], [1.230467476075767, 41.65945917628401], [1.2304773371854816, 41.659099060301855], [1.2303572862630188, 41.659097211486824], [1.2303523553965232, 41.65927726946936], [1.2301122529171027, 41.659273571440096], [1.230114718690042, 41.659183542461214], [1.2298746165895948, 41.65917984394229], [1.229877082685389, 41.659089814973505], [1.230117184451758, 41.659093513480805], [1.23012211594152, 41.65891345551539], [1.229761964311033, 41.65890790760134], [1.229764430540191, 41.658817878633776], [1.2296443801861814, 41.65881602908426], [1.2296468465711499, 41.65872600012097], [1.2295267963954026, 41.65872415045196], [1.2295292629361814, 41.658634121492945], [1.2290490630136073, 41.658626721586955]], [[1.2301097871329407, 41.65936360041743], [1.230229838534081, 41.65936544950053], [1.230227372905737, 41.659455478482144], [1.2299872697805974, 41.65945178017898], [1.2299922016942277, 41.65927172223747], [1.2301122529171027, 41.659273571440096], [1.2301097871329407, 41.65936360041743]], [[1.2303474244851411, 41.659457327445736], [1.2303449590126174, 41.65954735643163], [1.2302249072661708, 41.659545507462234], [1.230227372905737, 41.659455478482144], [1.2303474244851411, 41.659457327445736]]]}, "properties": {"area_ha": 1.25, "dnbr_threshold_core": 0.35, "dnbr_threshold_grow": 0.22, "dnbr_mean": 0.5001, "dnbr_max": 0.7801, "severity": "alta", "severity_method": "dnbr_mean", "forest_mask": "esa_worldcover_2021_10_20", "part": 150, "fire_id": "272118_150", "burn_year": 2025, "source": "sentinel", "aoi_source": "effis", "dnbr_threshold": 0.35, "buffer_m": 1200.0, "post_windows": 2, "post_window_dates": [{"start": "2025-06-28", "end": "2025-07-21"}, {"start": "2025-07-21", "end": "2025-08-20"}], "pre_window": {"start": "2025-04-07", "end": "2025-06-14"}, "fire_date": "2025-06-21", "aoi_id": "272118", "seed_id": "272118"}}, {"type": "Feature", "geometry": {"type": "Polygon", "coordinates": [[[1.2301583307555326, 41.661976289344345], [1.2301607966981307, 41.66188626040569], [1.2306410211247458, 41.661893656135746], [1.2306385558504003, 41.661983685097645], [1.2309987247893757, 41.66198923059663], [1.2310011895625315, 41.66189920161731], [1.2311212457308989, 41.66190104986049], [1.2311187811248068, 41.661991078845624], [1.2312388374714553, 41.66199292696929], [1.231233908559746, 41.66217298494657], [1.2313539652517413, 41.662174832956524], [1.2313515009461267, 41.662264861948664], [1.2314715578164055, 41.66226670983908], [1.2314419872789466, 41.66334705769487], [1.2316821050628537, 41.663350753239094], [1.2316993524003046, 41.66272055026876], [1.2319394678900506, 41.66272424523033], [1.2319468584354627, 41.66245415818519], [1.232066915695948, 41.66245600546056], [1.232074305639241, 41.66218591838419], [1.231954248879956, 41.66218407112624], [1.2319616392235333, 41.66191398405349], [1.2317215267409913, 41.661910289196435], [1.2317239905005508, 41.66182026018074], [1.2318440465691518, 41.66182210766612], [1.2318465101504352, 41.66173207864307], [1.2316063983585714, 41.66172838355858], [1.2316088622627641, 41.661638354545616], [1.2313687508498818, 41.661634658971415], [1.231371215076981, 41.66154462996853], [1.2312511595544253, 41.66154278199924], [1.2312486951602657, 41.66163281099632], [1.230888528158722, 41.66162726631904], [1.230890993054063, 41.66153723733939], [1.2305308266546753, 41.66153169155156], [1.2305332920399756, 41.66144166258779], [1.2295728501385554, 41.66142686835221], [1.2295679166837814, 41.66160692618519], [1.2292077501536294, 41.66160137624401], [1.2292028156515795, 41.66178143403595], [1.229082759829867, 41.66177958379326], [1.2290704225428972, 41.66222972821721], [1.2291904791999262, 41.66223157848897], [1.2291880118759042, 41.66232160737497], [1.2293080687112294, 41.6623234575272], [1.2293031343636274, 41.66250351530624], [1.2294231915443161, 41.66250536534478], [1.2294207245207383, 41.66259539423781], [1.2295407818797242, 41.662597244156835], [1.2295358481330192, 41.6627773019499], [1.2296559058373722, 41.66277915175521], [1.2296509723798938, 41.66295920955379], [1.2298910884905652, 41.662962908811664], [1.2298565577088207, 41.66422331339253], [1.2302167389762595, 41.664228861583446], [1.2302463309091027, 41.663148514609], [1.2301262724803317, 41.66314666540712], [1.230131204646142, 41.66296660756819], [1.2300111465627408, 41.66296475825259], [1.2300136127958798, 41.662874729336636], [1.2297734969968979, 41.66287103034106], [1.2297759635529524, 41.66278100143519], [1.22989602127976, 41.662782850989835], [1.2299182182754416, 41.661972590715685], [1.2301583307555326, 41.661976289344345]]]}, "properties": {"area_ha": 2.48, "dnbr_threshold_core": 0.35, "dnbr_threshold_grow": 0.22, "dnbr_mean": 0.5398, "dnbr_max": 0.917, "severity": "alta", "severity_method": "dnbr_mean", "forest_mask": "esa_worldcover_2021_10_20", "part": 156, "fire_id": "272118_156", "burn_year": 2025, "source": "sentinel", "aoi_source": "effis", "dnbr_threshold": 0.35, "buffer_m": 1200.0, "post_windows": 2, "post_window_dates": [{"start": "2025-06-28", "end": "2025-07-21"}, {"start": "2025-07-21", "end": "2025-08-20"}], "pre_window": {"start": "2025-04-07", "end": "2025-06-14"}, "fire_date": "2025-06-21", "aoi_id": "272118", "seed_id": "272118"}}, {"type": "Feature", "geometry": {"type": "Polygon", "coordinates": [[[1.2381884068357984, 41.64057365227748], [1.2380683898030067, 41.640571812179374], [1.2380659367100326, 41.64066184183678], [1.237945919521519, 41.64066000160766], [1.2379434662504942, 41.64075003125776], [1.237583414251283, 41.640744509801586], [1.237578506674414, 41.640924569062456], [1.2374584890299014, 41.640922728315005], [1.2374609429908079, 41.64083269869112], [1.2368608557702192, 41.640823493104186], [1.2368633105543925, 41.64073346350771], [1.2367432933106735, 41.64073162202039], [1.236745748250562, 41.64064159242815], [1.236625731184901, 41.64063975082138], [1.2366306413649297, 41.640459691643905], [1.236510624644212, 41.640457849923465], [1.2365130798843504, 41.64036782033823], [1.2363930633416895, 41.64036597849834], [1.236402884858036, 41.64000586016517], [1.2365229007331695, 41.640007701981894], [1.2365302662524635, 41.639737613198534], [1.2366502816381337, 41.639739454872654], [1.2366576465562376, 41.639469366058144], [1.2367776614524488, 41.639471207589665], [1.2367801162359306, 41.63938117797597], [1.2366601015065946, 41.63937933645024], [1.2366625564457792, 41.6392893068408], [1.23678257100824, 41.63929114836075], [1.2367850257693789, 41.63920111874398], [1.2369050401761377, 41.63920296013289], [1.2369074947592313, 41.639112930508816], [1.2373875518304713, 41.639120294789], [1.2373900057349043, 41.639030265140235], [1.2376300340037871, 41.63903394651735], [1.2376398481748785, 41.63867382786067], [1.238119902176692, 41.638681189019536], [1.2381223550240739, 41.6385911593284], [1.2382423683855666, 41.638592999299256], [1.2382521789959997, 41.638232880496204], [1.2386122171450358, 41.638238399587976], [1.238609765009769, 41.63832842930839], [1.2387297779153004, 41.63833026876097], [1.2387322298837007, 41.63824023903477], [1.2389722553945057, 41.63824391755267], [1.2389771586303682, 41.63806385807257], [1.2388571462031177, 41.638062018887794], [1.2388595979711783, 41.637971989151225], [1.23873958572195, 41.637970149847014], [1.2387493933500653, 41.63761003090851], [1.2386293817794447, 41.63760819150219], [1.2386391898964666, 41.63724807256228], [1.2385191790044416, 41.637246233053865], [1.2385216311726577, 41.63715620332084], [1.2384016204586497, 41.63715436369298], [1.2384065250953158, 41.63697430423389], [1.238646545867067, 41.63697798334126], [1.2386514497916743, 41.63679792385291], [1.2382914196519148, 41.63679240503872], [1.2382889671946273, 41.636882434766314], [1.2379289366547517, 41.63687691480775], [1.2379313896126014, 41.636786885097514], [1.2376913696422056, 41.63678320451059], [1.2376938229225984, 41.636693174810375], [1.2374538033305664, 41.636689493734124], [1.2374587105252663, 41.63650943435225], [1.2376987294498905, 41.636513115405364], [1.2377011826967903, 41.636423085700564], [1.2379412013323698, 41.636426766241215], [1.2379485600049878, 41.6361566770829], [1.2380685688389734, 41.63615851714804], [1.2380710215406732, 41.63606848741975], [1.238311038908433, 41.636072167162794], [1.2383134912652765, 41.635982137421394], [1.2385535083439831, 41.635985816651996], [1.2385584123568045, 41.63580575714148], [1.2384384041455645, 41.63580391760036], [1.2384408563020823, 41.63571388784858], [1.2382008402467706, 41.635710208402244], [1.238198387756562, 41.63580023814246], [1.2377183551124935, 41.63579287772401], [1.237715901943742, 41.63588290743954], [1.2374758853549968, 41.63587922646743], [1.2374709783166153, 41.63605928587077], [1.2371109525161614, 41.636053763438724], [1.2371084984796796, 41.63614379312074], [1.2368684810015198, 41.636140110861696], [1.2368660266201743, 41.6362301405306], [1.2367460177309997, 41.63622829920746], [1.236743563171636, 41.63631832886904], [1.2366235541267823, 41.63631648741489], [1.2366186446408443, 41.63649654672186], [1.2364986352734622, 41.63649470513091], [1.2364912704602158, 41.63676479406251], [1.2366112803281528, 41.63676663567082], [1.2366088255349132, 41.63685666531741], [1.2369688557063105, 41.636862189408376], [1.2369565840753771, 41.637312337705126], [1.2370765949891278, 41.63731417884728], [1.2370741407962913, 41.63740420850781], [1.236954129715683, 41.637402367359876], [1.2369516753448184, 41.637492397013105], [1.2370716865922857, 41.63749423816683], [1.2370643239132582, 41.63776432713464], [1.237304347442861, 41.637768009101116], [1.2373018935279045, 41.637858038765565], [1.2370618696645783, 41.63785435678751], [1.2370594154047287, 41.637944386438846], [1.2368193912523524, 41.63794070394831], [1.236816936647608, 41.63803073358654], [1.236696924421312, 41.638028892147645], [1.2366920148445817, 41.63820895140792], [1.236812027404606, 41.638210792858395], [1.2368022087845538, 41.63857091138372], [1.2365621823407422, 41.63856722831122], [1.2365499071456298, 41.63901737637546], [1.2363098790778086, 41.63901369274415], [1.2363074236715241, 41.63910372234081], [1.2360673953146561, 41.63910003819698], [1.2360649395634506, 41.63919006778054], [1.2359449252349075, 41.63918822551498], [1.2359400133652216, 41.639368284665906], [1.236060028027513, 41.63937012694306], [1.23605757224278, 41.63946015652201], [1.2358175425956244, 41.63945647183092], [1.2358077180099158, 41.639816590085076], [1.235687702535597, 41.639814747528504], [1.2356852461943466, 41.63990477708242], [1.2358052618355448, 41.63990661964477], [1.235797893245363, 41.64017670831469], [1.235557860972864, 41.64017302302998], [1.2355480346943986, 41.64053314118873], [1.23566805149259, 41.64053498391688], [1.235660682167009, 41.64080507253721], [1.2355406648681613, 41.64080322979169], [1.235538208237056, 41.640893259322944], [1.2354181907825008, 41.64089141644638], [1.2354157339733278, 41.64098144597031], [1.2366159106907662, 41.64099986915792], [1.236611000376659, 41.64117992831701], [1.2363709642762033, 41.64117624465826], [1.2363660532498395, 41.64135630378804], [1.2366060900178588, 41.64135998746995], [1.2366036348216982, 41.64145001704411], [1.2373237463952482, 41.641461065118705], [1.2373262005900556, 41.641371035509806], [1.2375662375368144, 41.64137471718781], [1.237568691386669, 41.6412846875658], [1.237688709709908, 41.641286528211154], [1.237691163381704, 41.64119649858183], [1.2380512179177445, 41.641202019749066], [1.2380536710777028, 41.641111990100846], [1.2382937071571054, 41.64111567024121], [1.2383059711205522, 41.640665521919324], [1.2381859539097104, 41.64066368194067], [1.2381884068357984, 41.64057365227748]], [[1.2374292666871027, 41.63758979055145], [1.237439081478483, 41.63722967184292], [1.2381591463953265, 41.63724071377725], [1.238149335608558, 41.63760083262463], [1.2374292666871027, 41.63758979055145]]]}, "properties": {"area_ha": 6.52, "dnbr_threshold_core": 0.35, "dnbr_threshold_grow": 0.22, "dnbr_mean": 0.6044, "dnbr_max": 0.8866, "severity": "alta", "severity_method": "dnbr_mean", "forest_mask": "esa_worldcover_2021_10_20", "part": 192, "fire_id": "272118_192", "burn_year": 2025, "source": "sentinel", "aoi_source": "effis", "dnbr_threshold": 0.35, "buffer_m": 1200.0, "post_windows": 2, "post_window_dates": [{"start": "2025-06-28", "end": "2025-07-21"}, {"start": "2025-07-21", "end": "2025-08-20"}], "pre_window": {"start": "2025-04-07", "end": "2025-06-14"}, "fire_date": "2025-06-21", "aoi_id": "272118", "seed_id": "272118"}}, {"type": "Feature", "geometry": {"type": "Polygon", "coordinates": [[[1.2315794674333456, 41.64515563194223], [1.2314594423255771, 41.64515378477928], [1.2314545169394444, 41.64533384330716], [1.2313344915090387, 41.64533199600734], [1.231329565744226, 41.645512054517454], [1.2312095399911809, 41.64551020708076], [1.2312046138476815, 41.64569026557314], [1.231084587771995, 41.645688417999565], [1.231082124516504, 41.645778447237646], [1.2309620982851015, 41.64577659953301], [1.230954707950581, 41.64604668722061], [1.2307146545198424, 41.64604299140069], [1.2307047992480742, 41.64640310824956], [1.2305847718818017, 41.64640126012846], [1.2305699876361438, 41.64694143532087], [1.23044995927948, 41.646939587039654], [1.2304401022236684, 41.64729970378067], [1.2305601312480845, 41.647301552085125], [1.2305527388392867, 41.64757163964221], [1.2304327093140481, 41.64756979132032], [1.2304302449884106, 41.64765982049713], [1.2305502746805914, 41.64766166882483], [1.23053795371889, 41.64811181471492], [1.2306579842570091, 41.64811366294639], [1.2306555201979705, 41.64820369212563], [1.230895581641745, 41.648207388224364], [1.2309005090808214, 41.64802732984113], [1.2310205394856348, 41.64802917769099], [1.2310230030214082, 41.64793914849126], [1.231143033270488, 41.64794099621002], [1.2311454966281046, 41.64785096700295], [1.2310254665459694, 41.64784911929], [1.231027930059319, 41.64775909008721], [1.2311479599745097, 41.64776093779436], [1.2311676663421571, 41.647040704070335], [1.2312876949330336, 41.647042551605765], [1.2313073992477215, 41.64632231773709], [1.231547453792147, 41.646326012339216], [1.231552379091, 41.64614595383347], [1.2317924330125327, 41.646149647911315], [1.2317948953112878, 41.64605961864454], [1.2316748685118477, 41.64605777167405], [1.2316773309663256, 41.64596774241156], [1.2315573043450214, 41.6459658953216], [1.2315646921419965, 41.64569580754228], [1.2318047443942453, 41.64569950156207], [1.231809668868488, 41.645519443011636], [1.2316896430706121, 41.645517596075976], [1.2316921054578487, 41.64542756680427], [1.2318121310888004, 41.64542941373412], [1.2318219798579932, 41.645069296608696], [1.2319420048324594, 41.64507114339006], [1.2319444668298223, 41.64498111409907], [1.2320644916485726, 41.64498296074937], [1.2320718770726757, 41.64471287284975], [1.2323119257422697, 41.644716565739756], [1.2323143871940605, 41.644626536425214], [1.2324344113787427, 41.644628382676515], [1.2324319500938703, 41.64471841199688], [1.2327920232158789, 41.644723950016676], [1.2328067877525986, 41.64418377396713], [1.2330468345536039, 41.644187465284425], [1.233056676018803, 41.64382734784097], [1.2332967215292958, 41.64383103861082], [1.233304101509164, 41.64356095047733], [1.2335441460629772, 41.64356464071138], [1.233553984544138, 41.64320452313216], [1.233674006170205, 41.643206368038115], [1.2336715467336121, 41.64329639744101], [1.2339115903531386, 41.64330008688876], [1.2339140494559182, 41.643210057474256], [1.234034071115562, 41.64321190200446], [1.234031612179689, 41.64330193142475], [1.2348717652788415, 41.643314839669664], [1.2348668497102369, 41.643494898586816], [1.235226916493406, 41.643500428847766], [1.2352342883273622, 41.64323034041759], [1.2353543101100621, 41.64323218357003], [1.2353567671987737, 41.643142154084444], [1.2352367455829814, 41.6431403109378], [1.2352392028274173, 41.64305028145648], [1.2343990529983737, 41.64303737596356], [1.2344015113999611, 41.64294734652126], [1.2342814902074632, 41.642945502384215], [1.2342864073108804, 41.64276544350662], [1.234166386463379, 41.64276359925591], [1.2341688451652064, 41.642673569820616], [1.2340488244957968, 41.642671725450455], [1.234056201034844, 41.642401637152744], [1.2339361808773264, 41.64239979267473], [1.2339386398681942, 41.64230976324489], [1.2334585600176375, 41.64230238410355], [1.2334561003591737, 41.64239241351019], [1.233216060167258, 41.64238872317643], [1.233213600163801, 41.64247875256995], [1.2329735596828677, 41.64247506172362], [1.2329637182218736, 41.642835179235895], [1.2328436973305972, 41.642833333601644], [1.2328412367704524, 41.64292336297007], [1.2327212157234706, 41.64292151720478], [1.232716294235778, 41.643101575925456], [1.2324762515077956, 41.64309788399589], [1.232471329307685, 41.6432779426872], [1.232351307626683, 41.64327609652294], [1.2323488463429195, 41.6433661258605], [1.232228824506212, 41.64336427956519], [1.2322239015712662, 41.64354433822409], [1.2321038794119457, 41.64354249179191], [1.2320989560983715, 41.64372255043307], [1.2319789336164357, 41.64372070386402], [1.2319543147072285, 41.644620996919734], [1.2317142664386955, 41.6446173032898], [1.2317044172259375, 41.644977420422684], [1.2315843924408048, 41.64497557339659], [1.2315794674333456, 41.64515563194223]], [[1.23271137270329, 41.64328163463999], [1.232713833475133, 41.643191605283484], [1.2329538765817227, 41.64319529672365], [1.232951416143691, 41.64328532609175], [1.2330714378806886, 41.643287171629744], [1.2330665173048476, 41.64346723037297], [1.2329464952340359, 41.64346538482336], [1.2329440347624117, 41.64355541418685], [1.2327039903205639, 41.64355172270027], [1.232706451126005, 41.64346169334838], [1.232466407062771, 41.643458001372395], [1.232471329307685, 41.6432779426872], [1.23271137270329, 41.64328163463999]], [[1.2323340784051087, 41.64390630185363], [1.2323365397560813, 41.643816272525264], [1.232456562438535, 41.643818118724354], [1.2324541012544736, 41.64390814805852], [1.2323340784051087, 41.64390630185363]]]}, "properties": {"area_ha": 4.65, "dnbr_threshold_core": 0.35, "dnbr_threshold_grow": 0.22, "dnbr_mean": 0.6288, "dnbr_max": 0.9222, "severity": "alta", "severity_method": "dnbr_mean", "forest_mask": "esa_worldcover_2021_10_20", "part": 203, "fire_id": "272118_203", "burn_year": 2025, "source": "sentinel", "aoi_source": "effis", "dnbr_threshold": 0.35, "buffer_m": 1200.0, "post_windows": 2, "post_window_dates": [{"start": "2025-06-28", "end": "2025-07-21"}, {"start": "2025-07-21", "end": "2025-08-20"}], "pre_window": {"start": "2025-04-07", "end": "2025-06-14"}, "fire_date": "2025-06-21", "aoi_id": "272118", "seed_id": "272118"}}, {"type": "Feature", "geometry": {"type": "Polygon", "coordinates": [[[1.2361916828503352, 41.64774839892114], [1.2363117130799735, 41.64775024123583], [1.2363141692253705, 41.647660211774806], [1.2364341992992427, 41.647662053958435], [1.236436655266517, 41.64757202449006], [1.2370368049688012, 41.64758123350019], [1.2370392600901787, 41.64749120400136], [1.2371592898972161, 41.64749304542178], [1.2371617448404768, 41.64740301591563], [1.2370417152003828, 41.64740117450099], [1.2370441702994135, 41.64731114499909], [1.2369241408374354, 41.64730930346496], [1.2369265960922335, 41.64721927396732], [1.236566508274174, 41.64721374863071], [1.2365640525185508, 41.647303778110995], [1.236444023101275, 41.64730193607579], [1.2364464790238399, 41.64721190660131], [1.236326449784682, 41.647210064446625], [1.2363239936951762, 41.64730009391533], [1.2362039643002558, 41.64729825162959], [1.2362064205567032, 41.64720822216668], [1.235966362134282, 41.647204537230984], [1.2359688187134312, 41.64711450777812], [1.2353686736877498, 41.647105293275615], [1.2353735884818986, 41.64692523442322], [1.2352535598441892, 41.6469233911585], [1.235256017391425, 41.64683336173581], [1.2351359889318385, 41.64683151835162], [1.2351310734923056, 41.6470115771839], [1.234891015938937, 41.64700789001653], [1.234881183590121, 41.647368007616336], [1.235001213028973, 41.647369851285845], [1.2349962971213262, 41.64754991008812], [1.2351163269052503, 41.64755175364394], [1.2351114112867452, 41.64773181245169], [1.2352314414157435, 41.64773365589382], [1.235228983756657, 41.64782368530119], [1.2353490140637862, 41.64782552862385], [1.2353465565604609, 41.64791555803548], [1.2354665870457209, 41.64791740123866], [1.2354592149694799, 41.648187489481714], [1.2356992769752368, 41.64819117554701], [1.2357017340112706, 41.64810114612261], [1.2360618266029266, 41.64810667426364], [1.2360667396397615, 41.64792661537548], [1.2361867701921128, 41.64792845782702], [1.236184313846233, 41.64801848727766], [1.2363043445767108, 41.648020329609714], [1.2363068007556433, 41.647930300153305], [1.2365468619162403, 41.647933984430026], [1.2365493177501015, 41.64784395496048], [1.2361892265268135, 41.64783842837485], [1.2361916828503352, 41.64774839892114]]]}, "properties": {"area_ha": 1.36, "dnbr_threshold_core": 0.35, "dnbr_threshold_grow": 0.22, "dnbr_mean": 0.5518, "dnbr_max": 0.801, "severity": "alta", "severity_method": "dnbr_mean", "forest_mask": "esa_worldcover_2021_10_20", "part": 206, "fire_id": "272118_206", "burn_year": 2025, "source": "sentinel", "aoi_source": "effis", "dnbr_threshold": 0.35, "buffer_m": 1200.0, "post_windows": 2, "post_window_dates": [{"start": "2025-06-28", "end": "2025-07-21"}, {"start": "2025-07-21", "end": "2025-08-20"}], "pre_window": {"start": "2025-04-07", "end": "2025-06-14"}, "fire_date": "2025-06-21", "aoi_id": "272118", "seed_id": "272118"}}, {"type": "Feature", "geometry": {"type": "Polygon", "coordinates": [[[1.2325341676957038, 41.649763744276434], [1.2319339991945761, 41.649754511365764], [1.231936461607707, 41.64966448214875], [1.2314563276763697, 41.64965709358841], [1.2314587907461318, 41.64956706439308], [1.2312187241816392, 41.649563369372856], [1.2312211875741086, 41.6494733401876], [1.2308610883123343, 41.649467796735095], [1.2308635521944657, 41.64937776756572], [1.2307435192965914, 41.64937591950347], [1.2307509113765709, 41.64910583200361], [1.2308709437735776, 41.649107680048424], [1.230873407610854, 41.64901765087293], [1.2307533753808022, 41.649015802833915], [1.2307558393738196, 41.64892577366268], [1.2306358073219366, 41.6489239255042], [1.2306382714706923, 41.64883389633726], [1.2305182395969771, 41.6488320480593], [1.2305207039014707, 41.64874201889662], [1.2302806405215916, 41.64873832197654], [1.2302781758831949, 41.648828351127584], [1.2300381122142803, 41.648824653694774], [1.2300356472307605, 41.64891468283267], [1.2299156152461783, 41.64891283392253], [1.2299082197274427, 41.649182921309595], [1.2297881872532177, 41.64918107225675], [1.229785721890911, 41.6492711013769], [1.2299057545320917, 41.64927295043555], [1.2299008241077305, 41.64945300868284], [1.2297807911326364, 41.649451159612575], [1.2297733949110694, 41.64972124695456], [1.2298934283870395, 41.64972309604229], [1.2298835672690382, 41.65008321250006], [1.230003601424074, 41.65008506148574], [1.2300060665534422, 41.6499950323678], [1.230126100552735, 41.649996881222386], [1.2301285655039214, 41.64990685209709], [1.2302485993474712, 41.64990870082059], [1.2302510641204787, 41.649818671687946], [1.230371097808285, 41.64982052028035], [1.2303735624031131, 41.64973049114036], [1.2306136294784549, 41.64973418793772], [1.2306185579666236, 41.64955412962991], [1.2310986909162103, 41.649561521674826], [1.2310962273455697, 41.64965155085273], [1.2312162607779584, 41.64965339855657], [1.231213797363066, 41.649743427738755], [1.2315738982283786, 41.64974897011602], [1.2315714353031575, 41.64983899931409], [1.2319315367702384, 41.64984454058126], [1.231929074334693, 41.64993456979522], [1.232289176403524, 41.64994010995229], [1.232284252500592, 41.65012016841042], [1.232524321270359, 41.65012386124528], [1.232521859636014, 41.650213890483656], [1.2326418942046675, 41.65021573671896], [1.2326443556720483, 41.65012570747477], [1.2331244933908252, 41.650133091139985], [1.2331220325913042, 41.65022312040738], [1.233242067215964, 41.65022496601629], [1.2332445278485205, 41.65013493674309], [1.233484596797508, 41.65013862757345], [1.2334895173611684, 41.64995856899927], [1.233969654057795, 41.649965949110204], [1.2339745732409666, 41.64978589048348], [1.2344547087810003, 41.64979326854354], [1.2344596265837051, 41.649613209864306], [1.2346996937530268, 41.64961689811947], [1.2347046108431283, 41.64943683941091], [1.2349446773893678, 41.64944052714178], [1.2349495937668777, 41.6492604684039], [1.2347095278884723, 41.64925678069623], [1.2347070693713948, 41.64934681005435], [1.2342269370810293, 41.649339433112466], [1.234219559459148, 41.64960952110804], [1.2339794923793612, 41.64960583185063], [1.233977032815761, 41.64969586116783], [1.2337369654468293, 41.64969217139772], [1.2337345055381121, 41.64978220070177], [1.2336144717034783, 41.649780355622994], [1.2336120116166032, 41.64987038491973], [1.2333719436470008, 41.64986669437472], [1.2333694832150037, 41.64995672365833], [1.2330093808437002, 41.64995118688384], [1.2330118417765852, 41.649861157617636], [1.2325317061061725, 41.64985377352094], [1.2325341676957038, 41.649763744276434]], [[1.234339593015831, 41.64961136554881], [1.2343371339531128, 41.649701394883394], [1.2342171002294693, 41.64969955043682], [1.234219559459148, 41.64960952110804], [1.234339593015831, 41.64961136554881]], [[1.2325267828935003, 41.65003383200536], [1.2325292445054379, 41.64994380276392], [1.2326492785732004, 41.64994564898182], [1.232646817128226, 41.65003567822907], [1.2325267828935003, 41.65003383200536]]]}, "properties": {"area_ha": 1.68, "dnbr_threshold_core": 0.35, "dnbr_threshold_grow": 0.22, "dnbr_mean": 0.4308, "dnbr_max": 0.7711, "severity": "moderada", "severity_method": "dnbr_mean", "forest_mask": "esa_worldcover_2021_10_20", "part": 209, "fire_id": "272118_209", "burn_year": 2025, "source": "sentinel", "aoi_source": "effis", "dnbr_threshold": 0.35, "buffer_m": 1200.0, "post_windows": 2, "post_window_dates": [{"start": "2025-06-28", "end": "2025-07-21"}, {"start": "2025-07-21", "end": "2025-08-20"}], "pre_window": {"start": "2025-04-07", "end": "2025-06-14"}, "fire_date": "2025-06-21", "aoi_id": "272118", "seed_id": "272118"}}, {"type": "Feature", "geometry": {"type": "Polygon", "coordinates": [[[1.2322202376836517, 41.65246092780781], [1.2324603151360662, 41.65246462094448], [1.2324553912735454, 41.65264467933991], [1.2328155085381112, 41.65265021814004], [1.232820431398723, 41.652470159709786], [1.2327003926333002, 41.652468313579966], [1.2327028542137861, 41.65237828436834], [1.2325828156265504, 41.652376438119035], [1.2325852773628156, 41.65228640891168], [1.2324652389537663, 41.652284562542896], [1.2324726245962803, 41.65201447492901], [1.2327127004236942, 41.65201816750647], [1.2327151619481622, 41.65192813828718], [1.2329552374864292, 41.65193183035188], [1.2329650821364486, 41.65157171341291], [1.2332051563836972, 41.651575404930036], [1.2332076171842452, 41.65148537567987], [1.2334476911423409, 41.65148906668424], [1.2334427701979507, 41.65166912520627], [1.2335628075277507, 41.651670970532116], [1.233560347205736, 41.65176099979664], [1.234040497304815, 41.65176837987038], [1.234045416601825, 41.65158832129343], [1.233925379394217, 41.65158647647453], [1.2339302989804004, 41.65140641790304], [1.2338102621179408, 41.65140457297044], [1.2338127220612147, 41.651314543688194], [1.2336926853769252, 41.651312698636104], [1.2336951454759781, 41.65122266935811], [1.233455072474938, 41.651218978889695], [1.233457532896741, 41.65112894962177], [1.2333374965799917, 41.65112710420543], [1.2333350359912156, 41.65121713346755], [1.2329749266072438, 41.6512115964494], [1.2329724655063468, 41.6513016256926], [1.2324923191499764, 41.65129424122451], [1.2324849337763746, 41.651564328875196], [1.2323648967143652, 41.65156248242756], [1.232362434733779, 41.65165251163559], [1.2322423975159988, 41.65165066505684], [1.232239935357229, 41.65174069425753], [1.2319998606213332, 41.65173700071259], [1.2319949356022628, 41.651917059086145], [1.2312747096598426, 41.651905975374696], [1.2312697825921857, 41.65208603367243], [1.2315098585294022, 41.652089728767294], [1.2315073953127162, 41.65217975792548], [1.231387357171521, 41.652177910434894], [1.231384893776643, 41.65226793958573], [1.2312648554796775, 41.652266091964044], [1.2312574647268228, 41.652536179389934], [1.2313775035247363, 41.65253802702905], [1.2313725766340722, 41.65271808531693], [1.2312525375021883, 41.6527162376662], [1.2312500738730527, 41.65280626680203], [1.2313701131719224, 41.65280811445856], [1.2313676496985602, 41.65289814359866], [1.2314876891756288, 41.652899991135705], [1.231492615777168, 41.652719932842366], [1.231612654931475, 41.65272178024251], [1.231610191803297, 41.652811809395764], [1.2317302311358005, 41.65281365667643], [1.2317179161616931, 41.653263802448684], [1.2319579965302148, 41.65326749669218], [1.231962921885529, 41.65308743836465], [1.2320829617526237, 41.653089285286846], [1.232087886729128, 41.652909226941574], [1.2322079262734533, 41.65291107372687], [1.2322103885779065, 41.65282104454612], [1.2320903492005681, 41.65281919776663], [1.232092811660801, 41.65272916859018], [1.231972772461656, 41.652727321691195], [1.2319776976824701, 41.65254726334525], [1.2322177754240258, 41.65255095699469], [1.2322202376836517, 41.65246092780781]]]}, "properties": {"area_ha": 1.83, "dnbr_threshold_core": 0.35, "dnbr_threshold_grow": 0.22, "dnbr_mean": 0.4788, "dnbr_max": 0.7543, "severity": "alta", "severity_method": "dnbr_mean", "forest_mask": "esa_worldcover_2021_10_20", "part": 215, "fire_id": "272118_215", "burn_year": 2025, "source": "sentinel", "aoi_source": "effis", "dnbr_threshold": 0.35, "buffer_m": 1200.0, "post_windows": 2, "post_window_dates": [{"start": "2025-06-28", "end": "2025-07-21"}, {"start": "2025-07-21", "end": "2025-08-20"}], "pre_window": {"start": "2025-04-07", "end": "2025-06-14"}, "fire_date": "2025-06-21", "aoi_id": "272118", "seed_id": "272118"}}, {"type": "Feature", "geometry": {"type": "Polygon", "coordinates": [[[1.2350347933384036, 41.654936003636486], [1.2351548368366163, 41.65493784741693], [1.2351572952125187, 41.65484781812494], [1.2350372518813109, 41.654845974350295], [1.2350446274428946, 41.6545758864825], [1.2351646702730907, 41.65457773023976], [1.2351671286042372, 41.654487700941615], [1.2352871712786193, 41.654489544567795], [1.2352994619315167, 41.654039398025155], [1.2354195037820863, 41.65404124149705], [1.2354170458408815, 41.65413127081445], [1.235537087869637, 41.65413311416683], [1.2355395456438434, 41.65404308484365], [1.2356595875167864, 41.65404492806494], [1.2356645026976443, 41.65386486940238], [1.2357845442477786, 41.65386671248679], [1.2357870016544326, 41.653776683147434], [1.235546918899344, 41.6537729968649], [1.2355444611586972, 41.653863026192674], [1.235424419630935, 41.65386118285768], [1.2354268775385788, 41.653771153535686], [1.2349467122073943, 41.65376377896587], [1.234949170771833, 41.65367374966553], [1.2350692119208504, 41.65367559349013], [1.23507412868217, 41.65349553487325], [1.2349540878671412, 41.65349369106024], [1.23495900491769, 41.653313632448814], [1.2343588026803323, 41.65330441156225], [1.2343538839598571, 41.65348447011571], [1.2342338432119782, 41.653482625550915], [1.2342289241127407, 41.65366268408664], [1.2343489651946078, 41.653664528663036], [1.2343440463845843, 41.65384458720422], [1.2344640878116355, 41.653846431666906], [1.2344517914256739, 41.65429657802201], [1.2343317491636314, 41.654294733530335], [1.2343292896858589, 41.654384762790954], [1.2342092472680102, 41.654382918168174], [1.2341895697068037, 41.655103152151554], [1.2344296572257567, 41.65510684136457], [1.2344271978142416, 41.655196870617175], [1.234547241757517, 41.65519871504153], [1.234542323234922, 41.65537877355376], [1.2346623675234072, 41.655380617864395], [1.234652531011941, 41.65574073489361], [1.2347725759796622, 41.65574257910213], [1.2347701169908267, 41.6558326083614], [1.2348901621367525, 41.65583445245041], [1.2348852444595326, 41.65601451097594], [1.2351253354530143, 41.65601819880123], [1.235127793963191, 41.65592816952764], [1.235247839309703, 41.65593001324652], [1.2352502976416755, 41.65583998396559], [1.2353703428323626, 41.65584182755339], [1.2353801753803166, 41.65548171039119], [1.2352601308576776, 41.6554798668266], [1.235262589133706, 41.65538983753801], [1.2351425447892659, 41.65538799385389], [1.2351450032211144, 41.65529796456957], [1.2350249590548728, 41.65529612076594], [1.2350347933384036, 41.654936003636486]]]}, "properties": {"area_ha": 1.97, "dnbr_threshold_core": 0.35, "dnbr_threshold_grow": 0.22, "dnbr_mean": 0.5813, "dnbr_max": 0.8794, "severity": "alta", "severity_method": "dnbr_mean", "forest_mask": "esa_worldcover_2021_10_20", "part": 218, "fire_id": "272118_218", "burn_year": 2025, "source": "sentinel", "aoi_source": "effis", "dnbr_threshold": 0.35, "buffer_m": 1200.0, "post_windows": 2, "post_window_dates": [{"start": "2025-06-28", "end": "2025-07-21"}, {"start": "2025-07-21", "end": "2025-08-20"}], "pre_window": {"start": "2025-04-07", "end": "2025-06-14"}, "fire_date": "2025-06-21", "aoi_id": "272118", "seed_id": "272118"}}, {"type": "Feature", "geometry": {"type": "Polygon", "coordinates": [[[1.2363745883354673, 41.65864932299575], [1.2363770453327696, 41.65855929370292], [1.2364970956460672, 41.65856113621136], [1.2364995524651505, 41.6584711069112], [1.2368597029710258, 41.65847663366725], [1.2368572466530525, 41.658566662984775], [1.2373374481522177, 41.658574030261555], [1.2373399038020443, 41.658484000920865], [1.2374599540377431, 41.65848584242095], [1.2374771421043356, 41.657855636952675], [1.237357093037874, 41.65785379549309], [1.2373644596855786, 41.6575837074296], [1.2372444111313834, 41.65758186586206], [1.237234588243969, 41.65794198325382], [1.237114539032829, 41.6579401415378], [1.2371120831159998, 41.658030170876124], [1.2368719843931921, 41.658026487056574], [1.2368695281311188, 41.65811651638177], [1.2363893301515365, 41.65810914721572], [1.2363868732101488, 41.65819917651623], [1.2357866251521255, 41.65818996221007], [1.2357841673643852, 41.65827999148007], [1.2353039684511893, 41.65827261775626], [1.2353015099841245, 41.65836264700155], [1.2345812109478356, 41.658351582621535], [1.2345787514673714, 41.658441611830526], [1.2344587015001314, 41.658439767322776], [1.2344562418414375, 41.65852979652443], [1.234216141606473, 41.65852610712138], [1.2342136816025109, 41.65861613630991], [1.2339735810782628, 41.65861244639399], [1.2339661999969698, 41.65888253391558], [1.2343263523034769, 41.65888806865367], [1.2343288121739913, 41.658798039463946], [1.2344488627981822, 41.6587998841202], [1.2344513224904627, 41.65870985492314], [1.2350515749441457, 41.65871907629565], [1.2350540337900449, 41.65862904706807], [1.2352941345157906, 41.65863273472826], [1.2352916760039658, 41.65872276396741], [1.235411726550662, 41.65872460761531], [1.2354141848954492, 41.65863457837035], [1.2363745883354673, 41.65864932299575]]]}, "properties": {"area_ha": 1.34, "dnbr_threshold_core": 0.35, "dnbr_threshold_grow": 0.22, "dnbr_mean": 0.5517, "dnbr_max": 0.8511, "severity": "alta", "severity_method": "dnbr_mean", "forest_mask": "esa_worldcover_2021_10_20", "part": 223, "fire_id": "272118_223", "burn_year": 2025, "source": "sentinel", "aoi_source": "effis", "dnbr_threshold": 0.35, "buffer_m": 1200.0, "post_windows": 2, "post_window_dates": [{"start": "2025-06-28", "end": "2025-07-21"}, {"start": "2025-07-21", "end": "2025-08-20"}], "pre_window": {"start": "2025-04-07", "end": "2025-06-14"}, "fire_date": "2025-06-21", "aoi_id": "272118", "seed_id": "272118"}}, {"type": "Feature", "geometry": {"type": "Polygon", "coordinates": [[[1.2406083502008354, 41.63547689074951], [1.2403683347450782, 41.635473215845735], [1.2403707841874791, 41.63538318599536], [1.240130769109995, 41.63537951060226], [1.240128319333908, 41.63546954044108], [1.239408273367985, 41.63545851122189], [1.2394058225796887, 41.63554854102452], [1.2390457992467523, 41.63554302470713], [1.2390359939798958, 41.63590314383291], [1.2392760108587935, 41.63590682154931], [1.2392735598478843, 41.63599685133848], [1.2395135771050927, 41.636000528565546], [1.2395111264167253, 41.636090558364764], [1.239631135228906, 41.636092396796236], [1.2396286846962352, 41.63618242659968], [1.2401087207238655, 41.6361897790965], [1.2401062708474409, 41.63627980892153], [1.2404662984857786, 41.63628532199665], [1.240463849098757, 41.63637535183748], [1.2407038679137512, 41.63637902660632], [1.2407063169670718, 41.63628899675395], [1.240826326224437, 41.63629083394475], [1.2408336728169804, 41.636020744361105], [1.240953681584941, 41.636022581409364], [1.2409561302599856, 41.63593255153931], [1.2408361216588721, 41.63593071449682], [1.2408410193092252, 41.635750654763655], [1.2407210110529494, 41.63574881760749], [1.240725908992416, 41.63556875787975], [1.2406059010809751, 41.635566920609904], [1.2406083502008354, 41.63547689074951]], [[1.2401111705891412, 41.636099749269945], [1.2401136204432683, 41.636009719441844], [1.240233629144353, 41.63601155724144], [1.2402311794570737, 41.636101587075316], [1.2401111705891412, 41.636099749269945]]]}, "properties": {"area_ha": 1.12, "dnbr_threshold_core": 0.35, "dnbr_threshold_grow": 0.22, "dnbr_mean": 0.543, "dnbr_max": 0.7688, "severity": "alta", "severity_method": "dnbr_mean", "forest_mask": "esa_worldcover_2021_10_20", "part": 267, "fire_id": "272118_267", "burn_year": 2025, "source": "sentinel", "aoi_source": "effis", "dnbr_threshold": 0.35, "buffer_m": 1200.0, "post_windows": 2, "post_window_dates": [{"start": "2025-06-28", "end": "2025-07-21"}, {"start": "2025-07-21", "end": "2025-08-20"}], "pre_window": {"start": "2025-04-07", "end": "2025-06-14"}, "fire_date": "2025-06-21", "aoi_id": "272118", "seed_id": "272118"}}, {"type": "Feature", "geometry": {"type": "Polygon", "coordinates": [[[1.238969548032555, 41.64716053331473], [1.2381293431195268, 41.64714765405644], [1.238126889545314, 41.64723768361349], [1.237646772030039, 41.64723032125826], [1.2376443177768914, 41.647320350790636], [1.2375242882590534, 41.64731850988286], [1.237521833827793, 41.64740853940792], [1.2376418635125739, 41.647410380321475], [1.2376345006526022, 41.647680468904795], [1.2377545308493854, 41.64768230971043], [1.237752076707334, 41.64777233924094], [1.2378721070822323, 41.64777417992709], [1.2378696530959585, 41.64786420946183], [1.2377496225541136, 41.64786236876989], [1.2377398058295357, 41.648222486870395], [1.2384599932548896, 41.64823352928181], [1.2384673528099943, 41.6479634406046], [1.2387074143727457, 41.64796712037151], [1.2387123200192018, 41.64778706122257], [1.2389523809588163, 41.64779074046526], [1.238957285892835, 41.647610681287055], [1.2390773160454933, 41.64761252070893], [1.2390797683288146, 41.64752249111175], [1.2391997983256895, 41.64752433040256], [1.2392047025249637, 41.64734427119204], [1.2389646432101513, 41.647340592508264], [1.238969548032555, 41.64716053331473]]]}, "properties": {"area_ha": 1.11, "dnbr_threshold_core": 0.35, "dnbr_threshold_grow": 0.22, "dnbr_mean": 0.5796, "dnbr_max": 0.9011, "severity": "alta", "severity_method": "dnbr_mean", "forest_mask": "esa_worldcover_2021_10_20", "part": 277, "fire_id": "272118_277", "burn_year": 2025, "source": "sentinel", "aoi_source": "effis", "dnbr_threshold": 0.35, "buffer_m": 1200.0, "post_windows": 2, "post_window_dates": [{"start": "2025-06-28", "end": "2025-07-21"}, {"start": "2025-07-21", "end": "2025-08-20"}], "pre_window": {"start": "2025-04-07", "end": "2025-06-14"}, "fire_date": "2025-06-21", "aoi_id": "272118", "seed_id": "272118"}}, {"type": "Feature", "geometry": {"type": "Polygon", "coordinates": [[[1.2434280776727182, 41.655424884407665], [1.243187987810793, 41.65542121396727], [1.2431953294702691, 41.65515112494292], [1.2429552406549673, 41.65514745403591], [1.242957688186536, 41.655057424369595], [1.2428376439626039, 41.65505558873391], [1.2428400916500422, 41.654965559071826], [1.2427200476042604, 41.654963723316605], [1.2427273911007537, 41.654693634338486], [1.2429674782014122, 41.65469730568901], [1.2429723731420126, 41.65451724633951], [1.2432124596192062, 41.65452091716573], [1.2432198009445372, 41.65425082809539], [1.2430997582013827, 41.654248992762234], [1.2431022054545533, 41.65415896307481], [1.2426220352613382, 41.65415162051225], [1.2426195873401584, 41.65424165017658], [1.2423795019763926, 41.65423797813195], [1.2423770537100656, 41.654328007783214], [1.242136968056867, 41.65432433522584], [1.242122276220832, 41.65486451303193], [1.2418821886081486, 41.65486083990408], [1.2418797395957863, 41.654950869521514], [1.2416396516936727, 41.654947195880894], [1.241634752967472, 41.65512725508808], [1.2418748415376208, 41.6551309287518], [1.241872392491819, 41.65522095836464], [1.242112481440575, 41.65522463153869], [1.2421100327176475, 41.65531466116153], [1.242470166725403, 41.65532017000012], [1.2424677184923663, 41.65541019963875], [1.2425877633509175, 41.65541203567344], [1.2425828671854409, 41.655592094957655], [1.2427029123891606, 41.65559393087857], [1.2426931205925584, 41.655954049451694], [1.2425730747207768, 41.655952213507696], [1.2425706265767538, 41.65604224314137], [1.242450580549097, 41.65604040706628], [1.2424530288601372, 41.655950377438366], [1.2423329830106418, 41.65594854124375], [1.2423305345325844, 41.656038570865896], [1.2422104885272156, 41.65603673454018], [1.2422080398709963, 41.65612676415502], [1.2424481322269136, 41.65613043669266], [1.2424456838935862, 41.6562204663175], [1.2426857766281163, 41.656224138365445], [1.2426882246274054, 41.65613410872906], [1.242808270844365, 41.656135944559296], [1.242810718665494, 41.656045914915616], [1.2429307647265764, 41.656047750614775], [1.2429381076220662, 41.65577766165721], [1.2430581531932388, 41.65577949721375], [1.2430606006357727, 41.65568946755239], [1.2431806460510695, 41.65569130297784], [1.24318554056869, 41.655511243639005], [1.243425630764642, 41.65551491409093], [1.2434280776727182, 41.655424884407665]]]}, "properties": {"area_ha": 1.41, "dnbr_threshold_core": 0.35, "dnbr_threshold_grow": 0.22, "dnbr_mean": 0.6189, "dnbr_max": 0.8542, "severity": "alta", "severity_method": "dnbr_mean", "forest_mask": "esa_worldcover_2021_10_20", "part": 284, "fire_id": "272118_284", "burn_year": 2025, "source": "sentinel", "aoi_source": "effis", "dnbr_threshold": 0.35, "buffer_m": 1200.0, "post_windows": 2, "post_window_dates": [{"start": "2025-06-28", "end": "2025-07-21"}, {"start": "2025-07-21", "end": "2025-08-20"}], "pre_window": {"start": "2025-04-07", "end": "2025-06-14"}, "fire_date": "2025-06-21", "aoi_id": "272118", "seed_id": "272118"}}, {"type": "Feature", "geometry": {"type": "Polygon", "coordinates": [[[1.2387168916124567, 41.65643357380647], [1.2389569846575095, 41.656437253658304], [1.2389618910670346, 41.65625719475136], [1.2390819372722712, 41.65625903447775], [1.239084390293268, 41.656169005016196], [1.239204436342652, 41.656170844611495], [1.2392093420171162, 41.65599078567221], [1.2393293877436307, 41.65599262513063], [1.2393318403971008, 41.65590259565291], [1.2394518859677628, 41.65590443498025], [1.2394543384430545, 41.655814405495214], [1.2395743838578643, 41.65581624469146], [1.2395768361549793, 41.655726215199124], [1.2398169266840535, 41.65572989320411], [1.23981937863598, 41.655639863698674], [1.239939423750243, 41.65564170250744], [1.2399418755239966, 41.655551672994676], [1.2400619204824066, 41.65555351167235], [1.2400692752356766, 41.655283423107555], [1.24018931970421, 41.65528526164259], [1.2401942224832458, 41.655105202580174], [1.2403142666289175, 41.655107040978336], [1.2403216202127678, 41.654836952355865], [1.240081532934629, 41.654833275468896], [1.2400839844409455, 41.654743245936565], [1.2399639409856191, 41.65474140731091], [1.2399565859321753, 41.65501149588596], [1.2397164980529578, 41.65500781822404], [1.2397189500826131, 41.654917788712126], [1.239478862582052, 41.65491411056056], [1.239471505457554, 41.65518419905706], [1.2392314169995915, 41.65518052036959], [1.2392289642684158, 41.655270549853796], [1.2391089198891696, 41.655268710316314], [1.2391064669798204, 41.6553587397932], [1.238986422444728, 41.65535690012464], [1.238979063148657, 41.65562698852875], [1.238859018123694, 41.65562514871753], [1.2388565648356593, 41.65571517817672], [1.2386164744852075, 41.655711498166816], [1.2386140208519787, 41.65580152761291], [1.2384939755264903, 41.6557996874142], [1.2384915217150794, 41.65588971685297], [1.238371476233744, 41.655887876523174], [1.23836902224415, 41.65597790595463], [1.2382489766069689, 41.65597606549374], [1.2382465224391888, 41.656066094917875], [1.2381264766461617, 41.6560642543259], [1.2381215679430573, 41.656244313158], [1.2380015218271672, 41.656242472429135], [1.2379990672918402, 41.65633250183709], [1.2378790210201034, 41.65633066097715], [1.2378716568460313, 41.65660074917448], [1.2376315633339592, 41.65659706704391], [1.2376291082528816, 41.65668709642837], [1.2373890144514652, 41.656683413785], [1.237376737208224, 41.65713356062648], [1.2376168326798729, 41.65713724332773], [1.237619287816824, 41.65704721395092], [1.2377393354023856, 41.65704905510779], [1.2377417903611374, 41.656959025723665], [1.2379818852317344, 41.6569627076499], [1.2379843398452661, 41.65687267825267], [1.2382244344265045, 41.656876359666086], [1.2382293429519609, 41.65669630084388], [1.238469436909792, 41.656699981732906], [1.2384743447224824, 41.65651992288144], [1.2387144380569048, 41.656523603246086], [1.2387168916124567, 41.65643357380647]], [[1.2390942022656044, 41.65580888715464], [1.239099108184784, 41.65562882821467], [1.2392191532320764, 41.65563066777527], [1.2392142476469241, 41.65581072672681], [1.2390942022656044, 41.65580888715464]]]}, "properties": {"area_ha": 1.79, "dnbr_threshold_core": 0.35, "dnbr_threshold_grow": 0.22, "dnbr_mean": 0.616, "dnbr_max": 0.8575, "severity": "alta", "severity_method": "dnbr_mean", "forest_mask": "esa_worldcover_2021_10_20", "part": 286, "fire_id": "272118_286", "burn_year": 2025, "source": "sentinel", "aoi_source": "effis", "dnbr_threshold": 0.35, "buffer_m": 1200.0, "post_windows": 2, "post_window_dates": [{"start": "2025-06-28", "end": "2025-07-21"}, {"start": "2025-07-21", "end": "2025-08-20"}], "pre_window": {"start": "2025-04-07", "end": "2025-06-14"}, "fire_date": "2025-06-21", "aoi_id": "272118", "seed_id": "272118"}}, {"type": "Feature", "geometry": {"type": "Polygon", "coordinates": [[[1.241125174650607, 41.65620026109414], [1.2408850822059214, 41.656196585788145], [1.2408801811633265, 41.656376644883096], [1.2406400880951778, 41.65637296905276], [1.2406376372231096, 41.65646299858638], [1.2403975438655412, 41.656459322243236], [1.2403926414198538, 41.6566393812828], [1.2405126884271027, 41.656641219528574], [1.2405102373545456, 41.65673124905182], [1.2406302845399735, 41.65673308717806], [1.2406278336232839, 41.65682311670556], [1.2408679283616508, 41.65682679259368], [1.2408654777678538, 41.65691682213119], [1.2409855253207926, 41.65691865989306], [1.2409806244337875, 41.65709871897504], [1.2412207202412264, 41.65710239414594], [1.2412182701150467, 41.65719242369618], [1.2413383182025204, 41.65719426109943], [1.2413358682322164, 41.65728429065393], [1.2412158199777155, 41.657282453244896], [1.2412109196695966, 41.657462512337716], [1.2409708225259373, 41.657458837120615], [1.2409683720210911, 41.65754886665318], [1.2410884207543735, 41.65755070433016], [1.2410859704054042, 41.65764073386696], [1.2414461171732583, 41.65764624616335], [1.2414510168578643, 41.657466187053565], [1.241691114090734, 41.65746986126815], [1.241696013062624, 41.65728980212912], [1.2419361096719752, 41.657293475819344], [1.2419703965499143, 41.65603306151286], [1.2420904425329922, 41.65603489808918], [1.2420928913450837, 41.655944868478585], [1.2413726166159331, 41.65593384717565], [1.2413701668017394, 41.65602387675161], [1.2411300749805165, 41.656020201969945], [1.241125174650607, 41.65620026109414]]]}, "properties": {"area_ha": 1.49, "dnbr_threshold_core": 0.35, "dnbr_threshold_grow": 0.22, "dnbr_mean": 0.5077, "dnbr_max": 0.8085, "severity": "alta", "severity_method": "dnbr_mean", "forest_mask": "esa_worldcover_2021_10_20", "part": 288, "fire_id": "272118_288", "burn_year": 2025, "source": "sentinel", "aoi_source": "effis", "dnbr_threshold": 0.35, "buffer_m": 1200.0, "post_windows": 2, "post_window_dates": [{"start": "2025-06-28", "end": "2025-07-21"}, {"start": "2025-07-21", "end": "2025-08-20"}], "pre_window": {"start": "2025-04-07", "end": "2025-06-14"}, "fire_date": "2025-06-21", "aoi_id": "272118", "seed_id": "272118"}}]}
