{"type": "FeatureCollection", "features": [{"type": "Feature", "geometry": {"type": "Polygon", "coordinates": [[[1.6207062196959408, 41.68092816187366], [1.6208263337214073, 41.68092960356293], [1.620828256738993, 41.68083955801188], [1.621789167919085, 41.680851086972176], [1.6217910895891305, 41.680761041383384], [1.6219112033586751, 41.68076248193419], [1.6219150463378218, 41.68058239074312], [1.6220351597814213, 41.68058383115939], [1.622037081090525, 41.680493785557076], [1.622397420971772, 41.68049810603937], [1.622399341770091, 41.680408060422], [1.622639568066628, 41.68041094010705], [1.622641488521512, 41.680320894479145], [1.6231219405501305, 41.680326652325284], [1.6231257800949157, 41.68014656102879], [1.6233660054922998, 41.68014943918086], [1.6233698443327513, 41.679969347860336], [1.6238502938936465, 41.67997510262244], [1.6238541313604127, 41.67979501125978], [1.6254155890475652, 41.67981370025303], [1.62541750559242, 41.67972365451073], [1.6255376176159668, 41.679725091242695], [1.625539533984756, 41.67963504549438], [1.6262602053052062, 41.67964366322387], [1.6262621206612342, 41.67955361744698], [1.6263822324111645, 41.67955505329152], [1.6263841475911334, 41.67946500750863], [1.6278254872621842, 41.67948222780129], [1.6278235740902824, 41.67957227363831], [1.6279436859535152, 41.67957370785156], [1.6279455989580778, 41.679483662010036], [1.6280657106626821, 41.679485096093295], [1.6280637978254586, 41.67957514193933], [1.628304021595473, 41.67957800973842], [1.62830210908422, 41.67966805559199], [1.6284222211496298, 41.679669489307805], [1.6284241334935425, 41.67957944344975], [1.6286643573158022, 41.67958231049593], [1.628666269316329, 41.67949226462735], [1.6291467163959528, 41.679497997195895], [1.629142893724914, 41.679678088967584], [1.6295032301300525, 41.67968238710344], [1.629507051797051, 41.679502295304715], [1.6293869399879832, 41.67950086272727], [1.629390761954858, 41.6793207709316], [1.6289103161443153, 41.67931503940296], [1.6289141394150821, 41.67913494763737], [1.628794028318878, 41.67913351445051], [1.6287959401085408, 41.67904346857001], [1.6286758291883776, 41.679042035262164], [1.6286892126436194, 41.67841171408843], [1.628809322392454, 41.67841314736473], [1.6288074106637225, 41.67850319325566], [1.628927520588592, 41.67850462641098], [1.6289389898264444, 41.67796435101605], [1.6288188809055464, 41.677962917887754], [1.628820792582052, 41.677872871987915], [1.6287006838371836, 41.67787143873865], [1.6287045074987327, 41.67769134694349], [1.6285843990972182, 41.67768991357776], [1.6285863110822594, 41.67759986768246], [1.6284662028567745, 41.67759843419576], [1.6284700271353845, 41.67741834240969], [1.6283499192532496, 41.677416908806535], [1.6283594806340158, 41.67696667933788], [1.628239373597186, 41.67696524563179], [1.6282431984231795, 41.67678515384293], [1.62800298504491, 41.676782286072346], [1.628004897779477, 41.6766922401847], [1.6278847912707208, 41.67669080611571], [1.6278886170483575, 41.67651071434497], [1.6280087232224847, 41.67651214840494], [1.6280221119986888, 41.67588182712895], [1.628142217010347, 41.6758832610319], [1.6281441294905201, 41.67579321512488], [1.627663710165371, 41.67578747877828], [1.627659883857851, 41.67596757055478], [1.6277799890106908, 41.675969004838656], [1.627778076011174, 41.676059050729194], [1.627657970691025, 41.67605761644081], [1.6276560575154881, 41.676147662325334], [1.627415846566703, 41.67614479336317], [1.6274139330478337, 41.676234839237196], [1.6272938274191981, 41.676233404563405], [1.6272919137243045, 41.67632345043144], [1.627051702158551, 41.67632058069841], [1.6270478740733743, 41.67650067241196], [1.6266875557862313, 41.676496366844326], [1.6266894703351156, 41.676406321001835], [1.6262090467435528, 41.676400578506474], [1.626210961952968, 41.676310532680546], [1.625970750544127, 41.67630766068906], [1.625972666079445, 41.676217614870666], [1.6258525605554175, 41.676216178691234], [1.625854476249324, 41.676126132875865], [1.6253740549096862, 41.67612038692153], [1.6253759712641076, 41.67603034112275], [1.6251357609812558, 41.6760274674018], [1.625143427650149, 41.67566728422788], [1.6250233231910416, 41.67566584719728], [1.62503290716733, 41.67521561821899], [1.6252731144212327, 41.67521849210956], [1.625271197978034, 41.67530853791723], [1.6253913017853763, 41.67530997467883], [1.6253778876098044, 41.675940295322455], [1.62561809759294, 41.6759431685325], [1.6256276775174818, 41.67549293946362], [1.6257477816856039, 41.67549437585786], [1.6257516132597492, 41.67531428421086], [1.6258717171019865, 41.6753157204706], [1.6258698014865787, 41.67540576629936], [1.6259899055048408, 41.67540720243816], [1.6259784126330687, 41.67594747740656], [1.6260985176638891, 41.675948913446966], [1.6260966023220447, 41.67603895927434], [1.6268172336939262, 41.67604757290908], [1.626819148031917, 41.67595752705462], [1.6270593582243293, 41.67596039725344], [1.6270631862049307, 41.675780305522046], [1.6273033957629688, 41.67578317520094], [1.627305309405584, 41.675693129323975], [1.62754551866386, 41.675695998491996], [1.6275493452537286, 41.675515906715574], [1.6276694495613222, 41.67551734110237], [1.627667536438049, 41.67560738699582], [1.6277876409216587, 41.675608821261655], [1.6277914668248836, 41.67542872946424], [1.6279115709825929, 41.67543016359558], [1.6279153965163713, 41.67525007178319], [1.6281556041887, 41.67525293965146], [1.628157516607921, 41.67516289373402], [1.6283977239804721, 41.67516576109141], [1.6283996360563817, 41.67507571516346], [1.6286398431291529, 41.67507858200998], [1.6286417548617538, 41.674988536071545], [1.6284015481235854, 41.67498566923404], [1.628407284272963, 41.67471553143682], [1.6282871814188362, 41.6747140978434], [1.628289093618516, 41.67462405191252], [1.6280488882709785, 41.67462118435827], [1.6280469757367024, 41.67471123028013], [1.6278067700893997, 41.674708362215036], [1.6278029443255277, 41.67488845403626], [1.627442634916101, 41.674884150970584], [1.6274407215192004, 41.67497419686545], [1.6269603084260649, 41.674968457670026], [1.626954566175472, 41.67523859529154], [1.6267143586773816, 41.67523572491397], [1.6267124442418148, 41.67532577077581], [1.6261119248126255, 41.6753185926137], [1.6261234163143072, 41.674778317555734], [1.6260033134584313, 41.67477688157401], [1.6260052288454896, 41.67468683573032], [1.6258851261656329, 41.674685399627634], [1.6258889572481807, 41.674505307944834], [1.6257688549116398, 41.674503871725726], [1.6257707706071267, 41.6744138258866], [1.6254104641517264, 41.67440951649005], [1.6254085479543519, 41.67449956231562], [1.6251683433597812, 41.67449668874824], [1.6251645102696726, 41.67467678037686], [1.625044407650882, 41.67467534339595], [1.6250520744653796, 41.67431516015083], [1.625292278373319, 41.67431803395106], [1.6252961110590332, 41.674137942301506], [1.6254162126915033, 41.674139379004394], [1.6254181288539806, 41.67404933317288], [1.6255382303278822, 41.67405076974579], [1.625540146314343, 41.67396072390826], [1.6257803489537332, 41.67396359666868], [1.6257822645968887, 41.67387355082064], [1.6259023657623755, 41.673874987008155], [1.625904281229519, 41.673784941154096], [1.6260243822364362, 41.67378637721163], [1.6260262975275688, 41.67369633135158], [1.6261463983759172, 41.67369776727914], [1.626150228597444, 41.67351767554555], [1.626390429651143, 41.673520547006255], [1.6263923444142525, 41.673430501128195], [1.626272244050331, 41.673429065465086], [1.6262779887892103, 41.67315892783553], [1.6263980886512737, 41.6731603634851], [1.6264000033795118, 41.673070317601095], [1.6266402027952214, 41.67307318851485], [1.6266421171801742, 41.67298314262033], [1.625561221589679, 41.672970219597254], [1.6255631374714619, 41.67288017374188], [1.6250827403271348, 41.67287442693232], [1.6250808237762218, 41.67296447276963], [1.6247205255077488, 41.67296016133164], [1.6247224425605096, 41.67287011550787], [1.6244822440930653, 41.67286724059765], [1.62448032670574, 41.67295728641237], [1.623999929206486, 41.67295153506838], [1.6239960930673791, 41.6731316266572], [1.6237558937010128, 41.67312875021439], [1.623752056857836, 41.67330884177919], [1.6232716568916463, 41.67330308735193], [1.6232735759867416, 41.67321304158838], [1.6231534761843214, 41.67321160267245], [1.6231515569219408, 41.67330164843149], [1.6225510572045043, 41.673294451947406], [1.622552977303308, 41.67320440621099], [1.6224328775533285, 41.67320296654233], [1.62243095728724, 41.67329301227422], [1.6223108573787186, 41.673291572475584], [1.622308936936602, 41.673381618201454], [1.6221888368695392, 41.673380178272836], [1.6221869162513929, 41.6734702239927], [1.6219467158089298, 41.67346734375004], [1.6219447948474657, 41.67355738945935], [1.6218246944720662, 41.67355594914532], [1.6218227733345685, 41.67364599484861], [1.6217026728006285, 41.67364455440459], [1.6216911447882154, 41.674184828566], [1.6215710432592836, 41.67418338796934], [1.6215787293050454, 41.67382320521914], [1.621098325953461, 41.6738174416504], [1.621096403785985, 41.67390748732206], [1.6209763028026767, 41.673906046111696], [1.6209743804591596, 41.67399609177735], [1.6208542793173135, 41.673994650436995], [1.6208408214965713, 41.67462497002313], [1.620720719192427, 41.67462352852561], [1.620718796444297, 41.67471357417029], [1.6205986939816106, 41.67471213254277], [1.6205967710574296, 41.674802178181416], [1.6203565658237293, 41.67479929454094], [1.6203546425561979, 41.67488934016904], [1.62011443702293, 41.67488645601764], [1.620110589792403, 41.675066547251255], [1.619990486704309, 41.67506510497829], [1.6199885629086084, 41.67515515058834], [1.6198684596619735, 41.67515370818538], [1.6198626877204148, 41.675423844992956], [1.6197425839806365, 41.67542240245094], [1.6197368114583277, 41.675692539231534], [1.6198569157000162, 41.675693981787155], [1.619847295490816, 41.676144209747704], [1.620087505673537, 41.67614709452791], [1.6200836581977711, 41.67632718571986], [1.6202037636368887, 41.67632862793082], [1.620201840053178, 41.67641867352909], [1.6197214176800234, 41.67641290391427], [1.6197233419329753, 41.676322858334146], [1.619603236528898, 41.6763214156213], [1.6196070853431361, 41.67614132446564], [1.6191266651529257, 41.676135552395884], [1.6191228150002166, 41.67631564351525], [1.61936302574703, 41.67631852981921], [1.6193611009921478, 41.676408575385736], [1.6196013121086357, 41.67641146119689], [1.619599387679612, 41.67650150677101], [1.6197194934183106, 41.67650294949292], [1.6197175691478358, 41.67659299507009], [1.6198376750626071, 41.67659443767106], [1.619835750950684, 41.67668448325126], [1.6204362814924964, 41.676691694396766], [1.6204343582083796, 41.67678173999815], [1.6205544645103294, 41.67678318185538], [1.620548695107382, 41.6770533186642], [1.620668801920033, 41.67705476040955], [1.6206668789355212, 41.67714480601405], [1.6205467719555537, 41.67714336426417], [1.6205448487949694, 41.67723340986264], [1.6207850630982945, 41.67723629324599], [1.6207773717069474, 41.67759647566127], [1.6208974795410198, 41.67759791718286], [1.6208917114075483, 41.67786805399228], [1.6210118197523413, 41.67786949540199], [1.6210098971909987, 41.67795954100669], [1.6205294631950617, 41.67795377459685], [1.6205333096475778, 41.67777368342223], [1.620293093371438, 41.677770799482595], [1.620296940458214, 41.677590708320146], [1.6201768326679236, 41.67758926617118], [1.6201787563654948, 41.67749922059225], [1.6198184335491403, 41.67749489340612], [1.6198145851413164, 41.67767498453527], [1.619694477218745, 41.67767354187988], [1.6196925528343697, 41.67776358743769], [1.6198126609242625, 41.67776503009762], [1.6197972668724259, 41.67848539454278], [1.6200374857556963, 41.67848827955876], [1.6200336378244382, 41.67866837067332], [1.620273857412064, 41.67867125520553], [1.6202700101150884, 41.67885134633226], [1.619309129297563, 41.678839805119374], [1.6193052792882416, 41.67901989616758], [1.6191851688908212, 41.67901845294224], [1.6191813185117734, 41.679198543975424], [1.6190612077884523, 41.679197100615525], [1.6190592824184458, 41.67928714612535], [1.6189391715365569, 41.67928570263544], [1.6189372459904485, 41.679375748139236], [1.6188171349499911, 41.67937430451931], [1.6188094320085376, 41.67973448650145], [1.6189295437183422, 41.679735930139536], [1.6189237669222034, 41.680006066624145], [1.6190438791427937, 41.68000751015036], [1.6190419536938871, 41.68009755564678], [1.6189218413059552, 41.68009611211603], [1.6189199156809395, 41.68018615760643], [1.6187998031344333, 41.68018471394565], [1.6187901740411161, 41.68063494135264], [1.6190304008163374, 41.68063782859409], [1.619026549787017, 41.68081791956463], [1.6191466635224727, 41.68081936300619], [1.6191447381620097, 41.680909408493754], [1.6192648520735797, 41.68091085181437], [1.619262926871699, 41.68100089730498], [1.6195031550558343, 41.681003783578824], [1.6194993052951752, 41.68118387457374], [1.61961941973509, 41.6811853175315], [1.6196155702740764, 41.68136540852954], [1.6197356850574585, 41.68136685137088], [1.6197318358960962, 41.68154694237202], [1.6196117207780079, 41.6815454995216], [1.6196078712468835, 41.68172559050774], [1.6194877558028495, 41.68172414752277], [1.6194800559660054, 41.682084329459016], [1.6199605204724339, 41.68209010071852], [1.6199643690695233, 41.681910009717086], [1.6203247165371988, 41.68191433681683], [1.6203266403205303, 41.68182429130027], [1.6204467559932518, 41.681825733411344], [1.6204621446057401, 41.681105369189105], [1.620582258948392, 41.68110681113841], [1.6205841823181903, 41.681016765599395], [1.62070429650225, 41.68101820741869], [1.6207062196959408, 41.68092816187366]], [[1.6249677318258113, 41.678277174537854], [1.6248476225232464, 41.678275737250765], [1.6248495397563973, 41.678185691505746], [1.624969648891635, 41.67818712878831], [1.6249677318258113, 41.678277174537854]], [[1.6247294306298892, 41.678184254097694], [1.624731348021637, 41.678094208355716], [1.6248514569808188, 41.67809564575925], [1.6248495397563973, 41.678185691505746], [1.6247294306298892, 41.678184254097694]], [[1.625453918286715, 41.67801278512416], [1.6254500855198653, 41.678192876663815], [1.6252098671882966, 41.67819000297702], [1.625213700624452, 41.67800991145542], [1.625453918286715, 41.67801278512416]], [[1.6249811511032768, 41.67764685425986], [1.6249792340898244, 41.677736900018324], [1.6248591257912122, 41.67773546275834], [1.6248629601440334, 41.67755537124897], [1.6246227442422867, 41.67755249637066], [1.6246246617402467, 41.67746245062278], [1.6247447695194341, 41.677463888120144], [1.6247466868413425, 41.677373842366244], [1.6251070097293188, 41.677378154091976], [1.6251050929093713, 41.677468199859426], [1.6252252007234733, 41.67746963685491], [1.62522136739204, 41.677649728394364], [1.6249811511032768, 41.67764685425986]], [[1.6242720103674353, 41.67709795442564], [1.6242758462712215, 41.67691786294061], [1.6241557395308708, 41.67691642496846], [1.6241595757343577, 41.67673633348654], [1.6242796821400773, 41.67673777144965], [1.6242816000614066, 41.67664772570194], [1.624521812564414, 41.6766506012427], [1.6245198949777135, 41.676740646999455], [1.6246400014096283, 41.67674208458615], [1.6246323316447804, 41.67710226761636], [1.6242720103674353, 41.67709795442564]], [[1.6218054827034731, 41.67445640611139], [1.6218074039196944, 41.67436636042149], [1.622047607690468, 41.67436924100561], [1.6220456868088349, 41.674459286704575], [1.6218054827034731, 41.67445640611139]], [[1.6220533702828923, 41.67409910389978], [1.622293573084891, 41.674101983954905], [1.6222916525640794, 41.67419202966739], [1.622411754145488, 41.674193469511295], [1.6224098337832247, 41.67428351522683], [1.6222897320345235, 41.6742820753784], [1.6222878114962238, 41.674372121087906], [1.622047607690468, 41.67436924100561], [1.6220533702828923, 41.67409910389978]]]}, "properties": {"area_ha": 48.72, "dnbr_threshold_core": 0.35, "dnbr_threshold_grow": 0.22, "dnbr_mean": 0.731, "dnbr_max": 1.1112, "severity": "alta", "severity_method": "dnbr_mean", "forest_mask": "esa_worldcover_2021_10_20", "part": 11, "fire_id": "561551", "burn_year": 2026, "source": "sentinel", "aoi_source": "effis", "dnbr_threshold": 0.35, "buffer_m": 1200.0, "post_windows": 2, "post_window_dates": [{"start": "2026-07-15", "end": "2026-08-07"}, {"start": "2026-08-07", "end": "2026-09-06"}], "pre_window": {"start": "2026-04-24", "end": "2026-07-01"}, "fire_date": "2026-07-08"}}]}
